zip,name,emp_nf,emp,qp1_nf,qp1,ap_nf,ap,est,city,stabbr,cty_name,coastalZip,coastalCounty,ALLCoastalCounty,state
90001,"LOS ANGELES, CA",G,8427,G,129142,G,570959,666,LOS ANGELES,CA,LOS ANGELES,0,1,0,California
90002,"LOS ANGELES, CA",G,2174,G,23426,G,99237,243,LOS ANGELES,CA,LOS ANGELES,0,1,0,California
90003,"LOS ANGELES, CA",G,4080,G,38402,G,159984,522,LOS ANGELES,CA,LOS ANGELES,0,1,0,California
90004,"LOS ANGELES, CA",G,9993,G,165326,G,641130,1424,LOS ANGELES,CA,LOS ANGELES,0,1,0,California
90005,"LOS ANGELES, CA",G,6019,G,63893,G,274760,811,LOS ANGELES,CA,LOS ANGELES,0,1,0,California
90006,"LOS ANGELES, CA",G,9015,G,101204,G,419505,1320,LOS ANGELES,CA,LOS ANGELES,0,1,0,California
90007,"LOS ANGELES, CA",H,35467,J,526986,J,2387353,920,LOS ANGELES,CA,LOS ANGELES,0,1,0,California
90008,"LOS ANGELES, CA",G,3797,G,35179,G,147245,455,LOS ANGELES,CA,LOS ANGELES,0,1,0,California
90010,"LOS ANGELES, CA",G,27890,G,455521,H,2026015,2291,LOS ANGELES,CA,LOS ANGELES,0,1,0,California
90011,"LOS ANGELES, CA",G,7522,G,91939,G,367369,830,LOS ANGELES,CA,LOS ANGELES,0,1,0,California
90012,"LOS ANGELES, CA",G,26132,G,350115,G,1720264,1384,LOS ANGELES,CA,LOS ANGELES,0,1,0,California
90013,"LOS ANGELES, CA",G,19679,G,581715,G,2093013,1596,LOS ANGELES,CA,LOS ANGELES,0,1,0,California
90014,"LOS ANGELES, CA",G,12402,G,180031,G,748115,1841,LOS ANGELES,CA,LOS ANGELES,0,1,0,California
90015,"LOS ANGELES, CA",G,36140,G,641218,G,2559163,2528,LOS ANGELES,CA,LOS ANGELES,0,1,0,California
90016,"LOS ANGELES, CA",G,12131,G,182311,G,733405,906,LOS ANGELES,CA,LOS ANGELES,0,1,0,California
90017,"LOS ANGELES, CA",G,49040,G,1628873,G,5522603,1932,LOS ANGELES,CA,LOS ANGELES,0,1,0,California
90018,"LOS ANGELES, CA",G,5252,G,82613,G,327309,581,LOS ANGELES,CA,LOS ANGELES,0,1,0,California
90019,"LOS ANGELES, CA",G,9352,G,117099,G,501635,1437,LOS ANGELES,CA,LOS ANGELES,0,1,0,California
90020,"LOS ANGELES, CA",G,6926,G,79812,G,331712,956,LOS ANGELES,CA,LOS ANGELES,0,1,0,California
90021,"LOS ANGELES, CA",G,22949,H,405304,G,1515618,2008,LOS ANGELES,CA,LOS ANGELES,0,1,0,California
90022,"LOS ANGELES, CA",G,10617,G,154471,G,609937,855,LOS ANGELES,CA,LOS ANGELES,0,1,0,California
90023,"LOS ANGELES, CA",G,15473,G,218461,G,865751,914,LOS ANGELES,CA,LOS ANGELES,0,1,0,California
90024,"LOS ANGELES, CA",H,28946,G,909877,G,3455914,2345,LOS ANGELES,CA,LOS ANGELES,0,1,0,California
90025,"LOS ANGELES, CA",G,37310,G,954867,G,3871254,3939,LOS ANGELES,CA,LOS ANGELES,0,1,0,California
90026,"LOS ANGELES, CA",G,11200,G,132453,G,583318,1705,LOS ANGELES,CA,LOS ANGELES,0,1,0,California
90027,"LOS ANGELES, CA",G,27624,G,519897,G,2300385,1916,LOS ANGELES,CA,LOS ANGELES,0,1,0,California
90028,"LOS ANGELES, CA",G,34891,H,982505,H,3584121,1797,LOS ANGELES,CA,LOS ANGELES,0,1,0,California
90029,"LOS ANGELES, CA",G,5389,G,59864,G,255205,731,LOS ANGELES,CA,LOS ANGELES,0,1,0,California
90031,"LOS ANGELES, CA",H,10194,H,134664,H,489901,652,LOS ANGELES,CA,LOS ANGELES,0,1,0,California
90032,"LOS ANGELES, CA",H,7989,J,163917,J,583909,489,LOS ANGELES,CA,LOS ANGELES,0,1,0,California
90033,"LOS ANGELES, CA",G,21641,G,474344,G,1782504,600,LOS ANGELES,CA,LOS ANGELES,0,1,0,California
90034,"LOS ANGELES, CA",G,15888,G,237025,G,979844,1515,LOS ANGELES,CA,LOS ANGELES,0,1,0,California
90035,"LOS ANGELES, CA",G,11221,H,192275,H,864679,1339,LOS ANGELES,CA,LOS ANGELES,0,1,0,California
90036,"LOS ANGELES, CA",G,30271,G,472201,G,1898093,2453,LOS ANGELES,CA,LOS ANGELES,0,1,0,California
90037,"LOS ANGELES, CA",G,6422,G,74579,G,315689,501,LOS ANGELES,CA,LOS ANGELES,0,1,0,California
90038,"LOS ANGELES, CA",H,33691,H,384408,H,1369218,1065,LOS ANGELES,CA,LOS ANGELES,0,1,0,California
90039,"LOS ANGELES, CA",G,10693,G,167060,G,741862,1425,LOS ANGELES,CA,LOS ANGELES,0,1,0,California
90040,"LOS ANGELES, CA",G,43979,G,618750,G,2532786,1290,LOS ANGELES,CA,LOS ANGELES,0,1,0,California
90041,"LOS ANGELES, CA",G,8206,G,84513,G,368435,933,LOS ANGELES,CA,LOS ANGELES,0,1,0,California
90042,"LOS ANGELES, CA",G,5437,G,57180,G,251444,1089,LOS ANGELES,CA,LOS ANGELES,0,1,0,California
90043,"LOS ANGELES, CA",G,3803,H,41298,H,174801,532,LOS ANGELES,CA,LOS ANGELES,0,1,0,California
90044,"LOS ANGELES, CA",G,4200,G,38384,G,152770,482,LOS ANGELES,CA,LOS ANGELES,0,1,0,California
90045,"LOS ANGELES, CA",G,76450,G,1409008,G,5556665,2249,LOS ANGELES,CA,LOS ANGELES,0,1,0,California
90046,"LOS ANGELES, CA",G,14140,G,191469,G,849925,2508,LOS ANGELES,CA,LOS ANGELES,0,1,0,California
90047,"LOS ANGELES, CA",G,4463,G,43439,G,177665,513,LOS ANGELES,CA,LOS ANGELES,0,1,0,California
90048,"LOS ANGELES, CA",H,38255,H,865326,H,3532911,2456,LOS ANGELES,CA,LOS ANGELES,0,1,0,California
90049,"LOS ANGELES, CA",H,19035,G,322280,G,1493766,1998,LOS ANGELES,CA,LOS ANGELES,0,1,0,California
90056,"LOS ANGELES, CA",G,3350,G,46382,G,190749,225,LOS ANGELES,CA,LOS ANGELES,0,1,0,California
90057,"LOS ANGELES, CA",G,7975,G,90652,G,387448,707,LOS ANGELES,CA,LOS ANGELES,0,1,0,California
90058,"LOS ANGELES, CA",G,39384,G,683562,G,2628468,1457,LOS ANGELES,CA,LOS ANGELES,0,1,0,California
90059,"LOS ANGELES, CA",G,6736,G,151925,G,623663,292,LOS ANGELES,CA,LOS ANGELES,0,1,0,California
90061,"LOS ANGELES, CA",G,6257,G,83602,G,366846,361,LOS ANGELES,CA,LOS ANGELES,0,1,0,California
90062,"LOS ANGELES, CA",H,2129,G,15061,G,64205,221,LOS ANGELES,CA,LOS ANGELES,0,1,0,California
90063,"LOS ANGELES, CA",G,3570,G,43042,G,168203,433,LOS ANGELES,CA,LOS ANGELES,0,1,0,California
90064,"LOS ANGELES, CA",G,42145,H,1097944,G,4069371,2440,LOS ANGELES,CA,LOS ANGELES,0,1,0,California
90065,"LOS ANGELES, CA",G,9443,G,124267,G,530139,1194,LOS ANGELES,CA,LOS ANGELES,0,1,0,California
90066,"LOS ANGELES, CA",G,15264,G,342703,G,1715106,1834,LOS ANGELES,CA,LOS ANGELES,0,1,0,California
90067,"LOS ANGELES, CA",G,38983,G,2243442,G,7876409,2919,LOS ANGELES,CA,LOS ANGELES,0,1,0,California
90068,"LOS ANGELES, CA",H,7352,G,116880,G,518727,1130,LOS ANGELES,CA,LOS ANGELES,0,1,0,California
90069,"WEST HOLLYWOOD, CA",G,25607,G,551318,G,2341407,2749,WEST HOLLYWOOD,CA,LOS ANGELES,0,1,0,California
90071,"LOS ANGELES, CA",G,46029,G,2134939,G,8489506,1115,LOS ANGELES,CA,LOS ANGELES,0,1,0,California
90073,"LOS ANGELES, CA",J,5494,J,327062,J,1158280,11,LOS ANGELES,CA,LOS ANGELES,0,1,0,California
90077,"LOS ANGELES, CA",G,2392,G,33018,G,160823,334,LOS ANGELES,CA,LOS ANGELES,0,1,0,California
90079,"LOS ANGELES, CA",H,696,J,31877,H,77468,82,LOS ANGELES,CA,LOS ANGELES,0,1,0,California
90089,"LOS ANGELES, CA",H,7976,H,154693,H,632628,40,LOS ANGELES,CA,LOS ANGELES,0,1,0,California
90094,"PLAYA VISTA, CA",G,7404,G,250682,G,898647,398,PLAYA VISTA,CA,LOS ANGELES,0,1,0,California
90095,"LOS ANGELES, CA",J,260,J,7764,J,32084,30,LOS ANGELES,CA,LOS ANGELES,0,1,0,California
90201,"BELL GARDENS, CA",G,14238,G,183901,G,753723,1012,BELL GARDENS,CA,LOS ANGELES,0,1,0,California
90210,"BEVERLY HILLS, CA",H,32353,G,648013,G,2653591,2536,BEVERLY HILLS,CA,LOS ANGELES,0,1,0,California
90211,"BEVERLY HILLS, CA",G,12038,G,273105,G,1250065,1980,BEVERLY HILLS,CA,LOS ANGELES,0,1,0,California
90212,"BEVERLY HILLS, CA",G,15564,G,565367,G,2132083,2322,BEVERLY HILLS,CA,LOS ANGELES,0,1,0,California
90220,"COMPTON, CA",G,18487,G,291076,G,1145054,810,COMPTON,CA,LOS ANGELES,0,1,0,California
90221,"COMPTON, CA",G,13435,G,256741,G,910855,675,COMPTON,CA,LOS ANGELES,0,1,0,California
90222,"COMPTON, CA",G,2472,G,29471,G,123156,243,COMPTON,CA,LOS ANGELES,0,1,0,California
90230,"CULVER CITY, CA",G,25629,G,462322,G,2203357,1569,CULVER CITY,CA,LOS ANGELES,0,1,0,California
90232,"CULVER CITY, CA",G,32575,G,907107,G,4377883,1342,CULVER CITY,CA,LOS ANGELES,0,1,0,California
90240,"DOWNEY, CA",G,5318,G,44886,G,193981,610,DOWNEY,CA,LOS ANGELES,0,1,0,California
90241,"DOWNEY, CA",G,18127,G,234372,G,939032,1315,DOWNEY,CA,LOS ANGELES,0,1,0,California
90242,"DOWNEY, CA",G,16330,G,306278,G,1292648,600,DOWNEY,CA,LOS ANGELES,0,1,0,California
90245,"EL SEGUNDO, CA",G,80838,G,2878422,G,10356804,2288,EL SEGUNDO,CA,LOS ANGELES,1,1,0,California
90247,"GARDENA, CA",G,11938,G,158779,G,628625,859,GARDENA,CA,LOS ANGELES,0,1,0,California
90248,"GARDENA, CA",G,32047,G,497231,G,2056878,1387,GARDENA,CA,LOS ANGELES,0,1,0,California
90249,"GARDENA, CA",G,9690,G,124039,G,528255,761,GARDENA,CA,LOS ANGELES,0,1,0,California
90250,"HAWTHORNE, CA",G,28756,H,536014,H,2525596,1403,HAWTHORNE,CA,LOS ANGELES,0,1,0,California
90254,"HERMOSA BEACH, CA",G,7516,G,119211,G,452338,1128,HERMOSA BEACH,CA,LOS ANGELES,1,1,0,California
90255,"HUNTINGTON PARK, CA",G,14789,G,166388,G,698934,1004,HUNTINGTON PARK,CA,LOS ANGELES,0,1,0,California
90260,"LAWNDALE, CA",G,4720,G,53196,G,224623,604,LAWNDALE,CA,LOS ANGELES,0,1,0,California
90262,"LYNWOOD, CA",H,9411,H,115880,H,486561,762,LYNWOOD,CA,LOS ANGELES,0,1,0,California
90263,"MALIBU, CA",J,3379,J,31744,J,132971,8,MALIBU,CA,LOS ANGELES,1,1,0,California
90265,"MALIBU, CA",G,7752,G,156000,G,644217,997,MALIBU,CA,LOS ANGELES,1,1,0,California
90266,"MANHATTAN BEACH, CA",G,17639,G,341013,G,1439995,2046,MANHATTAN BEACH,CA,LOS ANGELES,1,1,0,California
90270,"MAYWOOD, CA",G,3143,G,36192,G,146884,280,MAYWOOD,CA,LOS ANGELES,0,1,0,California
90272,"PACIFIC PALISADES, CA",G,6666,G,103379,G,450854,1038,PACIFIC PALISADES,CA,LOS ANGELES,1,1,0,California
90274,"PALOS VERDES PENINSULA, CA",G,7499,G,113556,G,482346,1069,PALOS VERDES PENINSULA,CA,LOS ANGELES,1,1,0,California
90275,"RANCHO PALOS VERDES, CA",H,6239,H,78283,G,334666,888,RANCHO PALOS VERDES,CA,LOS ANGELES,1,1,0,California
90277,"REDONDO BEACH, CA",G,10996,G,137871,G,576534,1550,REDONDO BEACH,CA,LOS ANGELES,1,1,0,California
90278,"REDONDO BEACH, CA",H,18982,J,405101,H,1523310,1264,REDONDO BEACH,CA,LOS ANGELES,0,1,0,California
90280,"SOUTH GATE, CA",G,16325,G,206788,G,860858,1109,SOUTH GATE,CA,LOS ANGELES,0,1,0,California
90290,"TOPANGA, CA",G,1099,H,13151,G,64861,318,TOPANGA,CA,LOS ANGELES,0,1,0,California
90291,"VENICE, CA",G,13975,H,390855,H,1610376,1645,VENICE,CA,LOS ANGELES,1,1,0,California
90292,"MARINA DEL REY, CA",G,15926,G,292965,G,1159818,1699,MARINA DEL REY,CA,LOS ANGELES,1,1,0,California
90293,"PLAYA DEL REY, CA",G,1490,G,20254,G,91510,406,PLAYA DEL REY,CA,LOS ANGELES,1,1,0,California
90301,"INGLEWOOD, CA",G,12879,G,161958,G,672287,869,INGLEWOOD,CA,LOS ANGELES,0,1,0,California
90302,"INGLEWOOD, CA",G,4355,G,69516,G,275217,379,INGLEWOOD,CA,LOS ANGELES,0,1,0,California
90303,"INGLEWOOD, CA",G,5097,G,47880,G,197694,309,INGLEWOOD,CA,LOS ANGELES,0,1,0,California
90304,"INGLEWOOD, CA",G,2426,G,25714,G,105369,297,INGLEWOOD,CA,LOS ANGELES,0,1,0,California
90305,"INGLEWOOD, CA",G,2019,H,50347,H,177298,146,INGLEWOOD,CA,LOS ANGELES,0,1,0,California
90401,"SANTA MONICA, CA",G,28887,G,823473,G,2883929,1817,SANTA MONICA,CA,LOS ANGELES,1,1,0,California
90402,"SANTA MONICA, CA",G,1860,G,31699,G,148400,482,SANTA MONICA,CA,LOS ANGELES,1,1,0,California
90403,"SANTA MONICA, CA",G,10765,H,189430,H,855966,1583,SANTA MONICA,CA,LOS ANGELES,1,1,0,California
90404,"SANTA MONICA, CA",G,32963,G,1227783,H,6138109,1574,SANTA MONICA,CA,LOS ANGELES,0,1,0,California
90405,"SANTA MONICA, CA",G,19145,H,915443,G,3351705,1839,SANTA MONICA,CA,LOS ANGELES,1,1,0,California
90501,"TORRANCE, CA",G,27757,G,480664,G,1977872,1849,TORRANCE,CA,LOS ANGELES,0,1,0,California
90502,"TORRANCE, CA",H,18985,H,428424,H,1638982,672,TORRANCE,CA,LOS ANGELES,0,1,0,California
90503,"TORRANCE, CA",G,30491,G,505214,G,2033178,2158,TORRANCE,CA,LOS ANGELES,0,1,0,California
90504,"TORRANCE, CA",G,9527,G,149650,G,605966,689,TORRANCE,CA,LOS ANGELES,0,1,0,California
90505,"TORRANCE, CA",G,31411,G,498792,G,2057374,2208,TORRANCE,CA,LOS ANGELES,0,1,0,California
90601,"WHITTIER, CA",G,13278,G,169951,G,721550,702,WHITTIER,CA,LOS ANGELES,0,1,0,California
90602,"WHITTIER, CA",H,10321,H,172000,H,684366,538,WHITTIER,CA,LOS ANGELES,0,1,0,California
90603,"WHITTIER, CA",G,5612,G,65814,G,269654,458,WHITTIER,CA,LOS ANGELES,0,1,0,California
90604,"WHITTIER, CA",G,1853,G,16815,G,74018,308,WHITTIER,CA,LOS ANGELES,0,1,0,California
90605,"WHITTIER, CA",G,5563,G,52337,G,217743,609,WHITTIER,CA,LOS ANGELES,0,1,0,California
90606,"WHITTIER, CA",G,6005,G,75175,G,291849,422,WHITTIER,CA,LOS ANGELES,0,1,0,California
90620,"BUENA PARK, CA",G,23068,G,290311,G,1217469,1015,BUENA PARK,CA,ORANGE,0,1,0,California
90621,"BUENA PARK, CA",G,11275,G,169122,G,702974,1170,BUENA PARK,CA,ORANGE,0,1,0,California
90623,"LA PALMA, CA",G,6336,G,133210,G,524845,438,LA PALMA,CA,ORANGE,0,1,0,California
90630,"CYPRESS, CA",G,21856,G,416323,G,1721434,1278,CYPRESS,CA,ORANGE,0,1,0,California
90631,"LA HABRA, CA",G,15356,G,163704,G,692095,1498,LA HABRA,CA,ORANGE,0,1,0,California
90638,"LA MIRADA, CA",H,17603,H,307777,H,1260101,1099,LA MIRADA,CA,LOS ANGELES,0,1,0,California
90639,"LA MIRADA, CA",J,2510,J,23282,J,90840,6,LA MIRADA,CA,LOS ANGELES,0,1,0,California
90640,"MONTEBELLO, CA",G,19311,G,249411,G,999917,1370,MONTEBELLO,CA,LOS ANGELES,0,1,0,California
90650,"NORWALK, CA",G,16257,G,228308,G,958239,1304,NORWALK,CA,LOS ANGELES,0,1,0,California
90660,"PICO RIVERA, CA",G,15016,G,206613,G,825085,918,PICO RIVERA,CA,LOS ANGELES,0,1,0,California
90670,"SANTA FE SPRINGS, CA",G,58770,G,943690,G,3961131,2171,SANTA FE SPRINGS,CA,LOS ANGELES,0,1,0,California
90680,"STANTON, CA",G,7219,G,86744,G,353175,584,STANTON,CA,ORANGE,0,1,0,California
90701,"ARTESIA, CA",G,7209,G,87221,G,391220,699,ARTESIA,CA,LOS ANGELES,0,1,0,California
90703,"CERRITOS, CA",G,40809,G,657280,G,2499717,1970,CERRITOS,CA,LOS ANGELES,0,1,0,California
90704,"AVALON, CA",G,2248,H,27629,G,121527,210,AVALON,CA,LOS ANGELES,1,1,0,California
90706,"BELLFLOWER, CA",G,11070,G,125525,G,518891,1190,BELLFLOWER,CA,LOS ANGELES,0,1,0,California
90710,"HARBOR CITY, CA",G,8584,G,148787,G,648282,524,HARBOR CITY,CA,LOS ANGELES,0,1,0,California
90712,"LAKEWOOD, CA",G,10554,H,109484,H,434623,763,LAKEWOOD,CA,LOS ANGELES,0,1,0,California
90713,"LAKEWOOD, CA",G,3179,G,26273,G,111273,371,LAKEWOOD,CA,LOS ANGELES,0,1,0,California
90715,"LAKEWOOD, CA",G,1018,G,9103,G,37742,194,LAKEWOOD,CA,LOS ANGELES,0,1,0,California
90716,"HAWAIIAN GARDENS, CA",G,2821,G,30087,G,131037,192,HAWAIIAN GARDENS,CA,LOS ANGELES,0,1,0,California
90717,"LOMITA, CA",G,3842,G,36865,G,157804,563,LOMITA,CA,LOS ANGELES,0,1,0,California
90720,"LOS ALAMITOS, CA",H,15195,H,261439,H,1099160,1244,LOS ALAMITOS,CA,ORANGE,0,1,0,California
90723,"PARAMOUNT, CA",G,17896,G,250919,G,988069,1146,PARAMOUNT,CA,LOS ANGELES,0,1,0,California
90731,"SAN PEDRO, CA",G,9371,G,126023,G,550397,976,SAN PEDRO,CA,LOS ANGELES,1,1,0,California
90732,"SAN PEDRO, CA",H,4351,H,54851,H,226475,407,SAN PEDRO,CA,LOS ANGELES,1,1,0,California
90740,"SEAL BEACH, CA",G,11439,H,265275,H,891194,766,SEAL BEACH,CA,ORANGE,1,1,0,California
90742,"SUNSET BEACH, CA",H,403,H,4139,H,18638,42,SUNSET BEACH,CA,ORANGE,1,1,0,California
90743,"SURFSIDE, CA",H,48,H,426,G,1256,8,SURFSIDE,CA,ORANGE,1,1,0,California
90744,"WILMINGTON, CA",G,9359,H,208995,G,691192,701,WILMINGTON,CA,LOS ANGELES,1,1,0,California
90745,"CARSON, CA",G,14578,G,290827,G,985884,867,CARSON,CA,LOS ANGELES,0,1,0,California
90746,"CARSON, CA",G,19507,G,252485,G,1041677,805,CARSON,CA,LOS ANGELES,0,1,0,California
90747,"CARSON, CA",H,779,H,8244,H,33363,10,CARSON,CA,LOS ANGELES,0,1,0,California
90755,"SIGNAL HILL, CA",G,12756,G,249816,G,1012735,745,SIGNAL HILL,CA,LOS ANGELES,0,1,0,California
90802,"LONG BEACH, CA",G,23520,G,530425,G,1845808,1392,LONG BEACH,CA,LOS ANGELES,1,1,0,California
90803,"LONG BEACH, CA",G,9788,G,101628,G,424466,1181,LONG BEACH,CA,LOS ANGELES,1,1,0,California
90804,"LONG BEACH, CA",G,9269,G,102127,G,447621,758,LONG BEACH,CA,LOS ANGELES,0,1,0,California
90805,"LONG BEACH, CA",G,13240,G,202326,G,717754,872,LONG BEACH,CA,LOS ANGELES,0,1,0,California
90806,"LONG BEACH, CA",H,19230,H,390168,H,1601210,890,LONG BEACH,CA,LOS ANGELES,1,1,0,California
90807,"LONG BEACH, CA",G,13363,G,199612,G,800719,1149,LONG BEACH,CA,LOS ANGELES,0,1,0,California
90808,"LONG BEACH, CA",G,12979,G,189272,G,730796,851,LONG BEACH,CA,LOS ANGELES,0,1,0,California
90810,"LONG BEACH, CA",G,13244,G,284608,G,1030392,523,LONG BEACH,CA,LOS ANGELES,1,1,0,California
90813,"LONG BEACH, CA",G,11700,G,173188,G,701078,798,LONG BEACH,CA,LOS ANGELES,1,1,0,California
90814,"LONG BEACH, CA",G,2611,G,24333,G,101403,373,LONG BEACH,CA,LOS ANGELES,0,1,0,California
90815,"LONG BEACH, CA",G,12533,G,155121,G,786436,961,LONG BEACH,CA,LOS ANGELES,0,1,0,California
90822,"LONG BEACH, CA",J,3275,J,132817,J,470401,13,LONG BEACH,CA,LOS ANGELES,0,1,0,California
90831,"LONG BEACH, CA",H,2103,H,73409,H,227986,79,LONG BEACH,CA,LOS ANGELES,0,1,0,California
90840,"LONG BEACH, CA",J,524,J,2529,J,10637,8,LONG BEACH,CA,LOS ANGELES,0,1,0,California
91001,"ALTADENA, CA",G,4913,G,68791,G,282507,752,ALTADENA,CA,LOS ANGELES,0,1,0,California
91006,"ARCADIA, CA",G,14337,G,182971,G,756491,1709,ARCADIA,CA,LOS ANGELES,0,1,0,California
91007,"ARCADIA, CA",G,13715,G,157634,G,645116,1377,ARCADIA,CA,LOS ANGELES,0,1,0,California
91008,"DUARTE, CA",J,82,J,893,J,4131,20,DUARTE,CA,LOS ANGELES,0,1,0,California
91010,"DUARTE, CA",H,16663,H,366026,H,1600756,549,DUARTE,CA,LOS ANGELES,0,1,0,California
91011,"LA CANADA FLINTRIDGE, CA",G,5890,G,77262,G,337716,905,LA CANADA FLINTRIDGE,CA,LOS ANGELES,0,1,0,California
91016,"MONROVIA, CA",G,15929,G,248250,G,963225,1310,MONROVIA,CA,LOS ANGELES,0,1,0,California
91020,"MONTROSE, CA",G,2774,G,30903,G,132674,394,MONTROSE,CA,LOS ANGELES,0,1,0,California
91024,"SIERRA MADRE, CA",G,2210,G,24479,G,99135,352,SIERRA MADRE,CA,LOS ANGELES,0,1,0,California
91030,"SOUTH PASADENA, CA",G,7315,G,84342,G,362576,1018,SOUTH PASADENA,CA,LOS ANGELES,0,1,0,California
91040,"SUNLAND, CA",G,2662,G,27887,G,121196,426,SUNLAND,CA,LOS ANGELES,0,1,0,California
91042,"TUJUNGA, CA",G,2528,G,26235,G,110661,497,TUJUNGA,CA,LOS ANGELES,0,1,0,California
91046,"VERDUGO CITY, CA",G,28,G,263,G,1180,8,VERDUGO CITY,CA,LOS ANGELES,0,1,0,California
91101,"PASADENA, CA",G,26920,G,693792,G,2792541,2134,PASADENA,CA,LOS ANGELES,0,1,0,California
91103,"PASADENA, CA",G,12808,G,247162,G,952772,724,PASADENA,CA,LOS ANGELES,0,1,0,California
91104,"PASADENA, CA",G,4524,G,47994,G,205548,825,PASADENA,CA,LOS ANGELES,0,1,0,California
91105,"PASADENA, CA",G,26124,G,523868,G,2117500,1355,PASADENA,CA,LOS ANGELES,0,1,0,California
91106,"PASADENA, CA",G,6639,G,97998,G,404308,922,PASADENA,CA,LOS ANGELES,0,1,0,California
91107,"PASADENA, CA",G,20121,G,304394,G,1237791,1673,PASADENA,CA,LOS ANGELES,0,1,0,California
91108,"SAN MARINO, CA",G,2933,G,41311,G,177584,653,SAN MARINO,CA,LOS ANGELES,0,1,0,California
91125,"PASADENA, CA",J,4996,J,92348,J,363688,5,PASADENA,CA,LOS ANGELES,0,1,0,California
91201,"GLENDALE, CA",G,10959,G,277782,H,984221,786,GLENDALE,CA,LOS ANGELES,0,1,0,California
91202,"GLENDALE, CA",G,3942,G,47897,G,213875,813,GLENDALE,CA,LOS ANGELES,0,1,0,California
91203,"GLENDALE, CA",G,23231,G,585407,G,2125076,1457,GLENDALE,CA,LOS ANGELES,0,1,0,California
91204,"GLENDALE, CA",G,11402,G,173578,G,696272,1022,GLENDALE,CA,LOS ANGELES,0,1,0,California
91205,"GLENDALE, CA",G,7008,G,88825,G,382832,974,GLENDALE,CA,LOS ANGELES,0,1,0,California
91206,"GLENDALE, CA",H,9622,H,145643,H,638365,854,GLENDALE,CA,LOS ANGELES,0,1,0,California
91207,"GLENDALE, CA",G,1133,G,12671,G,58110,281,GLENDALE,CA,LOS ANGELES,0,1,0,California
91208,"GLENDALE, CA",H,3553,H,53370,H,234491,618,GLENDALE,CA,LOS ANGELES,0,1,0,California
91210,"GLENDALE, CA",G,6109,G,62666,G,254191,289,GLENDALE,CA,LOS ANGELES,0,1,0,California
91214,"LA CRESCENTA, CA",G,4280,G,52622,G,218520,962,LA CRESCENTA,CA,LOS ANGELES,0,1,0,California
91301,"AGOURA HILLS, CA",G,16144,G,543076,G,1726425,1506,AGOURA HILLS,CA,LOS ANGELES,0,1,0,California
91302,"CALABASAS, CA",G,15549,G,368711,G,1509898,2101,CALABASAS,CA,LOS ANGELES,0,1,0,California
91303,"CANOGA PARK, CA",G,13675,G,142327,G,574555,1143,CANOGA PARK,CA,LOS ANGELES,0,1,0,California
91304,"CANOGA PARK, CA",G,12355,G,221519,G,894234,996,CANOGA PARK,CA,LOS ANGELES,0,1,0,California
91306,"WINNETKA, CA",G,4276,G,39942,G,174958,641,WINNETKA,CA,LOS ANGELES,0,1,0,California
91307,"WEST HILLS, CA",G,7812,G,89858,G,393160,888,WEST HILLS,CA,LOS ANGELES,0,1,0,California
91311,"CHATSWORTH, CA",G,35403,G,536297,G,2177352,2101,CHATSWORTH,CA,LOS ANGELES,0,1,0,California
91316,"ENCINO, CA",G,10139,G,131576,G,593887,1628,ENCINO,CA,LOS ANGELES,0,1,0,California
91320,"NEWBURY PARK, CA",G,23516,H,849991,H,2626871,1341,NEWBURY PARK,CA,VENTURA,0,1,0,California
91321,"NEWHALL, CA",G,9863,G,100421,G,423785,882,NEWHALL,CA,LOS ANGELES,0,1,0,California
91324,"NORTHRIDGE, CA",G,17810,G,195044,G,824624,1628,NORTHRIDGE,CA,LOS ANGELES,0,1,0,California
91325,"NORTHRIDGE, CA",H,13305,H,255003,H,994511,829,NORTHRIDGE,CA,LOS ANGELES,0,1,0,California
91326,"PORTER RANCH, CA",G,6272,G,61729,G,268486,800,PORTER RANCH,CA,LOS ANGELES,0,1,0,California
91330,"NORTHRIDGE, CA",J,1505,J,8392,J,37654,17,NORTHRIDGE,CA,LOS ANGELES,0,1,0,California
91331,"PACOIMA, CA",G,12975,G,163876,G,674376,1068,PACOIMA,CA,LOS ANGELES,0,1,0,California
91335,"RESEDA, CA",G,10489,G,113514,G,480030,1411,RESEDA,CA,LOS ANGELES,0,1,0,California
91340,"SAN FERNANDO, CA",G,12354,H,172827,G,678789,842,SAN FERNANDO,CA,LOS ANGELES,0,1,0,California
91342,"SYLMAR, CA",G,22754,H,375331,H,1494580,1314,SYLMAR,CA,LOS ANGELES,0,1,0,California
91343,"NORTH HILLS, CA",G,8139,G,90201,G,385151,855,NORTH HILLS,CA,LOS ANGELES,0,1,0,California
91344,"GRANADA HILLS, CA",G,9559,G,90047,G,381752,1312,GRANADA HILLS,CA,LOS ANGELES,0,1,0,California
91345,"MISSION HILLS, CA",H,9791,H,151491,H,625846,506,MISSION HILLS,CA,LOS ANGELES,0,1,0,California
91350,"SANTA CLARITA, CA",G,9991,G,109682,G,449726,978,SANTA CLARITA,CA,LOS ANGELES,0,1,0,California
91351,"CANYON COUNTRY, CA",G,6961,G,67724,G,288253,723,CANYON COUNTRY,CA,LOS ANGELES,0,1,0,California
91352,"SUN VALLEY, CA",G,17918,G,282233,G,1136174,1358,SUN VALLEY,CA,LOS ANGELES,0,1,0,California
91354,"VALENCIA, CA",G,2328,G,24977,G,112297,527,VALENCIA,CA,LOS ANGELES,0,1,0,California
91355,"VALENCIA, CA",G,55015,G,996615,G,3905955,2573,VALENCIA,CA,LOS ANGELES,0,1,0,California
91356,"TARZANA, CA",G,12944,G,173178,G,728331,1873,TARZANA,CA,LOS ANGELES,0,1,0,California
91360,"THOUSAND OAKS, CA",G,18533,G,283612,G,1101728,1581,THOUSAND OAKS,CA,VENTURA,0,1,0,California
91361,"WESTLAKE VILLAGE, CA",G,18064,G,479011,G,1745606,1650,WESTLAKE VILLAGE,CA,VENTURA,0,1,0,California
91362,"THOUSAND OAKS, CA",G,23333,G,470247,G,1738783,2173,THOUSAND OAKS,CA,VENTURA,0,1,0,California
91364,"WOODLAND HILLS, CA",G,14947,G,187862,G,844871,2233,WOODLAND HILLS,CA,LOS ANGELES,0,1,0,California
91367,"WOODLAND HILLS, CA",G,49911,G,1119489,G,4293779,2939,WOODLAND HILLS,CA,LOS ANGELES,0,1,0,California
91377,"OAK PARK, CA",H,819,G,9919,G,50831,306,OAK PARK,CA,VENTURA,0,1,0,California
91381,"STEVENSON RANCH, CA",G,5102,G,49442,G,202572,542,STEVENSON RANCH,CA,LOS ANGELES,0,1,0,California
91384,"CASTAIC, CA",G,2170,G,21418,G,95271,343,CASTAIC,CA,LOS ANGELES,0,1,0,California
91387,"CANYON COUNTRY, CA",G,3477,G,32635,G,140028,588,CANYON COUNTRY,CA,LOS ANGELES,0,1,0,California
91390,"SANTA CLARITA, CA",G,1614,G,20607,G,92275,310,SANTA CLARITA,CA,LOS ANGELES,0,1,0,California
91401,"VAN NUYS, CA",G,8028,G,108253,G,450759,1201,VAN NUYS,CA,LOS ANGELES,0,1,0,California
91402,"PANORAMA CITY, CA",G,13518,G,201522,G,841877,864,PANORAMA CITY,CA,LOS ANGELES,0,1,0,California
91403,"SHERMAN OAKS, CA",G,18223,G,329756,G,1371599,2363,SHERMAN OAKS,CA,LOS ANGELES,0,1,0,California
91405,"VAN NUYS, CA",G,13297,G,179356,G,735867,1134,VAN NUYS,CA,LOS ANGELES,0,1,0,California
91406,"VAN NUYS, CA",G,29062,G,469581,G,1839992,1865,VAN NUYS,CA,LOS ANGELES,0,1,0,California
91411,"VAN NUYS, CA",G,9583,G,133335,G,563229,954,VAN NUYS,CA,LOS ANGELES,0,1,0,California
91423,"SHERMAN OAKS, CA",G,12426,G,146023,G,716524,2064,SHERMAN OAKS,CA,LOS ANGELES,0,1,0,California
91436,"ENCINO, CA",G,17909,G,469418,G,2251522,3348,ENCINO,CA,LOS ANGELES,0,1,0,California
91501,"BURBANK, CA",H,1431,G,16016,G,70525,353,BURBANK,CA,LOS ANGELES,0,1,0,California
91502,"BURBANK, CA",G,23090,G,270261,G,1104410,1339,BURBANK,CA,LOS ANGELES,0,1,0,California
91504,"BURBANK, CA",G,15030,G,321987,G,1193704,859,BURBANK,CA,LOS ANGELES,0,1,0,California
91505,"BURBANK, CA",G,38320,H,1121914,G,3730436,2180,BURBANK,CA,LOS ANGELES,0,1,0,California
91506,"BURBANK, CA",G,9743,H,154757,G,678106,1014,BURBANK,CA,LOS ANGELES,0,1,0,California
91601,"NORTH HOLLYWOOD, CA",G,11096,G,201367,G,870692,1267,NORTH HOLLYWOOD,CA,LOS ANGELES,0,1,0,California
91602,"NORTH HOLLYWOOD, CA",G,4426,G,69514,G,309926,977,NORTH HOLLYWOOD,CA,LOS ANGELES,0,1,0,California
91604,"STUDIO CITY, CA",G,13201,G,205496,G,888377,2002,STUDIO CITY,CA,LOS ANGELES,0,1,0,California
91605,"NORTH HOLLYWOOD, CA",G,15140,G,199918,G,821051,1385,NORTH HOLLYWOOD,CA,LOS ANGELES,0,1,0,California
91606,"NORTH HOLLYWOOD, CA",G,7421,G,73728,G,316983,882,NORTH HOLLYWOOD,CA,LOS ANGELES,0,1,0,California
91607,"VALLEY VILLAGE, CA",G,6062,G,82952,G,364330,1100,VALLEY VILLAGE,CA,LOS ANGELES,0,1,0,California
91608,"UNIVERSAL CITY, CA",J,42669,J,780664,J,2501992,184,UNIVERSAL CITY,CA,LOS ANGELES,0,1,0,California
91702,"AZUSA, CA",G,16928,H,264028,H,1050455,974,AZUSA,CA,LOS ANGELES,0,1,0,California
91706,"BALDWIN PARK, CA",G,33150,G,523875,G,2112863,1638,BALDWIN PARK,CA,LOS ANGELES,0,1,0,California
91709,"CHINO HILLS, CA",G,14381,G,151587,G,636859,1876,CHINO HILLS,CA,SAN BERNARDINO,0,1,0,California
91711,"CLAREMONT, CA",H,18584,H,210710,H,874410,1094,CLAREMONT,CA,LOS ANGELES,0,1,0,California
91722,"COVINA, CA",G,5781,G,59908,G,253607,587,COVINA,CA,LOS ANGELES,0,1,0,California
91723,"COVINA, CA",G,8945,H,126554,H,553352,879,COVINA,CA,LOS ANGELES,0,1,0,California
91724,"COVINA, CA",G,5579,G,70504,G,303557,548,COVINA,CA,LOS ANGELES,0,1,0,California
91731,"EL MONTE, CA",H,15623,H,224399,H,945858,1102,EL MONTE,CA,LOS ANGELES,0,1,0,California
91732,"EL MONTE, CA",G,5213,G,47956,G,202147,733,EL MONTE,CA,LOS ANGELES,0,1,0,California
91733,"SOUTH EL MONTE, CA",G,18790,G,250979,G,1057025,1852,SOUTH EL MONTE,CA,LOS ANGELES,0,1,0,California
91740,"GLENDORA, CA",G,11534,G,145463,G,579321,801,GLENDORA,CA,LOS ANGELES,0,1,0,California
91741,"GLENDORA, CA",G,5265,G,70111,G,297061,696,GLENDORA,CA,LOS ANGELES,0,1,0,California
91744,"LA PUENTE, CA",G,10400,G,121584,G,520476,1082,LA PUENTE,CA,LOS ANGELES,0,1,0,California
91745,"HACIENDA HEIGHTS, CA",G,13911,G,195845,G,828148,1611,HACIENDA HEIGHTS,CA,LOS ANGELES,0,1,0,California
91746,"LA PUENTE, CA",G,20996,G,371863,G,1445446,1029,LA PUENTE,CA,LOS ANGELES,0,1,0,California
91748,"ROWLAND HEIGHTS, CA",G,28625,G,430327,G,1667380,2827,ROWLAND HEIGHTS,CA,LOS ANGELES,0,1,0,California
91750,"LA VERNE, CA",G,10030,H,195982,H,688438,812,LA VERNE,CA,LOS ANGELES,0,1,0,California
91754,"MONTEREY PARK, CA",G,14908,G,207584,G,893827,1459,MONTEREY PARK,CA,LOS ANGELES,0,1,0,California
91755,"MONTEREY PARK, CA",G,6781,H,185697,H,787221,650,MONTEREY PARK,CA,LOS ANGELES,0,1,0,California
91759,"MT BALDY, CA",G,76,H,607,H,1987,10,MT BALDY,CA,SAN BERNARDINO,0,1,0,California
91765,"DIAMOND BAR, CA",G,11381,G,170983,G,690770,1793,DIAMOND BAR,CA,LOS ANGELES,0,1,0,California
91766,"POMONA, CA",G,17330,H,258689,H,1091787,1067,POMONA,CA,LOS ANGELES,0,1,0,California
91767,"POMONA, CA",H,13112,H,219284,H,870767,901,POMONA,CA,LOS ANGELES,0,1,0,California
91768,"POMONA, CA",G,14643,H,234705,G,903458,668,POMONA,CA,LOS ANGELES,0,1,0,California
91770,"ROSEMEAD, CA",G,15452,G,399671,G,1141763,1514,ROSEMEAD,CA,LOS ANGELES,0,1,0,California
91773,"SAN DIMAS, CA",G,21548,G,308208,G,1353005,1274,SAN DIMAS,CA,LOS ANGELES,0,1,0,California
91775,"SAN GABRIEL, CA",G,2020,G,19280,G,82975,387,SAN GABRIEL,CA,LOS ANGELES,0,1,0,California
91776,"SAN GABRIEL, CA",G,10977,G,123585,G,504509,1727,SAN GABRIEL,CA,LOS ANGELES,0,1,0,California
91780,"TEMPLE CITY, CA",G,5277,G,49516,G,218003,1038,TEMPLE CITY,CA,LOS ANGELES,0,1,0,California
91789,"WALNUT, CA",G,21957,H,341661,H,1345373,2325,WALNUT,CA,LOS ANGELES,0,1,0,California
91790,"WEST COVINA, CA",G,15653,H,167337,H,710454,1130,WEST COVINA,CA,LOS ANGELES,0,1,0,California
91791,"WEST COVINA, CA",G,9243,G,106739,G,441711,798,WEST COVINA,CA,LOS ANGELES,0,1,0,California
91792,"WEST COVINA, CA",G,3498,G,27551,G,113969,413,WEST COVINA,CA,LOS ANGELES,0,1,0,California
91801,"ALHAMBRA, CA",G,13300,G,169838,G,679339,1493,ALHAMBRA,CA,LOS ANGELES,0,1,0,California
91803,"ALHAMBRA, CA",G,7125,G,96177,G,379759,876,ALHAMBRA,CA,LOS ANGELES,0,1,0,California
91901,"ALPINE, CA",H,4802,H,56674,H,254394,450,ALPINE,CA,SAN DIEGO,0,1,0,California
91902,"BONITA, CA",G,3059,G,31426,G,130837,394,BONITA,CA,SAN DIEGO,0,1,0,California
91905,"BOULEVARD, CA",J,70,H,634,H,3371,22,BOULEVARD,CA,SAN DIEGO,0,1,0,California
91906,"CAMPO, CA",J,418,H,4557,J,21100,49,CAMPO,CA,SAN DIEGO,0,1,0,California
91910,"CHULA VISTA, CA",G,22822,G,284118,G,1156326,1701,CHULA VISTA,CA,SAN DIEGO,1,1,0,California
91911,"CHULA VISTA, CA",G,21397,G,273787,G,1174471,1574,CHULA VISTA,CA,SAN DIEGO,1,1,0,California
91913,"CHULA VISTA, CA",G,3016,G,38858,G,163924,473,CHULA VISTA,CA,SAN DIEGO,0,1,0,California
91914,"CHULA VISTA, CA",G,6952,G,71016,G,303763,587,CHULA VISTA,CA,SAN DIEGO,0,1,0,California
91915,"CHULA VISTA, CA",G,6432,G,53169,G,214373,529,CHULA VISTA,CA,SAN DIEGO,0,1,0,California
91916,"DESCANSO, CA",G,99,G,1044,H,8642,34,DESCANSO,CA,SAN DIEGO,0,1,0,California
91917,"DULZURA, CA",J,8,H,121,H,591,6,DULZURA,CA,SAN DIEGO,0,1,0,California
91931,"GUATAY, CA",G,59,H,830,H,3535,12,GUATAY,CA,SAN DIEGO,0,1,0,California
91932,"IMPERIAL BEACH, CA",G,2543,G,24141,G,101572,340,IMPERIAL BEACH,CA,SAN DIEGO,1,1,0,California
91934,"JACUMBA, CA",J,14,J,108,J,1337,4,JACUMBA,CA,SAN DIEGO,0,1,0,California
91935,"JAMUL, CA",H,2186,H,28574,H,118372,173,JAMUL,CA,SAN DIEGO,0,1,0,California
91941,"LA MESA, CA",G,6032,G,64609,G,261593,735,LA MESA,CA,SAN DIEGO,0,1,0,California
91942,"LA MESA, CA",G,20503,H,289635,H,1239011,1532,LA MESA,CA,SAN DIEGO,0,1,0,California
91945,"LEMON GROVE, CA",G,6571,G,72427,G,293218,532,LEMON GROVE,CA,SAN DIEGO,0,1,0,California
91948,"MOUNT LAGUNA, CA",G,28,G,134,H,612,8,MOUNT LAGUNA,CA,SAN DIEGO,0,1,0,California
91950,"NATIONAL CITY, CA",G,23074,G,259932,G,1122727,1373,NATIONAL CITY,CA,SAN DIEGO,1,1,0,California
91962,"PINE VALLEY, CA",G,167,H,2634,H,12096,34,PINE VALLEY,CA,SAN DIEGO,0,1,0,California
91963,"POTRERO, CA",J,26,H,273,G,1129,9,POTRERO,CA,SAN DIEGO,0,1,0,California
91977,"SPRING VALLEY, CA",G,7111,G,69455,G,313345,829,SPRING VALLEY,CA,SAN DIEGO,0,1,0,California
91978,"SPRING VALLEY, CA",G,1678,G,20846,G,86290,183,SPRING VALLEY,CA,SAN DIEGO,0,1,0,California
91980,"TECATE, CA",G,216,H,3587,H,14610,42,TECATE,CA,SAN DIEGO,0,1,0,California
92003,"BONSALL, CA",G,1255,G,13376,G,58291,188,BONSALL,CA,SAN DIEGO,0,1,0,California
92004,"BORREGO SPRINGS, CA",H,920,J,14822,H,40932,83,BORREGO SPRINGS,CA,SAN DIEGO,0,NA,NA,California
92007,"CARDIFF BY THE SEA, CA",H,3005,H,76432,H,279035,421,CARDIFF BY THE SEA,CA,SAN DIEGO,1,1,0,California
92008,"CARLSBAD, CA",G,43940,G,1044351,G,3679432,2256,CARLSBAD,CA,SAN DIEGO,1,1,0,California
92009,"CARLSBAD, CA",G,15535,G,279006,G,1230653,1435,CARLSBAD,CA,SAN DIEGO,1,1,0,California
92010,"CARLSBAD, CA",G,11630,G,370070,G,1236538,710,CARLSBAD,CA,SAN DIEGO,0,1,0,California
92011,"CARLSBAD, CA",G,13073,G,262691,G,1035842,1070,CARLSBAD,CA,SAN DIEGO,1,1,0,California
92014,"DEL MAR, CA",G,6069,G,88227,G,373706,840,DEL MAR,CA,SAN DIEGO,1,1,0,California
92019,"EL CAJON, CA",G,7932,G,85479,G,356931,804,EL CAJON,CA,SAN DIEGO,0,1,0,California
92020,"EL CAJON, CA",G,30445,G,437373,G,1769390,1964,EL CAJON,CA,SAN DIEGO,0,1,0,California
92021,"EL CAJON, CA",G,12986,G,147091,G,631163,1315,EL CAJON,CA,SAN DIEGO,0,1,0,California
92024,"ENCINITAS, CA",G,23621,G,335808,G,1424586,2758,ENCINITAS,CA,SAN DIEGO,1,1,0,California
92025,"ESCONDIDO, CA",G,23548,G,303680,G,1237060,1825,ESCONDIDO,CA,SAN DIEGO,0,1,0,California
92026,"ESCONDIDO, CA",G,4917,G,55905,G,248350,679,ESCONDIDO,CA,SAN DIEGO,0,1,0,California
92027,"ESCONDIDO, CA",G,6406,G,64297,G,265129,673,ESCONDIDO,CA,SAN DIEGO,0,1,0,California
92028,"FALLBROOK, CA",G,7297,G,77400,G,338514,1022,FALLBROOK,CA,SAN DIEGO,0,NA,NA,California
92029,"ESCONDIDO, CA",G,19941,G,356643,G,1464478,1129,ESCONDIDO,CA,SAN DIEGO,0,1,0,California
92036,"JULIAN, CA",G,764,G,5160,G,23211,116,JULIAN,CA,SAN DIEGO,0,1,0,California
92037,"LA JOLLA, CA",G,39283,G,953405,G,3896460,2590,LA JOLLA,CA,SAN DIEGO,1,1,0,California
92040,"LAKESIDE, CA",H,9851,H,140436,H,608697,821,LAKESIDE,CA,SAN DIEGO,0,1,0,California
92054,"OCEANSIDE, CA",G,14957,G,154095,G,649350,1396,OCEANSIDE,CA,SAN DIEGO,1,1,0,California
92055,"CAMP PENDLETON, CA",H,2110,H,39296,H,132396,108,CAMP PENDLETON,CA,SAN DIEGO,1,1,0,California
92056,"OCEANSIDE, CA",G,20198,G,334135,G,1248909,1230,OCEANSIDE,CA,SAN DIEGO,0,1,0,California
92057,"OCEANSIDE, CA",G,4614,G,46915,G,196412,535,OCEANSIDE,CA,SAN DIEGO,0,1,0,California
92058,"OCEANSIDE, CA",G,5427,G,71018,G,302389,460,OCEANSIDE,CA,SAN DIEGO,1,1,0,California
92059,"PALA, CA",J,1255,J,17646,J,76725,20,PALA,CA,SAN DIEGO,0,1,0,California
92060,"PALOMAR MOUNTAIN, CA",J,46,J,577,J,2415,9,PALOMAR MOUNTAIN,CA,SAN DIEGO,0,1,0,California
92061,"PAUMA VALLEY, CA",H,688,H,8790,H,35645,42,PAUMA VALLEY,CA,SAN DIEGO,0,1,0,California
92064,"POWAY, CA",H,34973,H,731981,H,2771717,1694,POWAY,CA,SAN DIEGO,0,1,0,California
92065,"RAMONA, CA",G,4949,G,56418,G,239072,835,RAMONA,CA,SAN DIEGO,0,1,0,California
92066,"RANCHITA, CA",G,31,H,268,H,1111,4,RANCHITA,CA,SAN DIEGO,0,1,0,California
92067,"RANCHO SANTA FE, CA",H,5528,H,62683,H,273023,448,RANCHO SANTA FE,CA,SAN DIEGO,0,1,0,California
92069,"SAN MARCOS, CA",G,16881,G,231590,G,997361,1239,SAN MARCOS,CA,SAN DIEGO,0,1,0,California
92070,"SANTA YSABEL, CA",H,282,H,2125,H,9037,39,SANTA YSABEL,CA,SAN DIEGO,0,1,0,California
92071,"SANTEE, CA",G,16250,G,198754,G,825819,1267,SANTEE,CA,SAN DIEGO,0,1,0,California
92075,"SOLANA BEACH, CA",G,15387,G,212837,G,878530,1032,SOLANA BEACH,CA,SAN DIEGO,1,1,0,California
92078,"SAN MARCOS, CA",G,16140,G,218239,G,918391,1458,SAN MARCOS,CA,SAN DIEGO,0,1,0,California
92081,"VISTA, CA",G,22411,G,374183,G,1562773,1174,VISTA,CA,SAN DIEGO,0,1,0,California
92082,"VALLEY CENTER, CA",H,4729,G,64187,G,266584,453,VALLEY CENTER,CA,SAN DIEGO,0,1,0,California
92083,"VISTA, CA",G,11217,G,138679,G,571827,837,VISTA,CA,SAN DIEGO,0,1,0,California
92084,"VISTA, CA",G,8164,G,82753,G,360654,992,VISTA,CA,SAN DIEGO,0,1,0,California
92086,"WARNER SPRINGS, CA",J,175,J,982,J,4514,18,WARNER SPRINGS,CA,SAN DIEGO,0,1,0,California
92091,"RANCHO SANTA FE, CA",G,649,G,8483,G,37510,106,RANCHO SANTA FE,CA,SAN DIEGO,0,1,0,California
92092,"LA JOLLA, CA",H,111,H,1030,H,4803,5,LA JOLLA,CA,SAN DIEGO,0,1,0,California
92093,"LA JOLLA, CA",G,546,G,4561,G,18493,42,LA JOLLA,CA,SAN DIEGO,0,1,0,California
92096,"SAN MARCOS, CA",G,27,H,234,H,776,6,SAN MARCOS,CA,SAN DIEGO,0,1,0,California
92101,"SAN DIEGO, CA",G,77128,G,1700801,G,6452892,4280,SAN DIEGO,CA,SAN DIEGO,1,1,0,California
92102,"SAN DIEGO, CA",H,9141,H,126929,H,533839,682,SAN DIEGO,CA,SAN DIEGO,0,1,0,California
92103,"SAN DIEGO, CA",G,30239,H,522565,H,2195723,1846,SAN DIEGO,CA,SAN DIEGO,1,1,0,California
92104,"SAN DIEGO, CA",G,9070,G,84586,G,361664,1056,SAN DIEGO,CA,SAN DIEGO,0,1,0,California
92105,"SAN DIEGO, CA",G,7460,G,79458,G,331766,676,SAN DIEGO,CA,SAN DIEGO,0,1,0,California
92106,"SAN DIEGO, CA",G,10774,G,149677,G,649564,976,SAN DIEGO,CA,SAN DIEGO,1,1,0,California
92107,"SAN DIEGO, CA",G,4498,G,45108,G,193763,758,SAN DIEGO,CA,SAN DIEGO,1,1,0,California
92108,"SAN DIEGO, CA",G,54406,G,882657,G,3494886,2695,SAN DIEGO,CA,SAN DIEGO,1,1,0,California
92109,"SAN DIEGO, CA",G,21935,G,221348,G,960403,1850,SAN DIEGO,CA,SAN DIEGO,1,1,0,California
92110,"SAN DIEGO, CA",G,32411,G,433626,G,1829859,1677,SAN DIEGO,CA,SAN DIEGO,1,1,0,California
92111,"SAN DIEGO, CA",G,37056,G,566241,G,2317872,2191,SAN DIEGO,CA,SAN DIEGO,0,1,0,California
92113,"SAN DIEGO, CA",G,14861,G,224081,G,883878,628,SAN DIEGO,CA,SAN DIEGO,1,1,0,California
92114,"SAN DIEGO, CA",G,3115,G,36288,G,162261,435,SAN DIEGO,CA,SAN DIEGO,0,1,0,California
92115,"SAN DIEGO, CA",G,8129,G,74585,G,310671,954,SAN DIEGO,CA,SAN DIEGO,0,1,0,California
92116,"SAN DIEGO, CA",G,4036,G,43214,G,181521,691,SAN DIEGO,CA,SAN DIEGO,0,1,0,California
92117,"SAN DIEGO, CA",G,11535,G,126985,G,555397,1376,SAN DIEGO,CA,SAN DIEGO,1,1,0,California
92118,"CORONADO, CA",G,8169,G,110888,G,476053,703,CORONADO,CA,SAN DIEGO,1,1,0,California
92119,"SAN DIEGO, CA",G,2223,G,21520,G,92116,386,SAN DIEGO,CA,SAN DIEGO,0,1,0,California
92120,"SAN DIEGO, CA",G,13814,G,215754,G,909820,1024,SAN DIEGO,CA,SAN DIEGO,0,1,0,California
92121,"SAN DIEGO, CA",G,123633,G,4819959,G,18556501,2907,SAN DIEGO,CA,SAN DIEGO,1,1,0,California
92122,"SAN DIEGO, CA",G,25486,G,734969,G,2906208,1356,SAN DIEGO,CA,SAN DIEGO,0,1,0,California
92123,"SAN DIEGO, CA",G,71211,G,1561662,G,6282623,1919,SAN DIEGO,CA,SAN DIEGO,0,1,0,California
92124,"SAN DIEGO, CA",G,2191,G,27712,G,124409,335,SAN DIEGO,CA,SAN DIEGO,0,1,0,California
92126,"SAN DIEGO, CA",G,21618,G,310400,G,1255173,1800,SAN DIEGO,CA,SAN DIEGO,0,1,0,California
92127,"SAN DIEGO, CA",G,25038,H,763314,G,2721092,1440,SAN DIEGO,CA,SAN DIEGO,0,1,0,California
92128,"SAN DIEGO, CA",G,21804,G,428148,G,1632331,1378,SAN DIEGO,CA,SAN DIEGO,0,1,0,California
92129,"SAN DIEGO, CA",G,10606,G,250494,H,1191779,802,SAN DIEGO,CA,SAN DIEGO,0,1,0,California
92130,"SAN DIEGO, CA",G,30708,G,1198234,G,4148093,2308,SAN DIEGO,CA,SAN DIEGO,1,1,0,California
92131,"SAN DIEGO, CA",G,21633,G,455032,G,1799711,1148,SAN DIEGO,CA,SAN DIEGO,0,1,0,California
92132,"SAN DIEGO, CA",J,35,H,902,H,3812,8,SAN DIEGO,CA,SAN DIEGO,1,1,0,California
92134,"SAN DIEGO, CA",J,2205,J,37529,J,155126,12,SAN DIEGO,CA,SAN DIEGO,0,1,0,California
92135,"SAN DIEGO, CA",H,1192,G,19054,G,81916,57,SAN DIEGO,CA,SAN DIEGO,1,1,0,California
92136,"SAN DIEGO, CA",G,704,G,11205,G,44761,67,SAN DIEGO,CA,SAN DIEGO,1,1,0,California
92139,"SAN DIEGO, CA",G,1385,G,11178,G,48660,189,SAN DIEGO,CA,SAN DIEGO,0,1,0,California
92140,"SAN DIEGO, CA",H,148,J,1773,J,6703,15,SAN DIEGO,CA,SAN DIEGO,1,1,0,California
92145,"SAN DIEGO, CA",G,538,G,9000,G,36838,49,SAN DIEGO,CA,SAN DIEGO,0,1,0,California
92147,"SAN DIEGO, CA",G,313,G,7571,G,29163,17,SAN DIEGO,CA,SAN DIEGO,1,1,0,California
92154,"SAN DIEGO, CA",G,23535,G,327328,G,1364571,1898,SAN DIEGO,CA,SAN DIEGO,1,1,0,California
92155,"SAN DIEGO, CA",H,264,G,5056,G,20573,22,SAN DIEGO,CA,SAN DIEGO,1,1,0,California
92161,"SAN DIEGO, CA",J,3964,J,177579,J,661021,7,SAN DIEGO,CA,SAN DIEGO,0,1,0,California
92173,"SAN YSIDRO, CA",G,7622,G,72707,G,308406,591,SAN YSIDRO,CA,SAN DIEGO,0,1,0,California
92182,"SAN DIEGO, CA",J,4825,J,34277,J,148796,25,SAN DIEGO,CA,SAN DIEGO,0,1,0,California
92397,"WRIGHTWOOD, CA",H,1152,H,8720,H,28309,79,WRIGHTWOOD,CA,SAN BERNARDINO,0,1,0,California
92530,"LAKE ELSINORE, CA",G,10372,G,113202,G,503339,964,LAKE ELSINORE,CA,RIVERSIDE,0,1,0,California
92562,"MURRIETA, CA",G,21022,G,265909,G,1115581,1928,MURRIETA,CA,RIVERSIDE,0,NA,NA,California
92602,"IRVINE, CA",G,9006,G,186065,G,728256,828,IRVINE,CA,ORANGE,0,1,0,California
92603,"IRVINE, CA",G,2938,J,90185,J,394207,524,IRVINE,CA,ORANGE,0,1,0,California
92604,"IRVINE, CA",G,7418,G,80274,G,342266,1038,IRVINE,CA,ORANGE,0,1,0,California
92606,"IRVINE, CA",G,22200,G,443050,H,1955818,1227,IRVINE,CA,ORANGE,0,1,0,California
92610,"FOOTHILL RANCH, CA",G,11543,G,213317,G,968180,543,FOOTHILL RANCH,CA,ORANGE,0,1,0,California
92612,"IRVINE, CA",G,47161,G,1414377,G,5389385,2206,IRVINE,CA,ORANGE,0,1,0,California
92614,"IRVINE, CA",G,71739,G,1915741,G,7061227,2589,IRVINE,CA,ORANGE,0,1,0,California
92617,"IRVINE, CA",G,9220,G,540341,G,2182918,184,IRVINE,CA,ORANGE,0,1,0,California
92618,"IRVINE, CA",G,130760,G,3777509,G,14322081,4751,IRVINE,CA,ORANGE,0,1,0,California
92620,"IRVINE, CA",G,7841,G,84963,G,374924,1522,IRVINE,CA,ORANGE,0,1,0,California
92624,"CAPISTRANO BEACH, CA",G,1069,G,12638,G,59785,234,CAPISTRANO BEACH,CA,ORANGE,1,1,0,California
92625,"CORONA DEL MAR, CA",G,4050,G,54965,G,236227,603,CORONA DEL MAR,CA,ORANGE,1,1,0,California
92626,"COSTA MESA, CA",G,61637,G,1442725,G,5782836,3196,COSTA MESA,CA,ORANGE,1,1,0,California
92627,"COSTA MESA, CA",G,18633,G,249425,G,986827,2189,COSTA MESA,CA,ORANGE,1,1,0,California
92629,"DANA POINT, CA",G,9121,G,112766,G,472463,979,DANA POINT,CA,ORANGE,1,1,0,California
92630,"LAKE FOREST, CA",G,24355,G,400058,G,1673988,2230,LAKE FOREST,CA,ORANGE,0,1,0,California
92637,"LAGUNA WOODS, CA",H,2030,H,21389,H,94684,162,LAGUNA WOODS,CA,ORANGE,0,1,0,California
92646,"HUNTINGTON BEACH, CA",G,7213,G,80418,G,337829,1073,HUNTINGTON BEACH,CA,ORANGE,1,1,0,California
92647,"HUNTINGTON BEACH, CA",G,26672,G,434882,G,1643707,1889,HUNTINGTON BEACH,CA,ORANGE,0,1,0,California
92648,"HUNTINGTON BEACH, CA",G,17805,G,214892,G,887602,1888,HUNTINGTON BEACH,CA,ORANGE,1,1,0,California
92649,"HUNTINGTON BEACH, CA",G,17452,G,265954,G,1066657,1391,HUNTINGTON BEACH,CA,ORANGE,1,1,0,California
92651,"LAGUNA BEACH, CA",G,10107,G,136880,G,591918,1505,LAGUNA BEACH,CA,ORANGE,1,1,0,California
92653,"LAGUNA HILLS, CA",G,20458,G,300596,G,1263751,1891,LAGUNA HILLS,CA,ORANGE,0,1,0,California
92655,"MIDWAY CITY, CA",G,426,G,5347,G,22029,90,MIDWAY CITY,CA,ORANGE,0,1,0,California
92656,"ALISO VIEJO, CA",G,24852,G,720214,G,2539941,1439,ALISO VIEJO,CA,ORANGE,0,1,0,California
92657,"NEWPORT COAST, CA",H,3420,H,44124,H,195950,375,NEWPORT COAST,CA,ORANGE,1,1,0,California
92660,"NEWPORT BEACH, CA",G,60414,G,1860199,G,6879204,4564,NEWPORT BEACH,CA,ORANGE,1,1,0,California
92661,"NEWPORT BEACH, CA",G,968,G,7452,G,37001,114,NEWPORT BEACH,CA,ORANGE,1,1,0,California
92662,"NEWPORT BEACH, CA",G,676,G,5729,G,23677,95,NEWPORT BEACH,CA,ORANGE,1,1,0,California
92663,"NEWPORT BEACH, CA",G,14263,G,241371,G,1072721,1419,NEWPORT BEACH,CA,ORANGE,1,1,0,California
92672,"SAN CLEMENTE, CA",G,12008,G,209816,G,833470,1440,SAN CLEMENTE,CA,ORANGE,1,1,0,California
92673,"SAN CLEMENTE, CA",G,11028,G,228611,G,812357,1316,SAN CLEMENTE,CA,ORANGE,1,1,0,California
92675,"SAN JUAN CAPISTRANO, CA",G,15336,G,253650,G,1019394,1400,SAN JUAN CAPISTRANO,CA,ORANGE,1,1,0,California
92676,"SILVERADO, CA",J,168,H,2044,G,8595,41,SILVERADO,CA,ORANGE,0,1,0,California
92677,"LAGUNA NIGUEL, CA",G,15621,G,210542,G,870917,1954,LAGUNA NIGUEL,CA,ORANGE,1,1,0,California
92678,"TRABUCO CANYON, CA",J,73,J,567,J,2231,10,TRABUCO CANYON,CA,ORANGE,0,1,0,California
92679,"TRABUCO CANYON, CA",G,2512,G,31492,G,145548,602,TRABUCO CANYON,CA,ORANGE,0,1,0,California
92683,"WESTMINSTER, CA",G,18171,G,186495,G,756010,2101,WESTMINSTER,CA,ORANGE,0,1,0,California
92688,"RANCHO SANTA MARGARITA, CA",G,17871,G,275813,G,1080246,1156,RANCHO SANTA MARGARITA,CA,ORANGE,0,1,0,California
92691,"MISSION VIEJO, CA",G,22393,G,339427,G,1420782,1960,MISSION VIEJO,CA,ORANGE,0,1,0,California
92692,"MISSION VIEJO, CA",G,6539,G,80435,G,341318,1021,MISSION VIEJO,CA,ORANGE,0,1,0,California
92694,"LADERA RANCH, CA",G,4795,G,64518,G,278628,857,LADERA RANCH,CA,ORANGE,0,1,0,California
92697,"IRVINE, CA",J,236,J,1698,J,7477,8,IRVINE,CA,ORANGE,0,1,0,California
92701,"SANTA ANA, CA",G,13166,G,175650,G,723019,1111,SANTA ANA,CA,ORANGE,0,1,0,California
92703,"SANTA ANA, CA",G,5941,G,64775,G,265384,663,SANTA ANA,CA,ORANGE,0,1,0,California
92704,"SANTA ANA, CA",G,29907,G,388388,G,1612855,1641,SANTA ANA,CA,ORANGE,0,1,0,California
92705,"SANTA ANA, CA",G,52604,G,874062,G,3482157,3089,SANTA ANA,CA,ORANGE,0,1,0,California
92706,"SANTA ANA, CA",G,6316,G,75573,G,308264,598,SANTA ANA,CA,ORANGE,0,1,0,California
92707,"SANTA ANA, CA",G,24470,G,595012,G,2071331,1050,SANTA ANA,CA,ORANGE,0,1,0,California
92708,"FOUNTAIN VALLEY, CA",G,28817,G,566094,G,2445641,2029,FOUNTAIN VALLEY,CA,ORANGE,0,1,0,California
92780,"TUSTIN, CA",G,36196,G,598826,G,2478113,2645,TUSTIN,CA,ORANGE,0,1,0,California
92782,"TUSTIN, CA",G,9254,G,140825,G,533780,699,TUSTIN,CA,ORANGE,0,1,0,California
92801,"ANAHEIM, CA",G,26223,G,334943,G,1380116,1663,ANAHEIM,CA,ORANGE,0,1,0,California
92802,"ANAHEIM, CA",J,53713,J,569975,H,1836965,725,ANAHEIM,CA,ORANGE,0,1,0,California
92804,"ANAHEIM, CA",G,8751,G,84426,G,379306,1039,ANAHEIM,CA,ORANGE,0,1,0,California
92805,"ANAHEIM, CA",G,26571,G,423245,G,1730023,1348,ANAHEIM,CA,ORANGE,0,1,0,California
92806,"ANAHEIM, CA",G,47143,G,881556,G,3611713,2019,ANAHEIM,CA,ORANGE,0,1,0,California
92807,"ANAHEIM, CA",G,25692,G,466132,G,1936651,1616,ANAHEIM,CA,ORANGE,0,1,0,California
92808,"ANAHEIM, CA",G,5987,G,88364,G,372280,589,ANAHEIM,CA,ORANGE,0,1,0,California
92821,"BREA, CA",G,53249,G,1087698,G,4292902,2393,BREA,CA,ORANGE,0,1,0,California
92823,"BREA, CA",H,5290,H,119294,H,396563,125,BREA,CA,ORANGE,0,1,0,California
92831,"FULLERTON, CA",G,19845,G,288509,G,1212378,1179,FULLERTON,CA,ORANGE,0,1,0,California
92832,"FULLERTON, CA",G,11170,G,111237,G,465236,904,FULLERTON,CA,ORANGE,0,1,0,California
92833,"FULLERTON, CA",G,9105,G,132147,G,534253,1110,FULLERTON,CA,ORANGE,0,1,0,California
92835,"FULLERTON, CA",H,12791,H,211118,H,848842,833,FULLERTON,CA,ORANGE,0,1,0,California
92840,"GARDEN GROVE, CA",G,9589,G,94275,G,403469,844,GARDEN GROVE,CA,ORANGE,0,1,0,California
92841,"GARDEN GROVE, CA",G,13789,G,202044,G,852382,849,GARDEN GROVE,CA,ORANGE,0,1,0,California
92843,"GARDEN GROVE, CA",G,12390,G,126553,G,549989,1152,GARDEN GROVE,CA,ORANGE,0,1,0,California
92844,"GARDEN GROVE, CA",G,5028,G,47700,G,200314,540,GARDEN GROVE,CA,ORANGE,0,1,0,California
92845,"GARDEN GROVE, CA",G,2981,G,31831,G,135200,321,GARDEN GROVE,CA,ORANGE,0,1,0,California
92861,"VILLA PARK, CA",H,1190,H,15282,H,63113,199,VILLA PARK,CA,ORANGE,0,1,0,California
92865,"ORANGE, CA",G,17444,G,270370,G,1122435,961,ORANGE,CA,ORANGE,0,1,0,California
92866,"ORANGE, CA",H,9454,G,108944,G,464029,536,ORANGE,CA,ORANGE,0,1,0,California
92867,"ORANGE, CA",G,19456,G,285837,G,1194536,1698,ORANGE,CA,ORANGE,0,1,0,California
92868,"ORANGE, CA",G,50123,G,932653,G,3836391,1840,ORANGE,CA,ORANGE,0,1,0,California
92869,"ORANGE, CA",G,5428,G,56835,G,244923,700,ORANGE,CA,ORANGE,0,1,0,California
92870,"PLACENTIA, CA",G,12959,G,188033,G,758308,1295,PLACENTIA,CA,ORANGE,0,1,0,California
92886,"YORBA LINDA, CA",G,8621,G,91196,G,390538,1254,YORBA LINDA,CA,ORANGE,0,1,0,California
92887,"YORBA LINDA, CA",G,7810,G,147175,G,572197,686,YORBA LINDA,CA,ORANGE,0,1,0,California
93001,"VENTURA, CA",G,11831,H,180183,H,793725,1203,VENTURA,CA,VENTURA,1,1,0,California
93003,"VENTURA, CA",G,34074,G,542456,G,2248080,2557,VENTURA,CA,VENTURA,1,1,0,California
93004,"VENTURA, CA",G,2731,G,35103,G,145544,391,VENTURA,CA,VENTURA,0,1,0,California
93010,"CAMARILLO, CA",G,16482,G,180773,G,759925,1478,CAMARILLO,CA,VENTURA,0,1,0,California
93012,"CAMARILLO, CA",G,16689,G,279572,G,1127120,1112,CAMARILLO,CA,VENTURA,0,1,0,California
93013,"CARPINTERIA, CA",G,6110,G,96513,G,384894,531,CARPINTERIA,CA,SANTA BARBARA,1,1,0,California
93015,"FILLMORE, CA",G,2183,G,27090,G,108291,223,FILLMORE,CA,VENTURA,0,1,0,California
93021,"MOORPARK, CA",G,9890,G,150511,G,649931,893,MOORPARK,CA,VENTURA,0,1,0,California
93022,"OAK VIEW, CA",G,665,G,9909,G,40403,135,OAK VIEW,CA,VENTURA,0,1,0,California
93023,"OJAI, CA",G,6652,G,74942,G,320644,757,OJAI,CA,VENTURA,0,1,0,California
93030,"OXNARD, CA",G,27940,G,423384,G,1753603,1510,OXNARD,CA,VENTURA,1,1,0,California
93033,"OXNARD, CA",G,8090,G,99958,G,421099,787,OXNARD,CA,VENTURA,1,1,0,California
93035,"OXNARD, CA",G,2776,G,27397,G,114839,377,OXNARD,CA,VENTURA,1,1,0,California
93036,"OXNARD, CA",G,16618,G,216095,G,884239,1068,OXNARD,CA,VENTURA,1,1,0,California
93040,"PIRU, CA",H,107,H,1119,H,5079,13,PIRU,CA,VENTURA,0,1,0,California
93041,"PORT HUENEME, CA",G,2696,G,25376,G,106357,274,PORT HUENEME,CA,VENTURA,1,1,0,California
93042,"POINT MUGU NAWC, CA",H,405,H,10428,H,39845,25,POINT MUGU NAWC,CA,VENTURA,1,1,0,California
93043,"PORT HUENEME CBC BASE, CA",G,221,G,3230,G,12406,24,PORT HUENEME CBC BASE,CA,VENTURA,1,1,0,California
93060,"SANTA PAULA, CA",H,5747,G,84672,H,322757,518,SANTA PAULA,CA,VENTURA,0,1,0,California
93063,"SIMI VALLEY, CA",G,11598,G,166194,G,673502,1263,SIMI VALLEY,CA,VENTURA,0,1,0,California
93065,"SIMI VALLEY, CA",G,22854,G,330580,G,1386539,2043,SIMI VALLEY,CA,VENTURA,0,1,0,California
93066,"SOMIS, CA",G,659,G,9820,G,43036,98,SOMIS,CA,VENTURA,0,1,0,California
93067,"SUMMERLAND, CA",H,318,G,3245,G,14917,50,SUMMERLAND,CA,SANTA BARBARA,1,1,0,California
93101,"SANTA BARBARA, CA",G,24699,G,472038,G,1896588,2153,SANTA BARBARA,CA,SANTA BARBARA,1,1,0,California
93103,"SANTA BARBARA, CA",G,9629,H,204490,H,814829,727,SANTA BARBARA,CA,SANTA BARBARA,1,1,0,California
93105,"SANTA BARBARA, CA",G,14422,G,239495,G,989461,1079,SANTA BARBARA,CA,SANTA BARBARA,0,1,0,California
93106,"SANTA BARBARA, CA",H,70,G,1033,G,3808,11,SANTA BARBARA,CA,SANTA BARBARA,1,1,0,California
93108,"SANTA BARBARA, CA",G,6375,H,126757,H,482106,615,SANTA BARBARA,CA,SANTA BARBARA,1,1,0,California
93109,"SANTA BARBARA, CA",G,2312,G,22680,G,113761,319,SANTA BARBARA,CA,SANTA BARBARA,1,1,0,California
93110,"SANTA BARBARA, CA",G,3656,H,76850,G,279507,354,SANTA BARBARA,CA,SANTA BARBARA,1,1,0,California
93111,"SANTA BARBARA, CA",G,6006,G,113360,G,480637,542,SANTA BARBARA,CA,SANTA BARBARA,1,1,0,California
93117,"GOLETA, CA",G,26882,G,600349,G,2412534,1179,GOLETA,CA,SANTA BARBARA,1,1,0,California
93210,"COALINGA, CA",H,2547,H,31598,H,129518,172,COALINGA,CA,FRESNO,0,NA,NA,California
93225,"FRAZIER PARK, CA",G,279,G,2533,G,11636,72,FRAZIER PARK,CA,KERN,0,NA,NA,California
93243,"LEBEC, CA",H,2391,H,33819,H,134724,64,LEBEC,CA,KERN,0,NA,NA,California
93252,"MARICOPA, CA",G,133,H,2395,H,8944,12,MARICOPA,CA,KERN,0,NA,NA,California
93254,"NEW CUYAMA, CA",G,76,G,643,G,2951,14,NEW CUYAMA,CA,SANTA BARBARA,0,1,0,California
93401,"SAN LUIS OBISPO, CA",G,31306,G,585822,G,2356340,2161,SAN LUIS OBISPO,CA,SAN LUIS OBISPO,0,1,0,California
93402,"LOS OSOS, CA",G,1734,H,17834,H,78430,300,LOS OSOS,CA,SAN LUIS OBISPO,1,1,0,California
93405,"SAN LUIS OBISPO, CA",G,6997,G,71197,G,300848,457,SAN LUIS OBISPO,CA,SAN LUIS OBISPO,1,1,0,California
93407,"SAN LUIS OBISPO, CA",H,2574,H,8501,H,35148,12,SAN LUIS OBISPO,CA,SAN LUIS OBISPO,0,1,0,California
93420,"ARROYO GRANDE, CA",G,7127,G,86450,G,379386,888,ARROYO GRANDE,CA,SAN LUIS OBISPO,1,1,0,California
93422,"ATASCADERO, CA",H,9363,H,131912,H,557786,906,ATASCADERO,CA,SAN LUIS OBISPO,0,1,0,California
93424,"AVILA BEACH, CA",G,539,G,5631,G,25169,64,AVILA BEACH,CA,SAN LUIS OBISPO,1,1,0,California
93426,"BRADLEY, CA",H,97,G,1057,G,4119,22,BRADLEY,CA,MONTEREY,0,1,0,California
93427,"BUELLTON, CA",G,2921,G,37322,G,162144,270,BUELLTON,CA,SANTA BARBARA,0,1,0,California
93428,"CAMBRIA, CA",G,1713,G,15218,G,67568,249,CAMBRIA,CA,SAN LUIS OBISPO,1,1,0,California
93430,"CAYUCOS, CA",H,461,H,3764,G,17219,82,CAYUCOS,CA,SAN LUIS OBISPO,1,1,0,California
93432,"CRESTON, CA",H,213,H,2092,H,9901,27,CRESTON,CA,SAN LUIS OBISPO,0,1,0,California
93433,"GROVER BEACH, CA",G,2528,G,26859,G,117891,351,GROVER BEACH,CA,SAN LUIS OBISPO,1,1,0,California
93434,"GUADALUPE, CA",H,442,H,5368,H,22484,74,GUADALUPE,CA,SANTA BARBARA,1,1,0,California
93436,"LOMPOC, CA",G,8501,G,93302,G,382698,805,LOMPOC,CA,SANTA BARBARA,1,1,0,California
93437,"LOMPOC, CA",G,1746,G,44314,G,192988,67,LOMPOC,CA,SANTA BARBARA,1,1,0,California
93440,"LOS ALAMOS, CA",G,317,G,3001,G,12900,40,LOS ALAMOS,CA,SANTA BARBARA,0,1,0,California
93441,"LOS OLIVOS, CA",H,935,H,11574,H,52818,103,LOS OLIVOS,CA,SANTA BARBARA,0,1,0,California
93442,"MORRO BAY, CA",G,3322,G,31032,G,130240,392,MORRO BAY,CA,SAN LUIS OBISPO,1,1,0,California
93444,"NIPOMO, CA",G,2648,G,31522,G,143119,377,NIPOMO,CA,SAN LUIS OBISPO,1,1,0,California
93445,"OCEANO, CA",G,748,G,9252,H,48915,101,OCEANO,CA,SAN LUIS OBISPO,1,1,0,California
93446,"PASO ROBLES, CA",G,17505,G,221264,G,935738,1547,PASO ROBLES,CA,SAN LUIS OBISPO,0,1,0,California
93449,"PISMO BEACH, CA",G,4918,G,46601,G,201361,433,PISMO BEACH,CA,SAN LUIS OBISPO,1,1,0,California
93450,"SAN ARDO, CA",H,279,H,4245,H,17859,19,SAN ARDO,CA,MONTEREY,0,1,0,California
93451,"SAN MIGUEL, CA",G,331,G,4967,G,20286,56,SAN MIGUEL,CA,SAN LUIS OBISPO,0,1,0,California
93452,"SAN SIMEON, CA",H,221,G,1618,G,7778,23,SAN SIMEON,CA,SAN LUIS OBISPO,1,1,0,California
93453,"SANTA MARGARITA, CA",H,291,H,3956,H,18856,55,SANTA MARGARITA,CA,SAN LUIS OBISPO,0,1,0,California
93454,"SANTA MARIA, CA",G,18471,G,238610,G,977810,1205,SANTA MARIA,CA,SANTA BARBARA,0,1,0,California
93455,"SANTA MARIA, CA",G,12059,G,169583,G,701818,1053,SANTA MARIA,CA,SANTA BARBARA,1,1,0,California
93458,"SANTA MARIA, CA",G,5267,G,68300,H,296588,511,SANTA MARIA,CA,SANTA BARBARA,0,1,0,California
93460,"SANTA YNEZ, CA",H,3367,H,48097,H,187969,209,SANTA YNEZ,CA,SANTA BARBARA,0,1,0,California
93461,"SHANDON, CA",H,60,H,563,H,2464,14,SHANDON,CA,SAN LUIS OBISPO,0,NA,NA,California
93463,"SOLVANG, CA",G,3969,G,41125,G,175059,415,SOLVANG,CA,SANTA BARBARA,0,1,0,California
93465,"TEMPLETON, CA",H,2947,H,44760,H,187926,355,TEMPLETON,CA,SAN LUIS OBISPO,0,1,0,California
93510,"ACTON, CA",G,1807,H,20355,H,87268,189,ACTON,CA,LOS ANGELES,0,1,0,California
93532,"LAKE HUGHES, CA",H,164,G,1615,G,7441,28,LAKE HUGHES,CA,LOS ANGELES,0,1,0,California
93534,"LANCASTER, CA",H,23346,H,324671,H,1330477,1265,LANCASTER,CA,LOS ANGELES,0,1,0,California
93535,"LANCASTER, CA",G,8328,G,90756,G,386408,551,LANCASTER,CA,LOS ANGELES,0,1,0,California
93536,"LANCASTER, CA",G,8281,G,79107,G,323360,723,LANCASTER,CA,LOS ANGELES,0,NA,NA,California
93543,"LITTLEROCK, CA",H,670,H,8245,H,35841,100,LITTLEROCK,CA,LOS ANGELES,0,1,0,California
93544,"LLANO, CA",H,91,H,889,H,3887,14,LLANO,CA,LOS ANGELES,0,1,0,California
93550,"PALMDALE, CA",G,9198,G,95258,G,399366,801,PALMDALE,CA,LOS ANGELES,0,1,0,California
93551,"PALMDALE, CA",G,15504,G,150782,G,623088,1197,PALMDALE,CA,LOS ANGELES,0,1,0,California
93552,"PALMDALE, CA",G,3184,G,26761,G,110623,284,PALMDALE,CA,LOS ANGELES,0,1,0,California
93553,"PEARBLOSSOM, CA",J,90,H,761,H,3091,18,PEARBLOSSOM,CA,LOS ANGELES,0,1,0,California
93560,"ROSAMOND, CA",G,1295,G,12047,G,48483,141,ROSAMOND,CA,KERN,0,NA,NA,California
93563,"VALYERMO, CA",G,21,H,209,G,1049,3,VALYERMO,CA,LOS ANGELES,0,1,0,California
93591,"PALMDALE, CA",H,248,G,1747,G,7302,44,PALMDALE,CA,LOS ANGELES,0,1,0,California
93901,"SALINAS, CA",G,21261,H,343276,H,1570697,1372,SALINAS,CA,MONTEREY,0,1,0,California
93905,"SALINAS, CA",G,5121,G,52131,G,227058,524,SALINAS,CA,MONTEREY,0,1,0,California
93906,"SALINAS, CA",G,9743,H,136127,H,554731,722,SALINAS,CA,MONTEREY,0,1,0,California
93907,"SALINAS, CA",G,6215,G,75836,G,331111,483,SALINAS,CA,MONTEREY,0,1,0,California
93908,"SALINAS, CA",H,3045,G,48719,H,213244,320,SALINAS,CA,MONTEREY,1,1,0,California
93920,"BIG SUR, CA",H,1110,H,13061,H,59688,46,BIG SUR,CA,MONTEREY,1,1,0,California
93921,"CARMEL BY THE SEA, CA",G,2871,G,37234,G,144196,304,CARMEL BY THE SEA,CA,MONTEREY,1,1,0,California
93923,"CARMEL, CA",G,5085,G,76701,G,301758,579,CARMEL,CA,MONTEREY,1,1,0,California
93924,"CARMEL VALLEY, CA",G,1364,H,16222,H,69395,242,CARMEL VALLEY,CA,MONTEREY,0,1,0,California
93925,"CHUALAR, CA",J,229,J,4491,J,19471,18,CHUALAR,CA,MONTEREY,0,1,0,California
93926,"GONZALES, CA",H,2255,H,27812,H,122288,116,GONZALES,CA,MONTEREY,0,1,0,California
93927,"GREENFIELD, CA",G,1223,G,14165,G,60456,159,GREENFIELD,CA,MONTEREY,0,1,0,California
93928,"JOLON, CA",H,79,H,1454,H,5535,5,JOLON,CA,MONTEREY,0,1,0,California
93930,"KING CITY, CA",G,2340,G,29707,G,133791,206,KING CITY,CA,MONTEREY,0,1,0,California
93932,"LOCKWOOD, CA",J,23,J,182,J,669,4,LOCKWOOD,CA,MONTEREY,0,1,0,California
93933,"MARINA, CA",G,3965,G,44857,G,182424,380,MARINA,CA,MONTEREY,1,1,0,California
93940,"MONTEREY, CA",H,28758,H,442062,H,1840206,1797,MONTEREY,CA,MONTEREY,1,1,0,California
93943,"MONTEREY, CA",J,52,H,692,H,2836,6,MONTEREY,CA,MONTEREY,1,1,0,California
93944,"MONTEREY, CA",H,68,G,795,G,2966,12,MONTEREY,CA,MONTEREY,0,1,0,California
93950,"PACIFIC GROVE, CA",G,3487,G,39642,G,165490,430,PACIFIC GROVE,CA,MONTEREY,1,1,0,California
93953,"PEBBLE BEACH, CA",H,2778,H,49605,H,206496,82,PEBBLE BEACH,CA,MONTEREY,1,1,0,California
93954,"SAN LUCAS, CA",H,30,G,337,G,1807,3,SAN LUCAS,CA,MONTEREY,0,1,0,California
93955,"SEASIDE, CA",G,7876,G,82154,G,347942,674,SEASIDE,CA,MONTEREY,1,1,0,California
93960,"SOLEDAD, CA",H,2290,H,25660,H,110594,193,SOLEDAD,CA,MONTEREY,0,1,0,California
93962,"SPRECKELS, CA",H,39,H,400,H,1666,7,SPRECKELS,CA,MONTEREY,0,1,0,California
94002,"BELMONT, CA",H,7308,H,190751,H,784655,694,BELMONT,CA,SAN MATEO,1,1,0,California
94005,"BRISBANE, CA",G,10733,H,355535,H,1452587,278,BRISBANE,CA,SAN MATEO,1,1,0,California
94010,"BURLINGAME, CA",G,31028,G,705302,G,2779878,2184,BURLINGAME,CA,SAN MATEO,1,1,0,California
94014,"DALY CITY, CA",G,10505,G,152552,G,577823,657,DALY CITY,CA,SAN MATEO,0,1,0,California
94015,"DALY CITY, CA",G,12281,G,151960,G,650278,872,DALY CITY,CA,SAN MATEO,1,1,0,California
94018,"EL GRANADA, CA",G,717,H,19488,H,73676,72,EL GRANADA,CA,SAN MATEO,1,1,0,California
94019,"HALF MOON BAY, CA",G,4848,G,65538,G,309307,509,HALF MOON BAY,CA,SAN MATEO,1,1,0,California
94020,"LA HONDA, CA",H,164,H,1782,H,9123,32,LA HONDA,CA,SAN MATEO,0,1,0,California
94021,"LOMA MAR, CA",H,42,G,522,G,2797,8,LOMA MAR,CA,SAN MATEO,0,1,0,California
94022,"LOS ALTOS, CA",G,8622,G,266395,G,946262,881,LOS ALTOS,CA,SANTA CLARA,0,1,0,California
94024,"LOS ALTOS, CA",G,3126,G,49962,G,224226,470,LOS ALTOS,CA,SANTA CLARA,0,1,0,California
94025,"MENLO PARK, CA",H,98797,J,8361417,J,33404115,1740,MENLO PARK,CA,SAN MATEO,1,1,0,California
94027,"ATHERTON, CA",G,1883,G,38459,G,168104,180,ATHERTON,CA,SAN MATEO,0,1,0,California
94028,"PORTOLA VALLEY, CA",G,1822,G,32608,G,140292,210,PORTOLA VALLEY,CA,SAN MATEO,0,1,0,California
94030,"MILLBRAE, CA",G,4103,G,51322,G,219323,539,MILLBRAE,CA,SAN MATEO,1,1,0,California
94037,"MONTARA, CA",H,201,G,1807,G,8377,51,MONTARA,CA,SAN MATEO,1,1,0,California
94038,"MOSS BEACH, CA",G,374,H,5517,G,24751,45,MOSS BEACH,CA,SAN MATEO,1,1,0,California
94040,"MOUNTAIN VIEW, CA",G,17272,G,488373,G,2018468,1014,MOUNTAIN VIEW,CA,SANTA CLARA,0,1,0,California
94041,"MOUNTAIN VIEW, CA",G,15922,G,827617,G,3662699,423,MOUNTAIN VIEW,CA,SANTA CLARA,0,1,0,California
94043,"MOUNTAIN VIEW, CA",G,69408,H,6125656,H,25299623,1473,MOUNTAIN VIEW,CA,SANTA CLARA,1,1,0,California
94044,"PACIFICA, CA",G,4375,G,54630,G,229602,637,PACIFICA,CA,SAN MATEO,1,1,0,California
94060,"PESCADERO, CA",H,474,G,4200,G,20413,46,PESCADERO,CA,SAN MATEO,1,1,0,California
94061,"REDWOOD CITY, CA",G,5379,H,92877,H,389677,646,REDWOOD CITY,CA,SAN MATEO,0,1,0,California
94062,"REDWOOD CITY, CA",G,5867,G,121960,G,549372,656,REDWOOD CITY,CA,SAN MATEO,1,1,0,California
94063,"REDWOOD CITY, CA",G,37534,G,1709050,G,6532440,1545,REDWOOD CITY,CA,SAN MATEO,1,1,0,California
94065,"REDWOOD CITY, CA",G,22511,G,1316516,G,5057447,423,REDWOOD CITY,CA,SAN MATEO,1,1,0,California
94066,"SAN BRUNO, CA",H,14982,J,784595,J,2846400,994,SAN BRUNO,CA,SAN MATEO,0,1,0,California
94070,"SAN CARLOS, CA",G,20055,H,675003,H,2259199,1357,SAN CARLOS,CA,SAN MATEO,1,1,0,California
94074,"SAN GREGORIO, CA",H,41,G,423,G,1845,10,SAN GREGORIO,CA,SAN MATEO,1,1,0,California
94080,"SOUTH SAN FRANCISCO, CA",G,62055,H,3250161,H,9795142,2268,SOUTH SAN FRANCISCO,CA,SAN MATEO,1,1,0,California
94085,"SUNNYVALE, CA",G,21768,H,1095796,H,4457141,766,SUNNYVALE,CA,SANTA CLARA,0,1,0,California
94086,"SUNNYVALE, CA",G,29429,G,1879309,G,6381065,864,SUNNYVALE,CA,SANTA CLARA,0,1,0,California
94087,"SUNNYVALE, CA",G,10258,G,126677,G,532288,1195,SUNNYVALE,CA,SANTA CLARA,0,1,0,California
94089,"SUNNYVALE, CA",G,44041,H,4049905,H,15492445,539,SUNNYVALE,CA,SANTA CLARA,1,1,0,California
94102,"SAN FRANCISCO, CA",G,31203,G,726772,G,2887926,1661,SAN FRANCISCO,CA,SAN FRANCISCO,1,1,0,California
94103,"SAN FRANCISCO, CA",G,86959,H,4201168,H,16291209,2584,SAN FRANCISCO,CA,SAN FRANCISCO,1,1,0,California
94104,"SAN FRANCISCO, CA",G,82128,G,4454568,G,15631475,2153,SAN FRANCISCO,CA,SAN FRANCISCO,1,1,0,California
94105,"SAN FRANCISCO, CA",G,127563,G,7766775,G,26295388,2067,SAN FRANCISCO,CA,SAN FRANCISCO,1,1,0,California
94107,"SAN FRANCISCO, CA",G,77106,G,3232453,G,13144086,2071,SAN FRANCISCO,CA,SAN FRANCISCO,1,1,0,California
94108,"SAN FRANCISCO, CA",G,27567,G,916327,G,3427254,1539,SAN FRANCISCO,CA,SAN FRANCISCO,1,1,0,California
94109,"SAN FRANCISCO, CA",G,25710,G,520198,G,2208100,1678,SAN FRANCISCO,CA,SAN FRANCISCO,1,1,0,California
94110,"SAN FRANCISCO, CA",G,28989,H,773702,H,3413956,2118,SAN FRANCISCO,CA,SAN FRANCISCO,0,1,0,California
94111,"SAN FRANCISCO, CA",G,82356,G,4289857,G,13331361,2323,SAN FRANCISCO,CA,SAN FRANCISCO,1,1,0,California
94112,"SAN FRANCISCO, CA",G,6382,G,94561,G,391367,977,SAN FRANCISCO,CA,SAN FRANCISCO,0,1,0,California
94114,"SAN FRANCISCO, CA",G,10046,G,200518,G,828901,1453,SAN FRANCISCO,CA,SAN FRANCISCO,0,1,0,California
94115,"SAN FRANCISCO, CA",G,18448,G,480560,G,1885266,1371,SAN FRANCISCO,CA,SAN FRANCISCO,0,1,0,California
94116,"SAN FRANCISCO, CA",H,5596,H,115246,H,495989,706,SAN FRANCISCO,CA,SAN FRANCISCO,1,1,0,California
94117,"SAN FRANCISCO, CA",H,12122,G,176044,G,737675,1033,SAN FRANCISCO,CA,SAN FRANCISCO,1,1,0,California
94118,"SAN FRANCISCO, CA",G,11269,G,188358,G,757039,1239,SAN FRANCISCO,CA,SAN FRANCISCO,0,1,0,California
94121,"SAN FRANCISCO, CA",G,5144,G,75905,G,311464,826,SAN FRANCISCO,CA,SAN FRANCISCO,1,1,0,California
94122,"SAN FRANCISCO, CA",G,7566,G,85533,G,372690,1188,SAN FRANCISCO,CA,SAN FRANCISCO,1,1,0,California
94123,"SAN FRANCISCO, CA",G,9873,G,138641,G,583069,1125,SAN FRANCISCO,CA,SAN FRANCISCO,1,1,0,California
94124,"SAN FRANCISCO, CA",G,20546,G,426968,G,1748383,1315,SAN FRANCISCO,CA,SAN FRANCISCO,1,1,0,California
94127,"SAN FRANCISCO, CA",G,2758,G,38238,G,164206,529,SAN FRANCISCO,CA,SAN FRANCISCO,1,1,0,California
94128,"SAN FRANCISCO, CA",G,13241,H,218484,H,905356,191,SAN FRANCISCO,CA,SAN MATEO,1,1,0,California
94129,"SAN FRANCISCO, CA",H,6891,H,317129,H,1340284,285,SAN FRANCISCO,CA,SAN FRANCISCO,1,1,0,California
94130,"SAN FRANCISCO, CA",G,780,G,13134,G,55242,56,SAN FRANCISCO,CA,SAN FRANCISCO,1,1,0,California
94131,"SAN FRANCISCO, CA",G,2519,G,47275,G,202590,484,SAN FRANCISCO,CA,SAN FRANCISCO,1,1,0,California
94132,"SAN FRANCISCO, CA",G,5704,G,63333,G,261268,450,SAN FRANCISCO,CA,SAN FRANCISCO,1,1,0,California
94133,"SAN FRANCISCO, CA",G,18304,G,384963,G,1594958,1339,SAN FRANCISCO,CA,SAN FRANCISCO,1,1,0,California
94134,"SAN FRANCISCO, CA",G,3956,G,72620,G,306024,452,SAN FRANCISCO,CA,SAN FRANCISCO,1,1,0,California
94158,"SAN FRANCISCO, CA",H,9763,H,573203,H,1950187,269,SAN FRANCISCO,CA,SAN FRANCISCO,1,1,0,California
94188,"SAN FRANCISCO, CA",J,31,J,1286,J,9934,4,SAN FRANCISCO,CA,SAN FRANCISCO,1,1,0,California
94301,"PALO ALTO, CA",G,25414,G,1249050,G,4983911,1254,PALO ALTO,CA,SANTA CLARA,0,1,0,California
94303,"PALO ALTO, CA",H,17648,H,619221,H,2677210,989,PALO ALTO,CA,SANTA CLARA,1,1,0,California
94304,"PALO ALTO, CA",G,56576,G,3578984,G,14548975,483,PALO ALTO,CA,SANTA CLARA,0,1,0,California
94305,"STANFORD, CA",J,54779,J,1472673,J,6558292,115,STANFORD,CA,SANTA CLARA,0,1,0,California
94306,"PALO ALTO, CA",G,16926,H,748431,G,2798946,1079,PALO ALTO,CA,SANTA CLARA,0,1,0,California
94401,"SAN MATEO, CA",G,15587,G,410971,G,1548069,1162,SAN MATEO,CA,SAN MATEO,1,1,0,California
94402,"SAN MATEO, CA",G,24824,H,1149353,H,4339223,1024,SAN MATEO,CA,SAN MATEO,1,1,0,California
94403,"SAN MATEO, CA",G,32578,G,1285147,G,5451196,1204,SAN MATEO,CA,SAN MATEO,1,1,0,California
94404,"SAN MATEO, CA",G,26284,G,1583197,G,5858700,911,SAN MATEO,CA,SAN MATEO,1,1,0,California
94501,"ALAMEDA, CA",G,20851,H,429428,G,1724975,1629,ALAMEDA,CA,ALAMEDA,1,1,0,California
94502,"ALAMEDA, CA",H,11737,H,469669,H,1627655,270,ALAMEDA,CA,ALAMEDA,1,1,0,California
94503,"AMERICAN CANYON, CA",G,6205,G,83551,G,349046,363,AMERICAN CANYON,CA,NAPA,0,0,0,California
94505,"DISCOVERY BAY, CA",G,1170,H,16528,H,66923,199,DISCOVERY BAY,CA,CONTRA COSTA,0,1,0,California
94506,"DANVILLE, CA",G,3616,G,56605,G,241487,511,DANVILLE,CA,CONTRA COSTA,0,1,0,California
94507,"ALAMO, CA",G,2912,G,49719,G,237677,480,ALAMO,CA,CONTRA COSTA,0,1,0,California
94508,"ANGWIN, CA",H,1017,G,9566,G,42099,76,ANGWIN,CA,NAPA,0,0,0,California
94509,"ANTIOCH, CA",G,12352,G,179791,G,756442,979,ANTIOCH,CA,CONTRA COSTA,1,1,0,California
94510,"BENICIA, CA",G,13883,G,247534,G,1027043,890,BENICIA,CA,SOLANO,1,1,0,California
94511,"BETHEL ISLAND, CA",H,239,H,2390,H,10120,35,BETHEL ISLAND,CA,CONTRA COSTA,0,1,0,California
94512,"BIRDS LANDING, CA",H,56,H,1484,G,5578,5,BIRDS LANDING,CA,SOLANO,0,1,0,California
94513,"BRENTWOOD, CA",G,19262,H,486789,H,1607000,1414,BRENTWOOD,CA,CONTRA COSTA,0,1,0,California
94514,"BYRON, CA",H,680,H,10846,H,46401,57,BYRON,CA,CONTRA COSTA,0,1,0,California
94515,"CALISTOGA, CA",H,3101,G,48773,G,190378,253,CALISTOGA,CA,NAPA,0,0,0,California
94516,"CANYON, CA",J,5,J,74,J,444,5,CANYON,CA,CONTRA COSTA,0,1,0,California
94517,"CLAYTON, CA",G,1819,H,43072,H,139622,215,CLAYTON,CA,CONTRA COSTA,0,1,0,California
94518,"CONCORD, CA",G,4884,G,67843,G,279197,508,CONCORD,CA,CONTRA COSTA,0,1,0,California
94519,"CONCORD, CA",G,2129,G,22510,G,93711,330,CONCORD,CA,CONTRA COSTA,0,1,0,California
94520,"CONCORD, CA",G,46364,G,927392,G,3388845,2028,CONCORD,CA,CONTRA COSTA,1,1,0,California
94521,"CONCORD, CA",G,5659,G,62610,G,261321,655,CONCORD,CA,CONTRA COSTA,0,1,0,California
94523,"PLEASANT HILL, CA",G,13469,G,162550,G,678990,1135,PLEASANT HILL,CA,CONTRA COSTA,0,1,0,California
94525,"CROCKETT, CA",H,1164,H,26737,H,111629,45,CROCKETT,CA,CONTRA COSTA,1,1,0,California
94526,"DANVILLE, CA",G,9129,G,131857,G,558449,1114,DANVILLE,CA,CONTRA COSTA,0,1,0,California
94528,"DIABLO, CA",J,170,H,3126,H,13196,22,DIABLO,CA,CONTRA COSTA,0,1,0,California
94530,"EL CERRITO, CA",G,6230,G,62954,G,274914,594,EL CERRITO,CA,CONTRA COSTA,0,1,0,California
94531,"ANTIOCH, CA",H,7748,J,129631,J,517020,559,ANTIOCH,CA,CONTRA COSTA,0,1,0,California
94533,"FAIRFIELD, CA",G,20512,G,285040,G,1170647,1358,FAIRFIELD,CA,SOLANO,0,1,0,California
94534,"FAIRFIELD, CA",G,14787,G,228188,G,917323,812,FAIRFIELD,CA,SOLANO,0,1,0,California
94535,"TRAVIS AFB, CA",J,2720,J,41255,J,170237,54,TRAVIS AFB,CA,SOLANO,0,1,0,California
94536,"FREMONT, CA",G,6845,G,91775,G,400805,1029,FREMONT,CA,ALAMEDA,1,1,0,California
94538,"FREMONT, CA",G,93523,H,3679160,H,14386099,2749,FREMONT,CA,ALAMEDA,1,1,0,California
94539,"FREMONT, CA",G,19562,G,350838,G,1450179,1426,FREMONT,CA,ALAMEDA,0,1,0,California
94541,"HAYWARD, CA",G,12202,G,144400,G,597317,1089,HAYWARD,CA,ALAMEDA,1,1,0,California
94542,"HAYWARD, CA",H,2216,G,17055,G,78993,172,HAYWARD,CA,ALAMEDA,0,1,0,California
94544,"HAYWARD, CA",G,18767,G,322796,G,1285893,1313,HAYWARD,CA,ALAMEDA,0,1,0,California
94545,"HAYWARD, CA",G,33827,G,677048,G,2683554,1703,HAYWARD,CA,ALAMEDA,1,1,0,California
94546,"CASTRO VALLEY, CA",G,8763,G,129240,G,528033,923,CASTRO VALLEY,CA,ALAMEDA,0,1,0,California
94547,"HERCULES, CA",H,4695,H,148820,H,578599,278,HERCULES,CA,CONTRA COSTA,1,1,0,California
94548,"KNIGHTSEN, CA",H,60,H,586,H,2528,10,KNIGHTSEN,CA,CONTRA COSTA,0,1,0,California
94549,"LAFAYETTE, CA",G,8904,G,150039,G,631548,1069,LAFAYETTE,CA,CONTRA COSTA,0,1,0,California
94550,"LIVERMORE, CA",H,25430,H,610564,H,2473570,1278,LIVERMORE,CA,ALAMEDA,0,1,0,California
94551,"LIVERMORE, CA",G,30354,G,683805,G,2474024,1362,LIVERMORE,CA,ALAMEDA,0,1,0,California
94552,"CASTRO VALLEY, CA",G,960,G,11351,G,53589,197,CASTRO VALLEY,CA,ALAMEDA,0,1,0,California
94553,"MARTINEZ, CA",G,17214,G,353663,G,1437602,1141,MARTINEZ,CA,CONTRA COSTA,1,1,0,California
94555,"FREMONT, CA",G,5458,G,142206,G,580228,358,FREMONT,CA,ALAMEDA,1,1,0,California
94556,"MORAGA, CA",H,3857,G,52376,G,219134,336,MORAGA,CA,CONTRA COSTA,0,1,0,California
94558,"NAPA, CA",G,28036,G,476329,G,1902463,1870,NAPA,CA,NAPA,0,0,0,California
94559,"NAPA, CA",G,14030,G,209432,G,850674,1209,NAPA,CA,NAPA,0,0,0,California
94560,"NEWARK, CA",G,27577,H,635617,H,2497222,1224,NEWARK,CA,ALAMEDA,1,1,0,California
94561,"OAKLEY, CA",G,3601,G,39144,G,179994,469,OAKLEY,CA,CONTRA COSTA,1,1,0,California
94562,"OAKVILLE, CA",G,693,G,15657,G,61246,22,OAKVILLE,CA,NAPA,0,0,0,California
94563,"ORINDA, CA",G,3136,G,70976,G,262543,576,ORINDA,CA,CONTRA COSTA,0,1,0,California
94564,"PINOLE, CA",G,5145,G,51454,G,214751,455,PINOLE,CA,CONTRA COSTA,1,1,0,California
94565,"PITTSBURG, CA",G,12568,G,182982,G,775554,1059,PITTSBURG,CA,CONTRA COSTA,1,1,0,California
94566,"PLEASANTON, CA",G,16027,G,293253,G,1188574,1539,PLEASANTON,CA,ALAMEDA,0,1,0,California
94567,"POPE VALLEY, CA",H,81,G,1315,G,5129,19,POPE VALLEY,CA,NAPA,0,0,0,California
94568,"DUBLIN, CA",G,22730,H,613838,H,2204409,1615,DUBLIN,CA,ALAMEDA,0,1,0,California
94569,"PORT COSTA, CA",J,51,J,419,J,1810,3,PORT COSTA,CA,CONTRA COSTA,1,1,0,California
94571,"RIO VISTA, CA",G,1339,G,19884,G,82807,146,RIO VISTA,CA,SOLANO,1,0,0,California
94572,"RODEO, CA",H,1252,J,40460,J,127531,88,RODEO,CA,CONTRA COSTA,1,1,0,California
94573,"RUTHERFORD, CA",G,1060,G,24183,G,93439,34,RUTHERFORD,CA,NAPA,0,0,0,California
94574,"SAINT HELENA, CA",G,9809,G,189112,G,815634,556,SAINT HELENA,CA,NAPA,0,0,0,California
94575,"MORAGA, CA",J,77,J,777,J,3134,6,MORAGA,CA,CONTRA COSTA,0,1,0,California
94576,"DEER PARK, CA",G,311,G,4010,G,15593,10,DEER PARK,CA,NAPA,0,0,0,California
94577,"SAN LEANDRO, CA",G,38477,G,790950,G,3038310,1821,SAN LEANDRO,CA,ALAMEDA,1,1,0,California
94578,"SAN LEANDRO, CA",G,10428,H,184329,H,731658,606,SAN LEANDRO,CA,ALAMEDA,0,1,0,California
94579,"SAN LEANDRO, CA",G,2224,G,23208,G,89126,246,SAN LEANDRO,CA,ALAMEDA,1,1,0,California
94580,"SAN LORENZO, CA",H,3718,G,32503,G,129919,304,SAN LORENZO,CA,ALAMEDA,1,1,0,California
94582,"SAN RAMON, CA",G,2450,G,27318,G,128373,569,SAN RAMON,CA,CONTRA COSTA,0,1,0,California
94583,"SAN RAMON, CA",G,36442,H,1273101,H,4426504,2090,SAN RAMON,CA,CONTRA COSTA,0,1,0,California
94585,"SUISUN CITY, CA",G,3285,G,56058,G,223881,301,SUISUN CITY,CA,SOLANO,1,1,0,California
94586,"SUNOL, CA",G,686,G,10787,H,49694,33,SUNOL,CA,ALAMEDA,0,1,0,California
94587,"UNION CITY, CA",G,22663,G,377173,G,1608371,1362,UNION CITY,CA,ALAMEDA,1,1,0,California
94588,"PLEASANTON, CA",G,61022,G,2226902,H,9476591,1806,PLEASANTON,CA,ALAMEDA,0,1,0,California
94589,"VALLEJO, CA",H,9378,J,218752,J,903269,336,VALLEJO,CA,SOLANO,1,1,0,California
94590,"VALLEJO, CA",G,8693,H,141412,H,553919,723,VALLEJO,CA,SOLANO,1,1,0,California
94591,"VALLEJO, CA",G,6918,G,65180,G,274376,614,VALLEJO,CA,SOLANO,1,0,0,California
94592,"VALLEJO, CA",H,2474,H,58384,H,244974,59,VALLEJO,CA,SOLANO,1,1,0,California
94595,"WALNUT CREEK, CA",G,2908,G,44296,G,174132,286,WALNUT CREEK,CA,CONTRA COSTA,0,1,0,California
94596,"WALNUT CREEK, CA",G,32387,G,853497,G,3323330,2061,WALNUT CREEK,CA,CONTRA COSTA,0,1,0,California
94597,"WALNUT CREEK, CA",G,9694,G,322088,G,1107366,680,WALNUT CREEK,CA,CONTRA COSTA,0,1,0,California
94598,"WALNUT CREEK, CA",G,19695,G,490788,G,2037755,985,WALNUT CREEK,CA,CONTRA COSTA,0,1,0,California
94599,"YOUNTVILLE, CA",H,2126,H,40845,H,165779,91,YOUNTVILLE,CA,NAPA,0,0,0,California
94601,"OAKLAND, CA",G,10209,G,134848,G,577657,792,OAKLAND,CA,ALAMEDA,1,1,0,California
94602,"OAKLAND, CA",G,3611,G,44128,G,197626,476,OAKLAND,CA,ALAMEDA,0,1,0,California
94603,"OAKLAND, CA",G,4003,G,90414,G,360554,303,OAKLAND,CA,ALAMEDA,1,1,0,California
94605,"OAKLAND, CA",G,3593,H,39455,G,170197,459,OAKLAND,CA,ALAMEDA,0,1,0,California
94606,"OAKLAND, CA",G,5139,G,64990,G,275865,604,OAKLAND,CA,ALAMEDA,1,1,0,California
94607,"OAKLAND, CA",G,28767,G,979231,G,3659783,1506,OAKLAND,CA,ALAMEDA,1,1,0,California
94608,"EMERYVILLE, CA",G,34469,G,1093809,G,4100749,1228,EMERYVILLE,CA,ALAMEDA,1,1,0,California
94609,"OAKLAND, CA",G,12431,G,289597,G,1359979,820,OAKLAND,CA,ALAMEDA,0,1,0,California
94610,"OAKLAND, CA",G,5572,G,71698,G,301200,776,OAKLAND,CA,ALAMEDA,0,1,0,California
94611,"OAKLAND, CA",H,13527,H,343622,H,1376116,1134,OAKLAND,CA,ALAMEDA,0,1,0,California
94612,"OAKLAND, CA",H,43353,H,1655327,H,6042479,1716,OAKLAND,CA,ALAMEDA,1,1,0,California
94613,"OAKLAND, CA",J,359,J,4902,J,19314,5,OAKLAND,CA,ALAMEDA,0,1,0,California
94618,"OAKLAND, CA",G,6243,H,177167,H,632438,531,OAKLAND,CA,ALAMEDA,0,1,0,California
94619,"OAKLAND, CA",G,4635,G,41944,G,167300,377,OAKLAND,CA,ALAMEDA,0,1,0,California
94621,"OAKLAND, CA",G,26435,G,464737,G,2024331,817,OAKLAND,CA,ALAMEDA,1,1,0,California
94702,"BERKELEY, CA",G,3735,G,56412,G,235676,471,BERKELEY,CA,ALAMEDA,0,1,0,California
94703,"BERKELEY, CA",G,2484,G,33103,G,141018,340,BERKELEY,CA,ALAMEDA,0,1,0,California
94704,"BERKELEY, CA",G,11484,G,200788,G,888333,940,BERKELEY,CA,ALAMEDA,0,1,0,California
94705,"BERKELEY, CA",G,5823,G,114305,G,461474,569,BERKELEY,CA,ALAMEDA,0,1,0,California
94706,"ALBANY, CA",G,3852,G,42087,G,175943,505,ALBANY,CA,ALAMEDA,1,1,0,California
94707,"BERKELEY, CA",G,1987,G,27470,G,124586,404,BERKELEY,CA,ALAMEDA,0,1,0,California
94708,"BERKELEY, CA",G,739,G,13713,G,59606,204,BERKELEY,CA,ALAMEDA,0,1,0,California
94709,"BERKELEY, CA",G,2891,G,43365,G,179361,340,BERKELEY,CA,ALAMEDA,0,1,0,California
94710,"BERKELEY, CA",G,18030,G,414672,G,1619651,955,BERKELEY,CA,ALAMEDA,1,1,0,California
94720,"BERKELEY, CA",G,867,G,14593,G,62090,48,BERKELEY,CA,ALAMEDA,0,1,0,California
94801,"RICHMOND, CA",G,10717,H,327057,G,1142690,491,RICHMOND,CA,CONTRA COSTA,1,1,0,California
94803,"EL SOBRANTE, CA",G,2054,G,21678,G,89932,374,EL SOBRANTE,CA,CONTRA COSTA,0,1,0,California
94804,"RICHMOND, CA",G,13241,G,270676,G,1078477,795,RICHMOND,CA,CONTRA COSTA,1,1,0,California
94805,"RICHMOND, CA",G,1669,G,16443,G,67959,235,RICHMOND,CA,CONTRA COSTA,0,1,0,California
94806,"SAN PABLO, CA",G,11191,G,143316,G,575934,807,SAN PABLO,CA,CONTRA COSTA,1,1,0,California
94901,"SAN RAFAEL, CA",G,24497,G,612926,G,2060777,2001,SAN RAFAEL,CA,MARIN,1,1,0,California
94903,"SAN RAFAEL, CA",G,15001,H,351846,H,1459885,1144,SAN RAFAEL,CA,MARIN,1,1,0,California
94904,"GREENBRAE, CA",G,5815,H,137075,G,574274,472,GREENBRAE,CA,MARIN,1,1,0,California
94920,"BELVEDERE TIBURON, CA",G,2566,G,43908,G,199587,392,BELVEDERE TIBURON,CA,MARIN,1,1,0,California
94922,"BODEGA, CA",J,42,J,366,J,1601,15,BODEGA,CA,SONOMA,0,1,0,California
94923,"BODEGA BAY, CA",G,599,G,5725,G,26384,56,BODEGA BAY,CA,SONOMA,1,1,0,California
94924,"BOLINAS, CA",G,313,G,3708,G,16606,42,BOLINAS,CA,MARIN,1,1,0,California
94925,"CORTE MADERA, CA",G,6263,G,112720,G,557769,510,CORTE MADERA,CA,MARIN,1,1,0,California
94928,"ROHNERT PARK, CA",G,13276,H,175826,G,740422,907,ROHNERT PARK,CA,SONOMA,0,1,0,California
94929,"DILLON BEACH, CA",G,54,G,504,G,2658,8,DILLON BEACH,CA,MARIN,1,1,0,California
94930,"FAIRFAX, CA",G,1776,G,20315,G,91943,273,FAIRFAX,CA,MARIN,0,1,0,California
94931,"COTATI, CA",G,3390,G,47192,G,213643,324,COTATI,CA,SONOMA,0,1,0,California
94933,"FOREST KNOLLS, CA",J,68,H,1018,H,4720,13,FOREST KNOLLS,CA,MARIN,0,1,0,California
94937,"INVERNESS, CA",G,177,G,2005,G,9741,33,INVERNESS,CA,MARIN,1,1,0,California
94938,"LAGUNITAS, CA",H,48,G,345,G,1593,18,LAGUNITAS,CA,MARIN,0,1,0,California
94939,"LARKSPUR, CA",G,5155,G,141221,G,526291,404,LARKSPUR,CA,MARIN,1,1,0,California
94940,"MARSHALL, CA",H,123,G,1696,G,8413,10,MARSHALL,CA,MARIN,1,1,0,California
94941,"MILL VALLEY, CA",G,9219,G,191820,G,733576,1264,MILL VALLEY,CA,MARIN,1,1,0,California
94945,"NOVATO, CA",G,8667,G,153461,G,626709,763,NOVATO,CA,MARIN,1,1,0,California
94946,"NICASIO, CA",J,95,H,1280,H,5624,24,NICASIO,CA,MARIN,0,1,0,California
94947,"NOVATO, CA",G,3492,H,50444,H,212484,498,NOVATO,CA,MARIN,0,1,0,California
94949,"NOVATO, CA",G,10558,H,363585,G,1299366,614,NOVATO,CA,MARIN,1,1,0,California
94950,"OLEMA, CA",G,59,G,209,G,894,4,OLEMA,CA,MARIN,0,1,0,California
94951,"PENNGROVE, CA",G,554,G,7470,H,35455,120,PENNGROVE,CA,SONOMA,0,1,0,California
94952,"PETALUMA, CA",G,14859,G,265877,G,1090449,1360,PETALUMA,CA,SONOMA,1,1,0,California
94954,"PETALUMA, CA",G,16331,G,291717,G,1149006,1044,PETALUMA,CA,SONOMA,1,1,0,California
94956,"POINT REYES STATION, CA",G,675,G,8371,G,36151,87,POINT REYES STATION,CA,MARIN,1,1,0,California
94957,"ROSS, CA",G,519,H,19170,G,63505,73,ROSS,CA,MARIN,0,1,0,California
94960,"SAN ANSELMO, CA",G,3374,G,45342,G,197530,525,SAN ANSELMO,CA,MARIN,0,1,0,California
94963,"SAN GERONIMO, CA",H,133,G,1503,G,6463,21,SAN GERONIMO,CA,MARIN,0,1,0,California
94964,"SAN QUENTIN, CA",J,19,J,270,H,1173,6,SAN QUENTIN,CA,MARIN,1,1,0,California
94965,"SAUSALITO, CA",G,6910,G,123891,G,523091,711,SAUSALITO,CA,MARIN,1,1,0,California
94970,"STINSON BEACH, CA",J,175,H,2544,H,11237,28,STINSON BEACH,CA,MARIN,1,1,0,California
94971,"TOMALES, CA",J,35,G,304,G,1416,7,TOMALES,CA,MARIN,1,1,0,California
94972,"VALLEY FORD, CA",H,28,H,301,G,1994,9,VALLEY FORD,CA,SONOMA,1,1,0,California
94973,"WOODACRE, CA",H,544,J,6977,J,27709,44,WOODACRE,CA,MARIN,0,1,0,California
95002,"ALVISO, CA",H,7483,H,374357,H,1481213,64,ALVISO,CA,SANTA CLARA,1,1,0,California
95003,"APTOS, CA",G,5123,G,56077,G,244781,660,APTOS,CA,SANTA CRUZ,1,1,0,California
95004,"AROMAS, CA",H,721,H,13314,H,53862,62,AROMAS,CA,MONTEREY,0,1,0,California
95005,"BEN LOMOND, CA",H,570,H,6618,H,29240,107,BEN LOMOND,CA,SANTA CRUZ,0,1,0,California
95006,"BOULDER CREEK, CA",G,852,G,9147,G,41045,144,BOULDER CREEK,CA,SANTA CRUZ,0,1,0,California
95007,"BROOKDALE, CA",H,66,H,878,H,3922,8,BROOKDALE,CA,SANTA CRUZ,0,1,0,California
95008,"CAMPBELL, CA",G,29159,G,639350,G,2620516,2025,CAMPBELL,CA,SANTA CLARA,0,1,0,California
95010,"CAPITOLA, CA",G,5798,G,67144,G,273379,522,CAPITOLA,CA,SANTA CRUZ,1,1,0,California
95012,"CASTROVILLE, CA",G,2029,G,31139,G,132283,168,CASTROVILLE,CA,MONTEREY,1,1,0,California
95013,"COYOTE, CA",H,64,H,1818,H,6531,9,COYOTE,CA,SANTA CLARA,0,1,0,California
95014,"CUPERTINO, CA",J,59243,J,2580899,J,22133258,1615,CUPERTINO,CA,SANTA CLARA,0,1,0,California
95017,"DAVENPORT, CA",H,155,J,2251,J,8303,11,DAVENPORT,CA,SANTA CRUZ,1,1,0,California
95018,"FELTON, CA",H,1017,H,10036,H,45252,173,FELTON,CA,SANTA CRUZ,0,1,0,California
95019,"FREEDOM, CA",G,900,G,10085,G,42684,135,FREEDOM,CA,SANTA CRUZ,0,1,0,California
95020,"GILROY, CA",G,19193,G,231876,G,979640,1540,GILROY,CA,SANTA CLARA,0,1,0,California
95023,"HOLLISTER, CA",G,11493,G,159380,G,674557,1012,HOLLISTER,CA,SAN BENITO,0,NA,NA,California
95030,"LOS GATOS, CA",G,6283,G,108412,G,423556,708,LOS GATOS,CA,SANTA CLARA,0,1,0,California
95032,"LOS GATOS, CA",G,12922,H,857431,H,3535278,1019,LOS GATOS,CA,SANTA CLARA,0,1,0,California
95033,"LOS GATOS, CA",H,623,G,8853,G,35845,149,LOS GATOS,CA,SANTA CLARA,0,1,0,California
95035,"MILPITAS, CA",G,48580,H,1542647,H,5790966,2214,MILPITAS,CA,SANTA CLARA,0,1,0,California
95037,"MORGAN HILL, CA",G,18080,G,276952,G,1149313,1388,MORGAN HILL,CA,SANTA CLARA,0,1,0,California
95039,"MOSS LANDING, CA",H,851,H,15977,H,61776,61,MOSS LANDING,CA,MONTEREY,1,1,0,California
95041,"MOUNT HERMON, CA",J,177,H,1509,J,7219,9,MOUNT HERMON,CA,SANTA CRUZ,0,1,0,California
95046,"SAN MARTIN, CA",G,1344,G,17639,G,79124,177,SAN MARTIN,CA,SANTA CLARA,0,1,0,California
95050,"SANTA CLARA, CA",G,28753,G,637768,G,2663070,1562,SANTA CLARA,CA,SANTA CLARA,0,1,0,California
95051,"SANTA CLARA, CA",H,27577,H,2005382,H,9322234,1109,SANTA CLARA,CA,SANTA CLARA,0,1,0,California
95053,"SANTA CLARA, CA",H,3482,H,41461,H,176615,15,SANTA CLARA,CA,SANTA CLARA,0,1,0,California
95054,"SANTA CLARA, CA",H,99768,H,5037282,H,19881723,1881,SANTA CLARA,CA,SANTA CLARA,1,1,0,California
95060,"SANTA CRUZ, CA",G,20773,G,331739,G,1344463,1584,SANTA CRUZ,CA,SANTA CRUZ,1,1,0,California
95062,"SANTA CRUZ, CA",G,10018,G,135606,G,543865,1049,SANTA CRUZ,CA,SANTA CRUZ,1,1,0,California
95064,"SANTA CRUZ, CA",H,117,G,1495,G,6628,14,SANTA CRUZ,CA,SANTA CRUZ,1,1,0,California
95065,"SANTA CRUZ, CA",H,4476,H,95040,H,388472,276,SANTA CRUZ,CA,SANTA CRUZ,0,1,0,California
95066,"SCOTTS VALLEY, CA",G,7553,G,139905,G,581362,538,SCOTTS VALLEY,CA,SANTA CRUZ,0,1,0,California
95070,"SARATOGA, CA",G,5888,G,93383,G,386172,807,SARATOGA,CA,SANTA CLARA,0,1,0,California
95073,"SOQUEL, CA",G,3802,G,46183,G,193544,412,SOQUEL,CA,SANTA CRUZ,0,1,0,California
95076,"WATSONVILLE, CA",G,19004,G,296807,G,1207456,1524,WATSONVILLE,CA,SANTA CRUZ,1,1,0,California
95110,"SAN JOSE, CA",H,44547,H,2017919,H,8749902,1093,SAN JOSE,CA,SANTA CLARA,0,1,0,California
95111,"SAN JOSE, CA",G,5240,G,66310,G,289853,695,SAN JOSE,CA,SANTA CLARA,0,1,0,California
95112,"SAN JOSE, CA",G,40408,G,804540,G,3202545,2135,SAN JOSE,CA,SANTA CLARA,0,1,0,California
95113,"SAN JOSE, CA",G,22385,G,885304,G,3476262,838,SAN JOSE,CA,SANTA CLARA,0,1,0,California
95116,"SAN JOSE, CA",G,7103,G,133563,G,535610,720,SAN JOSE,CA,SANTA CLARA,0,1,0,California
95117,"SAN JOSE, CA",G,3322,G,58722,G,257995,425,SAN JOSE,CA,SANTA CLARA,0,1,0,California
95118,"SAN JOSE, CA",G,8040,G,80945,G,343538,646,SAN JOSE,CA,SANTA CLARA,0,1,0,California
95119,"SAN JOSE, CA",H,15073,H,535718,H,2117043,395,SAN JOSE,CA,SANTA CLARA,0,1,0,California
95120,"SAN JOSE, CA",G,3838,H,77820,G,320632,571,SAN JOSE,CA,SANTA CLARA,0,1,0,California
95121,"SAN JOSE, CA",G,4199,G,37587,G,163802,486,SAN JOSE,CA,SANTA CLARA,0,1,0,California
95122,"SAN JOSE, CA",G,10496,G,118316,G,478895,966,SAN JOSE,CA,SANTA CLARA,0,1,0,California
95123,"SAN JOSE, CA",G,11348,G,115260,G,472379,1091,SAN JOSE,CA,SANTA CLARA,0,1,0,California
95124,"SAN JOSE, CA",H,10965,H,340547,H,1351649,1032,SAN JOSE,CA,SANTA CLARA,0,1,0,California
95125,"SAN JOSE, CA",G,17202,H,444616,H,1733583,1403,SAN JOSE,CA,SANTA CLARA,0,1,0,California
95126,"SAN JOSE, CA",G,12398,G,216146,G,917555,1074,SAN JOSE,CA,SANTA CLARA,0,1,0,California
95127,"SAN JOSE, CA",G,5115,G,61860,G,255751,678,SAN JOSE,CA,SANTA CLARA,0,1,0,California
95128,"SAN JOSE, CA",H,30472,H,1036254,H,4175743,1202,SAN JOSE,CA,SANTA CLARA,0,1,0,California
95129,"SAN JOSE, CA",G,11357,G,160100,G,662261,983,SAN JOSE,CA,SANTA CLARA,0,1,0,California
95130,"SAN JOSE, CA",G,1039,G,12512,G,50685,156,SAN JOSE,CA,SANTA CLARA,0,1,0,California
95131,"SAN JOSE, CA",G,53034,H,1811989,H,6129047,1587,SAN JOSE,CA,SANTA CLARA,0,1,0,California
95132,"SAN JOSE, CA",G,3591,H,109602,H,294964,428,SAN JOSE,CA,SANTA CLARA,0,1,0,California
95133,"SAN JOSE, CA",H,8301,H,161374,H,689318,458,SAN JOSE,CA,SANTA CLARA,0,1,0,California
95134,"SAN JOSE, CA",G,50098,G,2909125,G,11266614,620,SAN JOSE,CA,SANTA CLARA,1,1,0,California
95135,"SAN JOSE, CA",G,1665,G,21473,G,84725,249,SAN JOSE,CA,SANTA CLARA,0,1,0,California
95136,"SAN JOSE, CA",G,5827,G,91404,G,380865,503,SAN JOSE,CA,SANTA CLARA,0,1,0,California
95138,"SAN JOSE, CA",H,11519,H,443201,H,1490019,368,SAN JOSE,CA,SANTA CLARA,0,1,0,California
95139,"SAN JOSE, CA",H,507,H,4466,G,19104,90,SAN JOSE,CA,SANTA CLARA,0,1,0,California
95140,"MOUNT HAMILTON, CA",J,68,J,749,H,3112,8,MOUNT HAMILTON,CA,SANTA CLARA,0,1,0,California
95148,"SAN JOSE, CA",G,3371,G,34896,G,148134,503,SAN JOSE,CA,SANTA CLARA,0,1,0,California
95202,"STOCKTON, CA",G,5977,H,140237,H,440818,361,STOCKTON,CA,SAN JOAQUIN,0,0,0,California
95203,"STOCKTON, CA",H,4381,H,67332,H,271154,300,STOCKTON,CA,SAN JOAQUIN,0,0,0,California
95204,"STOCKTON, CA",G,7912,H,120998,H,513198,445,STOCKTON,CA,SAN JOAQUIN,0,0,0,California
95205,"STOCKTON, CA",G,9910,G,148236,G,621844,695,STOCKTON,CA,SAN JOAQUIN,0,0,0,California
95206,"STOCKTON, CA",G,17888,G,264471,G,1076657,780,STOCKTON,CA,SAN JOAQUIN,0,0,0,California
95207,"STOCKTON, CA",G,16922,G,165734,G,681964,1205,STOCKTON,CA,SAN JOAQUIN,0,0,0,California
95209,"STOCKTON, CA",H,3485,H,31658,H,140636,342,STOCKTON,CA,SAN JOAQUIN,0,0,0,California
95210,"STOCKTON, CA",G,7535,G,114730,G,467538,470,STOCKTON,CA,SAN JOAQUIN,0,0,0,California
95211,"STOCKTON, CA",J,1885,J,28488,J,111763,15,STOCKTON,CA,SAN JOAQUIN,0,0,0,California
95212,"STOCKTON, CA",H,3711,H,45051,H,183117,353,STOCKTON,CA,SAN JOAQUIN,0,0,0,California
95215,"STOCKTON, CA",G,11847,G,173026,G,782776,446,STOCKTON,CA,SAN JOAQUIN,0,0,0,California
95219,"STOCKTON, CA",G,9951,G,135723,G,537889,564,STOCKTON,CA,SAN JOAQUIN,0,1,0,California
95220,"ACAMPO, CA",G,1102,G,15949,G,73385,149,ACAMPO,CA,SAN JOAQUIN,0,0,0,California
95227,"CLEMENTS, CA",H,148,J,1516,J,6823,26,CLEMENTS,CA,SAN JOAQUIN,0,0,0,California
95230,"FARMINGTON, CA",J,231,J,1997,J,8885,11,FARMINGTON,CA,SAN JOAQUIN,0,NA,NA,California
95231,"FRENCH CAMP, CA",H,5235,H,81158,H,349511,92,FRENCH CAMP,CA,SAN JOAQUIN,0,0,0,California
95236,"LINDEN, CA",H,903,H,12361,H,65009,75,LINDEN,CA,SAN JOAQUIN,0,NA,NA,California
95237,"LOCKEFORD, CA",H,704,H,6610,H,28276,72,LOCKEFORD,CA,SAN JOAQUIN,0,0,0,California
95240,"LODI, CA",G,17954,G,278543,G,1118436,1220,LODI,CA,SAN JOAQUIN,0,0,0,California
95242,"LODI, CA",G,7950,G,87314,G,373176,562,LODI,CA,SAN JOAQUIN,0,0,0,California
95253,"VICTOR, CA",J,17,G,261,G,1426,7,VICTOR,CA,SAN JOAQUIN,0,0,0,California
95258,"WOODBRIDGE, CA",G,334,G,3203,G,13382,52,WOODBRIDGE,CA,SAN JOAQUIN,0,0,0,California
95304,"TRACY, CA",H,21820,H,256151,H,1121450,589,TRACY,CA,SAN JOAQUIN,0,0,0,California
95320,"ESCALON, CA",H,2087,H,25164,H,125738,238,ESCALON,CA,SAN JOAQUIN,0,0,0,California
95330,"LATHROP, CA",G,11344,G,170958,G,687663,519,LATHROP,CA,SAN JOAQUIN,0,0,0,California
95336,"MANTECA, CA",G,13731,G,198212,G,796725,857,MANTECA,CA,SAN JOAQUIN,0,0,0,California
95337,"MANTECA, CA",G,10123,G,127815,G,524983,812,MANTECA,CA,SAN JOAQUIN,0,0,0,California
95361,"OAKDALE, CA",G,7834,G,101636,G,453109,702,OAKDALE,CA,STANISLAUS,0,0,0,California
95366,"RIPON, CA",G,5188,G,73417,G,301846,411,RIPON,CA,SAN JOAQUIN,0,0,0,California
95376,"TRACY, CA",G,16349,G,236814,G,991538,1109,TRACY,CA,SAN JOAQUIN,0,0,0,California
95377,"TRACY, CA",H,14361,G,167495,G,703549,542,TRACY,CA,SAN JOAQUIN,0,1,0,California
95385,"VERNALIS, CA",H,160,H,2436,H,9916,10,VERNALIS,CA,SAN JOAQUIN,0,0,0,California
95391,"TRACY, CA",G,875,G,8239,G,35805,214,TRACY,CA,SAN JOAQUIN,0,1,0,California
95401,"SANTA ROSA, CA",G,16043,G,230890,G,967608,1214,SANTA ROSA,CA,SONOMA,0,1,0,California
95403,"SANTA ROSA, CA",G,27022,H,572485,H,2290509,1539,SANTA ROSA,CA,SONOMA,0,1,0,California
95404,"SANTA ROSA, CA",G,8679,G,131860,G,567493,1212,SANTA ROSA,CA,SONOMA,0,1,0,California
95405,"SANTA ROSA, CA",H,7784,H,125328,H,529395,651,SANTA ROSA,CA,SONOMA,0,1,0,California
95407,"SANTA ROSA, CA",G,17188,G,278836,G,1174277,1059,SANTA ROSA,CA,SONOMA,0,1,0,California
95409,"SANTA ROSA, CA",G,2801,G,33527,G,142473,407,SANTA ROSA,CA,SONOMA,0,1,0,California
95410,"ALBION, CA",G,124,H,2070,H,6388,15,ALBION,CA,MENDOCINO,1,1,0,California
95412,"ANNAPOLIS, CA",J,12,H,188,G,1006,8,ANNAPOLIS,CA,SONOMA,1,1,0,California
95415,"BOONVILLE, CA",H,251,J,2430,H,10757,44,BOONVILLE,CA,MENDOCINO,0,1,0,California
95419,"CAMP MEEKER, CA",H,26,H,206,G,1267,6,CAMP MEEKER,CA,SONOMA,0,1,0,California
95420,"CASPAR, CA",H,228,H,1473,H,6656,10,CASPAR,CA,MENDOCINO,1,1,0,California
95421,"CAZADERO, CA",G,178,G,1577,G,8573,45,CAZADERO,CA,SONOMA,1,1,0,California
95425,"CLOVERDALE, CA",H,2064,G,25852,G,120011,232,CLOVERDALE,CA,SONOMA,0,1,0,California
95427,"COMPTCHE, CA",J,18,J,205,J,987,5,COMPTCHE,CA,MENDOCINO,0,1,0,California
95428,"COVELO, CA",J,281,J,3360,J,14828,29,COVELO,CA,MENDOCINO,0,1,0,California
95430,"DUNCANS MILLS, CA",H,99,H,861,H,3651,18,DUNCANS MILLS,CA,SONOMA,0,1,0,California
95431,"ELDRIDGE, CA",G,58,G,430,G,1991,4,ELDRIDGE,CA,SONOMA,0,1,0,California
95432,"ELK, CA",G,82,H,1288,H,5330,17,ELK,CA,MENDOCINO,1,1,0,California
95436,"FORESTVILLE, CA",G,590,G,6381,G,31425,106,FORESTVILLE,CA,SONOMA,0,1,0,California
95437,"FORT BRAGG, CA",G,4362,G,41030,G,183436,503,FORT BRAGG,CA,MENDOCINO,1,1,0,California
95439,"FULTON, CA",G,152,H,1968,G,9260,25,FULTON,CA,SONOMA,0,1,0,California
95441,"GEYSERVILLE, CA",G,1515,G,25720,G,104281,77,GEYSERVILLE,CA,SONOMA,0,1,0,California
95442,"GLEN ELLEN, CA",G,745,G,7870,H,36023,87,GLEN ELLEN,CA,SONOMA,0,1,0,California
95444,"GRATON, CA",G,224,G,2761,G,13041,25,GRATON,CA,SONOMA,0,1,0,California
95445,"GUALALA, CA",G,650,G,6732,G,29583,106,GUALALA,CA,MENDOCINO,1,1,0,California
95446,"GUERNEVILLE, CA",G,1055,G,13590,G,60277,104,GUERNEVILLE,CA,SONOMA,0,1,0,California
95448,"HEALDSBURG, CA",G,8991,H,167334,H,685551,764,HEALDSBURG,CA,SONOMA,0,1,0,California
95449,"HOPLAND, CA",H,805,H,17326,H,61214,36,HOPLAND,CA,MENDOCINO,0,1,0,California
95450,"JENNER, CA",J,171,H,2051,H,8219,18,JENNER,CA,SONOMA,1,1,0,California
95452,"KENWOOD, CA",G,522,G,8324,G,34029,52,KENWOOD,CA,SONOMA,0,1,0,California
95454,"LAYTONVILLE, CA",H,386,H,6960,H,25863,41,LAYTONVILLE,CA,MENDOCINO,0,1,0,California
95456,"LITTLE RIVER, CA",G,201,G,1432,G,7191,19,LITTLE RIVER,CA,MENDOCINO,1,1,0,California
95459,"MANCHESTER, CA",H,54,H,451,H,2493,11,MANCHESTER,CA,MENDOCINO,1,1,0,California
95460,"MENDOCINO, CA",H,1095,J,17402,H,66634,122,MENDOCINO,CA,MENDOCINO,1,1,0,California
95462,"MONTE RIO, CA",H,207,J,2041,J,11509,29,MONTE RIO,CA,SONOMA,0,1,0,California
95463,"NAVARRO, CA",J,34,J,628,J,2601,3,NAVARRO,CA,MENDOCINO,0,1,0,California
95465,"OCCIDENTAL, CA",H,516,H,4748,H,22443,59,OCCIDENTAL,CA,SONOMA,1,1,0,California
95466,"PHILO, CA",H,388,G,4397,G,21137,38,PHILO,CA,MENDOCINO,0,1,0,California
95468,"POINT ARENA, CA",H,213,G,1602,H,7812,51,POINT ARENA,CA,MENDOCINO,1,1,0,California
95469,"POTTER VALLEY, CA",H,89,H,939,H,3830,20,POTTER VALLEY,CA,MENDOCINO,0,NA,NA,California
95470,"REDWOOD VALLEY, CA",G,861,G,8460,G,43059,111,REDWOOD VALLEY,CA,MENDOCINO,0,1,0,California
95472,"SEBASTOPOL, CA",G,8016,G,114057,G,470498,975,SEBASTOPOL,CA,SONOMA,0,1,0,California
95476,"SONOMA, CA",G,13154,G,225424,G,905796,1218,SONOMA,CA,SONOMA,1,0,0,California
95482,"UKIAH, CA",G,10529,G,141302,G,592773,946,UKIAH,CA,MENDOCINO,0,1,0,California
95488,"WESTPORT, CA",J,50,J,582,J,3138,9,WESTPORT,CA,MENDOCINO,1,1,0,California
95490,"WILLITS, CA",G,2733,G,30721,G,137495,281,WILLITS,CA,MENDOCINO,0,1,0,California
95492,"WINDSOR, CA",G,7163,G,94353,G,404401,660,WINDSOR,CA,SONOMA,0,1,0,California
95494,"YORKVILLE, CA",J,12,J,104,J,428,5,YORKVILLE,CA,MENDOCINO,0,1,0,California
95497,"THE SEA RANCH, CA",J,113,J,1538,J,6576,10,THE SEA RANCH,CA,SONOMA,1,1,0,California
95501,"EUREKA, CA",G,13429,H,178993,G,714333,1004,EUREKA,CA,HUMBOLDT,1,1,0,California
95503,"EUREKA, CA",G,2879,G,34493,G,145812,335,EUREKA,CA,HUMBOLDT,1,1,0,California
95511,"ALDERPOINT, CA",G,3,J,27,J,209,3,ALDERPOINT,CA,HUMBOLDT,0,1,0,California
95519,"MCKINLEYVILLE, CA",G,2176,G,23404,G,100065,272,MCKINLEYVILLE,CA,HUMBOLDT,1,1,0,California
95521,"ARCATA, CA",G,7881,G,83537,G,352279,613,ARCATA,CA,HUMBOLDT,1,1,0,California
95524,"BAYSIDE, CA",G,206,G,3054,G,14768,25,BAYSIDE,CA,HUMBOLDT,1,1,0,California
95525,"BLUE LAKE, CA",J,420,J,4169,H,16494,34,BLUE LAKE,CA,HUMBOLDT,0,1,0,California
95526,"BRIDGEVILLE, CA",G,22,G,187,H,1212,10,BRIDGEVILLE,CA,HUMBOLDT,0,1,0,California
95528,"CARLOTTA, CA",H,25,J,230,J,1309,9,CARLOTTA,CA,HUMBOLDT,0,1,0,California
95531,"CRESCENT CITY, CA",G,4045,G,43355,G,183080,384,CRESCENT CITY,CA,DEL NORTE,1,1,0,California
95536,"FERNDALE, CA",G,551,G,4614,G,22573,82,FERNDALE,CA,HUMBOLDT,1,1,0,California
95537,"FIELDS LANDING, CA",J,19,H,255,H,954,4,FIELDS LANDING,CA,HUMBOLDT,1,1,0,California
95540,"FORTUNA, CA",G,2796,G,31249,G,132624,323,FORTUNA,CA,HUMBOLDT,0,1,0,California
95542,"GARBERVILLE, CA",H,552,H,5651,H,25439,76,GARBERVILLE,CA,HUMBOLDT,0,1,0,California
95543,"GASQUET, CA",H,28,G,223,G,806,8,GASQUET,CA,DEL NORTE,0,1,0,California
95546,"HOOPA, CA",J,77,H,1174,H,5221,14,HOOPA,CA,HUMBOLDT,0,1,0,California
95547,"HYDESVILLE, CA",H,103,H,913,H,4181,13,HYDESVILLE,CA,HUMBOLDT,0,1,0,California
95548,"KLAMATH, CA",J,136,J,1163,J,5971,14,KLAMATH,CA,DEL NORTE,1,1,0,California
95549,"KNEELAND, CA",J,111,J,2006,J,7456,11,KNEELAND,CA,HUMBOLDT,0,1,0,California
95550,"KORBEL, CA",G,237,H,5840,G,19421,5,KORBEL,CA,HUMBOLDT,0,1,0,California
95551,"LOLETA, CA",J,356,J,4450,J,19296,16,LOLETA,CA,HUMBOLDT,1,1,0,California
95552,"MAD RIVER, CA",J,53,J,1034,J,3697,3,MAD RIVER,CA,TRINITY,0,1,0,California
95553,"MIRANDA, CA",J,66,J,507,J,2342,13,MIRANDA,CA,HUMBOLDT,0,1,0,California
95554,"MYERS FLAT, CA",J,19,J,117,H,694,5,MYERS FLAT,CA,HUMBOLDT,0,1,0,California
95555,"ORICK, CA",H,36,H,717,H,2265,10,ORICK,CA,HUMBOLDT,1,1,0,California
95556,"ORLEANS, CA",J,43,H,410,H,2192,6,ORLEANS,CA,HUMBOLDT,0,1,0,California
95558,"PETROLIA, CA",H,44,G,412,G,2136,9,PETROLIA,CA,HUMBOLDT,1,1,0,California
95560,"REDWAY, CA",H,463,H,4484,H,20167,58,REDWAY,CA,HUMBOLDT,0,1,0,California
95562,"RIO DELL, CA",G,147,G,1229,H,5306,37,RIO DELL,CA,HUMBOLDT,0,1,0,California
95564,"SAMOA, CA",H,244,H,3038,H,12278,16,SAMOA,CA,HUMBOLDT,1,1,0,California
95565,"SCOTIA, CA",G,183,H,2627,H,11925,14,SCOTIA,CA,HUMBOLDT,0,1,0,California
95567,"SMITH RIVER, CA",J,231,H,3092,H,12653,20,SMITH RIVER,CA,DEL NORTE,1,1,0,California
95569,"REDCREST, CA",H,31,H,274,H,1398,4,REDCREST,CA,HUMBOLDT,0,1,0,California
95570,"TRINIDAD, CA",G,461,H,3901,H,18033,48,TRINIDAD,CA,HUMBOLDT,1,1,0,California
95573,"WILLOW CREEK, CA",G,255,H,3293,G,13061,41,WILLOW CREEK,CA,HUMBOLDT,0,1,0,California
95585,"LEGGETT, CA",G,64,G,342,G,2315,9,LEGGETT,CA,MENDOCINO,0,1,0,California
95587,"PIERCY, CA",J,15,G,113,G,572,4,PIERCY,CA,MENDOCINO,0,1,0,California
95589,"WHITETHORN, CA",G,109,G,713,H,4616,31,WHITETHORN,CA,HUMBOLDT,1,1,0,California
95605,"WEST SACRAMENTO, CA",G,7594,G,119512,G,517143,297,WEST SACRAMENTO,CA,YOLO,0,0,0,California
95606,"BROOKS, CA",J,2143,J,32454,J,138643,6,BROOKS,CA,YOLO,0,0,0,California
95607,"CAPAY, CA",G,63,G,546,G,2358,3,CAPAY,CA,YOLO,0,0,0,California
95608,"CARMICHAEL, CA",G,13099,H,194439,H,806281,1136,CARMICHAEL,CA,SACRAMENTO,0,0,0,California
95610,"CITRUS HEIGHTS, CA",G,10833,G,99558,G,409757,970,CITRUS HEIGHTS,CA,SACRAMENTO,0,0,0,California
95612,"CLARKSBURG, CA",H,377,H,2870,H,12654,26,CLARKSBURG,CA,YOLO,0,1,0,California
95615,"COURTLAND, CA",G,64,G,740,G,2780,15,COURTLAND,CA,SACRAMENTO,0,0,0,California
95616,"DAVIS, CA",G,11334,H,125510,H,544530,998,DAVIS,CA,YOLO,0,1,0,California
95618,"DAVIS, CA",G,5405,G,98817,G,401913,429,DAVIS,CA,YOLO,0,1,0,California
95620,"DIXON, CA",G,6729,H,89361,H,379215,411,DIXON,CA,SOLANO,0,1,0,California
95621,"CITRUS HEIGHTS, CA",G,4313,G,39914,G,164404,446,CITRUS HEIGHTS,CA,SACRAMENTO,0,0,0,California
95624,"ELK GROVE, CA",G,14344,G,150594,G,632578,1376,ELK GROVE,CA,SACRAMENTO,0,0,0,California
95625,"ELMIRA, CA",H,109,H,928,H,4357,9,ELMIRA,CA,SOLANO,0,1,0,California
95626,"ELVERTA, CA",H,273,H,3954,H,19133,62,ELVERTA,CA,SACRAMENTO,0,NA,NA,California
95627,"ESPARTO, CA",H,357,H,4523,H,19425,38,ESPARTO,CA,YOLO,0,0,0,California
95628,"FAIR OAKS, CA",G,7296,G,75314,G,326154,943,FAIR OAKS,CA,SACRAMENTO,0,0,0,California
95630,"FOLSOM, CA",G,40570,H,911830,H,3374006,2548,FOLSOM,CA,SACRAMENTO,0,NA,NA,California
95632,"GALT, CA",G,4116,G,47471,G,195264,458,GALT,CA,SACRAMENTO,0,0,0,California
95638,"HERALD, CA",G,150,G,2398,G,9904,36,HERALD,CA,SACRAMENTO,0,0,0,California
95640,"IONE, CA",G,964,H,14744,H,62603,109,IONE,CA,AMADOR,0,NA,NA,California
95641,"ISLETON, CA",H,446,J,17071,H,49160,43,ISLETON,CA,SACRAMENTO,0,0,0,California
95645,"KNIGHTS LANDING, CA",J,99,J,1147,J,5339,22,KNIGHTS LANDING,CA,YOLO,0,NA,NA,California
95652,"MCCLELLAN, CA",G,8141,G,130422,G,568640,136,MCCLELLAN,CA,SACRAMENTO,0,0,0,California
95653,"MADISON, CA",J,78,J,1598,J,6723,8,MADISON,CA,YOLO,0,0,0,California
95655,"MATHER, CA",H,4381,H,102723,H,438454,80,MATHER,CA,SACRAMENTO,0,0,0,California
95660,"NORTH HIGHLANDS, CA",G,7028,G,85847,G,367101,592,NORTH HIGHLANDS,CA,SACRAMENTO,0,0,0,California
95662,"ORANGEVALE, CA",G,4470,G,46935,G,198132,619,ORANGEVALE,CA,SACRAMENTO,0,0,0,California
95670,"RANCHO CORDOVA, CA",G,34817,G,932556,G,3316564,1389,RANCHO CORDOVA,CA,SACRAMENTO,0,0,0,California
95671,"REPRESA, CA",J,29,J,480,J,1857,3,REPRESA,CA,SACRAMENTO,0,0,0,California
95673,"RIO LINDA, CA",H,2263,H,30881,G,157583,263,RIO LINDA,CA,SACRAMENTO,0,0,0,California
95678,"ROSEVILLE, CA",G,36431,G,631360,G,2424797,2048,ROSEVILLE,CA,PLACER,0,NA,NA,California
95679,"RUMSEY, CA",J,37,J,370,J,1673,5,RUMSEY,CA,YOLO,0,0,0,California
95683,"SLOUGHHOUSE, CA",G,899,G,13378,G,49486,122,SLOUGHHOUSE,CA,SACRAMENTO,0,0,0,California
95686,"THORNTON, CA",J,246,J,4613,J,18202,13,THORNTON,CA,SAN JOAQUIN,0,0,0,California
95687,"VACAVILLE, CA",G,12523,G,136129,G,573306,925,VACAVILLE,CA,SOLANO,0,1,0,California
95688,"VACAVILLE, CA",G,18660,H,306690,H,1232007,1077,VACAVILLE,CA,SOLANO,0,1,0,California
95690,"WALNUT GROVE, CA",H,298,H,3279,H,16198,43,WALNUT GROVE,CA,SACRAMENTO,0,0,0,California
95691,"WEST SACRAMENTO, CA",G,21557,G,346610,G,1352934,1133,WEST SACRAMENTO,CA,YOLO,0,0,0,California
95693,"WILTON, CA",H,710,H,7407,H,33719,128,WILTON,CA,SACRAMENTO,0,0,0,California
95694,"WINTERS, CA",H,1797,H,22577,H,103105,168,WINTERS,CA,YOLO,0,1,0,California
95695,"WOODLAND, CA",G,9651,G,136887,H,655953,775,WOODLAND,CA,YOLO,0,0,0,California
95697,"YOLO, CA",J,745,J,36788,J,115281,5,YOLO,CA,YOLO,0,0,0,California
95698,"ZAMORA, CA",H,88,H,1363,H,4409,8,ZAMORA,CA,YOLO,0,0,0,California
95742,"RANCHO CORDOVA, CA",G,15679,G,244639,G,1054588,962,RANCHO CORDOVA,CA,SACRAMENTO,0,0,0,California
95757,"ELK GROVE, CA",H,7435,H,95580,H,388234,539,ELK GROVE,CA,SACRAMENTO,0,0,0,California
95758,"ELK GROVE, CA",H,21861,J,471794,J,2506737,1116,ELK GROVE,CA,SACRAMENTO,0,0,0,California
95776,"WOODLAND, CA",G,12654,G,181046,G,783879,578,WOODLAND,CA,YOLO,0,0,0,California
95811,"SACRAMENTO, CA",G,16766,G,261266,G,1118442,1015,SACRAMENTO,CA,SACRAMENTO,0,0,0,California
95814,"SACRAMENTO, CA",G,27245,G,685521,G,2696462,1685,SACRAMENTO,CA,SACRAMENTO,0,0,0,California
95815,"SACRAMENTO, CA",G,21756,G,277109,G,1115710,1108,SACRAMENTO,CA,SACRAMENTO,0,0,0,California
95816,"SACRAMENTO, CA",H,16329,H,295802,H,1295230,1302,SACRAMENTO,CA,SACRAMENTO,0,0,0,California
95817,"SACRAMENTO, CA",H,15409,H,416076,H,1747170,224,SACRAMENTO,CA,SACRAMENTO,0,0,0,California
95818,"SACRAMENTO, CA",G,5794,G,66995,G,291305,558,SACRAMENTO,CA,SACRAMENTO,0,0,0,California
95819,"SACRAMENTO, CA",G,7936,H,101992,H,432817,509,SACRAMENTO,CA,SACRAMENTO,0,0,0,California
95820,"SACRAMENTO, CA",G,6498,H,129918,H,452102,480,SACRAMENTO,CA,SACRAMENTO,0,0,0,California
95821,"SACRAMENTO, CA",G,9351,G,128029,G,538916,774,SACRAMENTO,CA,SACRAMENTO,0,0,0,California
95822,"SACRAMENTO, CA",G,5958,G,60110,G,261525,621,SACRAMENTO,CA,SACRAMENTO,0,0,0,California
95823,"SACRAMENTO, CA",H,18749,H,351777,H,1425328,1108,SACRAMENTO,CA,SACRAMENTO,0,0,0,California
95824,"SACRAMENTO, CA",H,4968,G,52217,G,209989,326,SACRAMENTO,CA,SACRAMENTO,0,0,0,California
95825,"SACRAMENTO, CA",G,30508,H,536697,H,2132442,1886,SACRAMENTO,CA,SACRAMENTO,0,0,0,California
95826,"SACRAMENTO, CA",G,18300,G,309192,G,1246646,912,SACRAMENTO,CA,SACRAMENTO,0,0,0,California
95827,"SACRAMENTO, CA",G,12961,G,198967,G,875787,705,SACRAMENTO,CA,SACRAMENTO,0,0,0,California
95828,"SACRAMENTO, CA",H,18645,H,309762,H,1291061,877,SACRAMENTO,CA,SACRAMENTO,0,0,0,California
95829,"SACRAMENTO, CA",G,4112,G,48031,G,197520,386,SACRAMENTO,CA,SACRAMENTO,0,0,0,California
95830,"SACRAMENTO, CA",H,194,H,5023,H,20679,10,SACRAMENTO,CA,SACRAMENTO,0,0,0,California
95831,"SACRAMENTO, CA",G,5181,G,56813,G,236522,549,SACRAMENTO,CA,SACRAMENTO,0,0,0,California
95832,"SACRAMENTO, CA",G,2535,G,23073,G,90442,132,SACRAMENTO,CA,SACRAMENTO,0,0,0,California
95833,"SACRAMENTO, CA",G,12173,H,356269,H,1395641,696,SACRAMENTO,CA,SACRAMENTO,0,0,0,California
95834,"SACRAMENTO, CA",G,26787,G,415334,G,1736541,1315,SACRAMENTO,CA,SACRAMENTO,0,0,0,California
95835,"SACRAMENTO, CA",H,6273,H,51060,H,233667,519,SACRAMENTO,CA,SACRAMENTO,0,0,0,California
95837,"SACRAMENTO, CA",H,6430,H,85362,H,372982,76,SACRAMENTO,CA,SACRAMENTO,0,0,0,California
95838,"SACRAMENTO, CA",G,8409,G,135159,G,554734,467,SACRAMENTO,CA,SACRAMENTO,0,0,0,California
95841,"SACRAMENTO, CA",G,8071,G,88027,G,360812,573,SACRAMENTO,CA,SACRAMENTO,0,0,0,California
95842,"SACRAMENTO, CA",G,3560,G,35789,G,144694,366,SACRAMENTO,CA,SACRAMENTO,0,0,0,California
95843,"ANTELOPE, CA",G,3335,G,31990,G,135004,524,ANTELOPE,CA,SACRAMENTO,0,0,0,California
95864,"SACRAMENTO, CA",G,3411,G,56793,G,249769,441,SACRAMENTO,CA,SACRAMENTO,0,0,0,California
95937,"DUNNIGAN, CA",G,314,G,3668,G,12525,26,DUNNIGAN,CA,YOLO,0,0,0,California
97009,"BORING, OR",G,2531,G,27204,G,121545,270,BORING,OR,CLACKAMAS,0,NA,NA,Oregon
97014,"CASCADE LOCKS, OR",G,304,H,3984,H,16183,46,CASCADE LOCKS,OR,HOOD RIVER,1,NA,NA,Oregon
97016,"CLATSKANIE, OR",H,1716,H,32671,H,137746,105,CLATSKANIE,OR,COLUMBIA,1,1,0,Oregon
97018,"COLUMBIA CITY, OR",G,103,G,510,G,2154,19,COLUMBIA CITY,OR,COLUMBIA,1,1,0,Oregon
97019,"CORBETT, OR",H,181,G,1912,G,9810,53,CORBETT,OR,MULTNOMAH,1,NA,NA,Oregon
97024,"FAIRVIEW, OR",H,2977,H,45230,H,182918,185,FAIRVIEW,OR,MULTNOMAH,1,1,0,Oregon
97030,"GRESHAM, OR",G,15726,H,200096,H,777821,1156,GRESHAM,OR,MULTNOMAH,0,1,0,Oregon
97034,"LAKE OSWEGO, OR",G,5041,G,69220,G,288296,742,LAKE OSWEGO,OR,CLACKAMAS,0,NA,NA,Oregon
97035,"LAKE OSWEGO, OR",G,20656,G,553365,G,2049169,1528,LAKE OSWEGO,OR,CLACKAMAS,0,NA,NA,Oregon
97048,"RAINIER, OR",G,1083,G,14563,G,59952,104,RAINIER,OR,COLUMBIA,1,1,0,Oregon
97051,"SAINT HELENS, OR",G,3920,G,42433,G,176919,355,SAINT HELENS,OR,COLUMBIA,1,1,0,Oregon
97053,"WARREN, OR",H,365,G,3821,G,16734,57,WARREN,OR,COLUMBIA,1,1,0,Oregon
97054,"DEER ISLAND, OR",J,77,H,1074,H,4880,22,DEER ISLAND,OR,COLUMBIA,1,1,0,Oregon
97056,"SCAPPOOSE, OR",G,2446,G,27291,G,120270,277,SCAPPOOSE,OR,COLUMBIA,1,1,0,Oregon
97060,"TROUTDALE, OR",H,13002,H,133721,H,575367,549,TROUTDALE,OR,MULTNOMAH,1,1,0,Oregon
97064,"VERNONIA, OR",G,488,H,4856,H,21129,82,VERNONIA,OR,COLUMBIA,0,1,0,Oregon
97080,"GRESHAM, OR",G,4618,G,44246,G,194392,578,GRESHAM,OR,MULTNOMAH,0,NA,NA,Oregon
97102,"ARCH CAPE, OR",G,29,G,314,G,1206,8,ARCH CAPE,OR,CLATSOP,1,1,0,Oregon
97103,"ASTORIA, OR",G,5879,G,64748,G,292304,608,ASTORIA,OR,CLATSOP,1,1,0,Oregon
97107,"BAY CITY, OR",J,759,J,9223,J,40322,26,BAY CITY,OR,TILLAMOOK,1,1,0,Oregon
97108,"BEAVER, OR",J,49,H,553,G,2550,7,BEAVER,OR,TILLAMOOK,0,1,0,Oregon
97110,"CANNON BEACH, OR",G,1379,H,11265,H,54585,150,CANNON BEACH,OR,CLATSOP,1,1,0,Oregon
97112,"CLOVERDALE, OR",H,233,H,2741,H,12387,38,CLOVERDALE,OR,TILLAMOOK,1,1,0,Oregon
97118,"GARIBALDI, OR",G,353,H,4876,H,19236,45,GARIBALDI,OR,TILLAMOOK,1,1,0,Oregon
97121,"HAMMOND, OR",G,134,G,916,G,4445,28,HAMMOND,OR,CLATSOP,1,1,0,Oregon
97122,"HEBO, OR",G,31,G,256,G,1158,12,HEBO,OR,TILLAMOOK,0,1,0,Oregon
97124,"HILLSBORO, OR",H,62236,H,2096601,H,7397861,1539,HILLSBORO,OR,WASHINGTON,0,1,0,Oregon
97130,"MANZANITA, OR",G,293,G,2341,G,11567,60,MANZANITA,OR,TILLAMOOK,1,1,0,Oregon
97131,"NEHALEM, OR",G,231,G,2029,G,9695,66,NEHALEM,OR,TILLAMOOK,1,1,0,Oregon
97133,"NORTH PLAINS, OR",H,1074,G,16060,G,70806,121,NORTH PLAINS,OR,WASHINGTON,0,1,0,Oregon
97134,"OCEANSIDE, OR",H,33,G,169,G,763,8,OCEANSIDE,OR,TILLAMOOK,1,1,0,Oregon
97135,"PACIFIC CITY, OR",G,698,G,6125,G,27268,52,PACIFIC CITY,OR,TILLAMOOK,1,1,0,Oregon
97136,"ROCKAWAY BEACH, OR",G,295,G,1816,G,9040,49,ROCKAWAY BEACH,OR,TILLAMOOK,1,1,0,Oregon
97138,"SEASIDE, OR",G,4637,G,41932,G,185487,528,SEASIDE,OR,CLATSOP,1,1,0,Oregon
97141,"TILLAMOOK, OR",G,4895,G,74116,G,277571,364,TILLAMOOK,OR,TILLAMOOK,1,1,0,Oregon
97145,"TOLOVANA PARK, OR",H,192,H,1198,H,4685,10,TOLOVANA PARK,OR,CLATSOP,1,1,0,Oregon
97146,"WARRENTON, OR",G,3194,G,36319,G,152322,248,WARRENTON,OR,CLATSOP,1,1,0,Oregon
97147,"WHEELER, OR",H,161,G,1685,G,6973,16,WHEELER,OR,TILLAMOOK,1,1,0,Oregon
97149,"NESKOWIN, OR",H,118,G,849,G,4311,20,NESKOWIN,OR,TILLAMOOK,1,1,0,Oregon
97201,"PORTLAND, OR",G,18928,G,500259,G,1827308,796,PORTLAND,OR,MULTNOMAH,0,1,0,Oregon
97202,"PORTLAND, OR",G,16283,G,226957,G,906141,1509,PORTLAND,OR,MULTNOMAH,0,NA,NA,Oregon
97203,"PORTLAND, OR",H,14138,H,202073,H,778264,677,PORTLAND,OR,MULTNOMAH,1,1,0,Oregon
97204,"PORTLAND, OR",G,29411,G,904354,G,3236331,1075,PORTLAND,OR,MULTNOMAH,0,1,0,Oregon
97205,"PORTLAND, OR",G,18676,G,391701,G,1671771,994,PORTLAND,OR,MULTNOMAH,0,1,0,Oregon
97206,"PORTLAND, OR",G,8769,G,122863,G,479057,1041,PORTLAND,OR,MULTNOMAH,0,NA,NA,Oregon
97208,"PORTLAND, OR",J,625,J,6031,J,21696,22,PORTLAND,OR,MULTNOMAH,0,1,0,Oregon
97209,"PORTLAND, OR",G,27725,G,626762,G,2352831,1469,PORTLAND,OR,MULTNOMAH,0,1,0,Oregon
97210,"PORTLAND, OR",G,21451,G,433723,G,1703515,1053,PORTLAND,OR,MULTNOMAH,0,1,0,Oregon
97211,"PORTLAND, OR",G,13495,G,186689,G,801324,1103,PORTLAND,OR,MULTNOMAH,1,1,0,Oregon
97212,"PORTLAND, OR",G,5932,G,89898,G,370522,735,PORTLAND,OR,MULTNOMAH,0,1,0,Oregon
97213,"PORTLAND, OR",H,15755,H,233352,H,977959,910,PORTLAND,OR,MULTNOMAH,0,1,0,Oregon
97214,"PORTLAND, OR",G,24269,G,364284,G,1481864,1887,PORTLAND,OR,MULTNOMAH,0,1,0,Oregon
97215,"PORTLAND, OR",G,3363,G,33135,G,141598,508,PORTLAND,OR,MULTNOMAH,0,1,0,Oregon
97216,"PORTLAND, OR",H,8232,H,118273,H,525558,489,PORTLAND,OR,MULTNOMAH,0,1,0,Oregon
97217,"PORTLAND, OR",G,27494,G,449033,G,1701295,1238,PORTLAND,OR,MULTNOMAH,1,1,0,Oregon
97218,"PORTLAND, OR",G,13604,G,185903,G,728588,558,PORTLAND,OR,MULTNOMAH,1,1,0,Oregon
97219,"PORTLAND, OR",G,10302,G,117740,G,488707,1032,PORTLAND,OR,MULTNOMAH,0,NA,NA,Oregon
97220,"PORTLAND, OR",G,20812,G,287247,G,1155594,1148,PORTLAND,OR,MULTNOMAH,1,1,0,Oregon
97221,"PORTLAND, OR",G,3194,G,37874,G,158401,332,PORTLAND,OR,MULTNOMAH,0,1,0,Oregon
97222,"PORTLAND, OR",G,16853,G,303478,G,1102084,1027,PORTLAND,OR,CLACKAMAS,0,NA,NA,Oregon
97225,"PORTLAND, OR",G,20257,G,367973,G,1507417,1003,PORTLAND,OR,WASHINGTON,0,1,0,Oregon
97227,"PORTLAND, OR",H,14838,H,349121,H,1461958,499,PORTLAND,OR,MULTNOMAH,0,1,0,Oregon
97229,"PORTLAND, OR",G,9475,H,171889,H,613710,984,PORTLAND,OR,WASHINGTON,0,1,0,Oregon
97230,"PORTLAND, OR",G,25930,G,407603,G,1653221,1242,PORTLAND,OR,MULTNOMAH,1,1,0,Oregon
97231,"PORTLAND, OR",G,717,G,11665,H,46971,99,PORTLAND,OR,MULTNOMAH,1,1,0,Oregon
97232,"PORTLAND, OR",G,20104,G,328924,G,1381400,1275,PORTLAND,OR,MULTNOMAH,0,1,0,Oregon
97233,"PORTLAND, OR",G,5544,G,60879,G,260151,672,PORTLAND,OR,MULTNOMAH,0,1,0,Oregon
97236,"PORTLAND, OR",G,4437,G,39095,G,167170,618,PORTLAND,OR,MULTNOMAH,0,1,0,Oregon
97239,"PORTLAND, OR",H,22867,H,562407,H,2187292,710,PORTLAND,OR,MULTNOMAH,0,1,0,Oregon
97266,"PORTLAND, OR",G,10594,G,99016,G,407585,917,PORTLAND,OR,MULTNOMAH,0,1,0,Oregon
97324,"ALSEA, OR",H,58,H,530,H,2734,22,ALSEA,OR,BENTON,0,NA,NA,Oregon
97326,"BLODGETT, OR",J,37,G,368,H,2111,16,BLODGETT,OR,BENTON,0,NA,NA,Oregon
97341,"DEPOE BAY, OR",H,598,H,4945,H,21625,79,DEPOE BAY,OR,LINCOLN,1,1,0,Oregon
97343,"EDDYVILLE, OR",J,81,J,825,J,3204,6,EDDYVILLE,OR,LINCOLN,0,1,0,Oregon
97347,"GRAND RONDE, OR",J,1079,J,17856,J,65966,20,GRAND RONDE,OR,POLK,0,NA,NA,Oregon
97357,"LOGSDEN, OR",G,22,G,178,G,734,6,LOGSDEN,OR,LINCOLN,0,1,0,Oregon
97365,"NEWPORT, OR",G,5818,G,59829,G,260717,592,NEWPORT,OR,LINCOLN,1,1,0,Oregon
97366,"SOUTH BEACH, OR",G,331,G,3581,G,15703,50,SOUTH BEACH,OR,LINCOLN,1,1,0,Oregon
97367,"LINCOLN CITY, OR",G,4867,G,48051,G,205800,449,LINCOLN CITY,OR,LINCOLN,1,1,0,Oregon
97368,"OTIS, OR",G,291,H,2772,H,12727,58,OTIS,OR,LINCOLN,1,1,0,Oregon
97369,"OTTER ROCK, OR",G,67,H,463,H,2151,7,OTTER ROCK,OR,LINCOLN,1,1,0,Oregon
97376,"SEAL ROCK, OR",H,62,H,433,G,2072,14,SEAL ROCK,OR,LINCOLN,1,1,0,Oregon
97380,"SILETZ, OR",J,160,J,1684,H,7465,26,SILETZ,OR,LINCOLN,0,1,0,Oregon
97388,"GLENEDEN BEACH, OR",H,282,J,2630,J,10868,36,GLENEDEN BEACH,OR,LINCOLN,1,1,0,Oregon
97390,"TIDEWATER, OR",J,51,H,712,H,3393,9,TIDEWATER,OR,LINCOLN,0,1,0,Oregon
97391,"TOLEDO, OR",G,1217,H,18231,H,80142,105,TOLEDO,OR,LINCOLN,1,1,0,Oregon
97394,"WALDPORT, OR",G,476,G,3623,G,16137,107,WALDPORT,OR,LINCOLN,1,1,0,Oregon
97401,"EUGENE, OR",G,32540,G,398459,G,1653538,2432,EUGENE,OR,LANE,0,1,0,Oregon
97402,"EUGENE, OR",G,28726,G,378833,G,1541549,1919,EUGENE,OR,LANE,0,1,0,Oregon
97403,"EUGENE, OR",G,3258,G,36272,G,163479,239,EUGENE,OR,LANE,0,1,0,Oregon
97404,"EUGENE, OR",G,4072,G,37863,G,157837,544,EUGENE,OR,LANE,0,1,0,Oregon
97405,"EUGENE, OR",G,7962,G,82526,G,356893,894,EUGENE,OR,LANE,0,1,0,Oregon
97406,"AGNESS, OR",J,15,H,122,G,1215,7,AGNESS,OR,CURRY,0,1,0,Oregon
97408,"EUGENE, OR",G,7628,G,112969,G,462694,405,EUGENE,OR,LANE,0,1,0,Oregon
97410,"AZALEA, OR",H,31,G,246,G,1377,9,AZALEA,OR,DOUGLAS,0,1,0,Oregon
97411,"BANDON, OR",G,2458,G,24955,G,103417,227,BANDON,OR,COOS,1,1,0,Oregon
97412,"BLACHLY, OR",H,40,H,492,H,2157,9,BLACHLY,OR,LANE,0,1,0,Oregon
97413,"BLUE RIVER, OR",H,137,H,835,H,4461,34,BLUE RIVER,OR,LANE,0,1,0,Oregon
97414,"BROADBENT, OR",J,36,J,309,J,1771,5,BROADBENT,OR,COOS,0,1,0,Oregon
97415,"BROOKINGS, OR",G,3636,G,40131,G,168297,428,BROOKINGS,OR,CURRY,1,1,0,Oregon
97416,"CAMAS VALLEY, OR",G,99,H,1301,H,5653,14,CAMAS VALLEY,OR,DOUGLAS,0,1,0,Oregon
97417,"CANYONVILLE, OR",H,1085,H,10421,H,44588,55,CANYONVILLE,OR,DOUGLAS,0,1,0,Oregon
97419,"CHESHIRE, OR",H,73,H,715,H,2880,20,CHESHIRE,OR,LANE,0,1,0,Oregon
97420,"COOS BAY, OR",G,10930,G,121387,G,507585,733,COOS BAY,OR,COOS,1,1,0,Oregon
97423,"COQUILLE, OR",G,1455,G,20519,G,83092,143,COQUILLE,OR,COOS,1,1,0,Oregon
97424,"COTTAGE GROVE, OR",G,3505,G,37709,G,155228,417,COTTAGE GROVE,OR,LANE,0,1,0,Oregon
97426,"CRESWELL, OR",G,1474,G,14200,G,60736,219,CRESWELL,OR,LANE,0,1,0,Oregon
97429,"DAYS CREEK, OR",J,38,H,320,H,1567,9,DAYS CREEK,OR,DOUGLAS,0,1,0,Oregon
97430,"DEADWOOD, OR",J,13,J,54,J,245,8,DEADWOOD,OR,LANE,0,1,0,Oregon
97431,"DEXTER, OR",H,161,G,1329,H,6722,34,DEXTER,OR,LANE,0,1,0,Oregon
97432,"DILLARD, OR",J,848,J,15873,J,53825,12,DILLARD,OR,DOUGLAS,0,1,0,Oregon
97434,"DORENA, OR",J,38,H,279,H,1254,8,DORENA,OR,LANE,0,1,0,Oregon
97435,"DRAIN, OR",G,401,G,4625,G,18628,54,DRAIN,OR,DOUGLAS,0,1,0,Oregon
97436,"ELKTON, OR",G,127,H,1344,H,4351,26,ELKTON,OR,DOUGLAS,0,1,0,Oregon
97437,"ELMIRA, OR",H,229,G,2343,G,10289,52,ELMIRA,OR,LANE,0,1,0,Oregon
97438,"FALL CREEK, OR",H,389,G,4159,G,17804,18,FALL CREEK,OR,LANE,0,1,0,Oregon
97439,"FLORENCE, OR",H,4263,H,47844,H,201095,427,FLORENCE,OR,LANE,1,1,0,Oregon
97441,"GARDINER, OR",J,20,J,76,J,310,3,GARDINER,OR,DOUGLAS,1,1,0,Oregon
97442,"GLENDALE, OR",J,292,J,3755,J,16336,39,GLENDALE,OR,DOUGLAS,0,1,0,Oregon
97443,"GLIDE, OR",G,217,G,2439,G,7995,39,GLIDE,OR,DOUGLAS,0,1,0,Oregon
97444,"GOLD BEACH, OR",H,1319,H,14147,H,62422,188,GOLD BEACH,OR,CURRY,1,1,0,Oregon
97446,"HARRISBURG, OR",G,1133,G,13631,G,56955,107,HARRISBURG,OR,LINN,0,1,0,Oregon
97447,"IDLEYLD PARK, OR",H,141,H,2231,H,10214,15,IDLEYLD PARK,OR,DOUGLAS,0,1,0,Oregon
97448,"JUNCTION CITY, OR",G,3026,G,29654,G,127290,346,JUNCTION CITY,OR,LANE,0,NA,NA,Oregon
97449,"LAKESIDE, OR",G,123,G,863,G,3490,26,LAKESIDE,OR,COOS,1,1,0,Oregon
97450,"LANGLOIS, OR",J,80,G,498,G,1884,16,LANGLOIS,OR,CURRY,1,1,0,Oregon
97452,"LOWELL, OR",H,183,H,1842,H,7922,23,LOWELL,OR,LANE,0,1,0,Oregon
97453,"MAPLETON, OR",H,46,H,256,H,1111,16,MAPLETON,OR,LANE,0,1,0,Oregon
97454,"MARCOLA, OR",H,344,H,3028,H,14680,24,MARCOLA,OR,LANE,0,1,0,Oregon
97455,"PLEASANT HILL, OR",G,330,G,2978,G,12975,72,PLEASANT HILL,OR,LANE,0,1,0,Oregon
97456,"MONROE, OR",G,255,G,2225,G,9742,58,MONROE,OR,BENTON,0,NA,NA,Oregon
97457,"MYRTLE CREEK, OR",G,1256,G,11020,G,51488,164,MYRTLE CREEK,OR,DOUGLAS,0,1,0,Oregon
97458,"MYRTLE POINT, OR",G,751,H,8791,H,36160,98,MYRTLE POINT,OR,COOS,0,1,0,Oregon
97459,"NORTH BEND, OR",G,3623,G,38936,G,166252,376,NORTH BEND,OR,COOS,1,1,0,Oregon
97461,"NOTI, OR",H,328,H,4737,H,20205,16,NOTI,OR,LANE,0,1,0,Oregon
97462,"OAKLAND, OR",J,290,H,2856,H,10438,69,OAKLAND,OR,DOUGLAS,0,1,0,Oregon
97463,"OAKRIDGE, OR",H,302,H,2363,G,10466,45,OAKRIDGE,OR,LANE,0,1,0,Oregon
97465,"PORT ORFORD, OR",H,317,H,3068,H,12371,61,PORT ORFORD,OR,CURRY,1,1,0,Oregon
97466,"POWERS, OR",G,74,G,709,G,3370,10,POWERS,OR,COOS,0,1,0,Oregon
97467,"REEDSPORT, OR",G,1227,H,11818,H,52066,182,REEDSPORT,OR,DOUGLAS,1,1,0,Oregon
97469,"RIDDLE, OR",H,1045,H,17171,H,62400,45,RIDDLE,OR,DOUGLAS,0,1,0,Oregon
97470,"ROSEBURG, OR",G,12486,G,141317,G,622389,923,ROSEBURG,OR,DOUGLAS,0,1,0,Oregon
97471,"ROSEBURG, OR",G,10308,H,164198,H,677690,626,ROSEBURG,OR,DOUGLAS,0,1,0,Oregon
97473,"SCOTTSBURG, OR",J,5,J,89,J,352,3,SCOTTSBURG,OR,DOUGLAS,1,1,0,Oregon
97476,"SIXES, OR",J,10,H,118,H,485,5,SIXES,OR,CURRY,1,1,0,Oregon
97477,"SPRINGFIELD, OR",G,21982,G,372967,G,1462936,1121,SPRINGFIELD,OR,LANE,0,1,0,Oregon
97478,"SPRINGFIELD, OR",G,5700,G,69404,G,282385,571,SPRINGFIELD,OR,LANE,0,1,0,Oregon
97479,"SUTHERLIN, OR",G,2041,G,20391,G,88215,192,SUTHERLIN,OR,DOUGLAS,0,1,0,Oregon
97480,"SWISSHOME, OR",J,33,J,245,J,1134,5,SWISSHOME,OR,LANE,0,1,0,Oregon
97481,"TENMILE, OR",G,17,J,125,J,560,5,TENMILE,OR,DOUGLAS,0,1,0,Oregon
97484,"TILLER, OR",J,6,G,19,G,97,4,TILLER,OR,DOUGLAS,0,1,0,Oregon
97486,"UMPQUA, OR",G,42,G,470,G,2187,11,UMPQUA,OR,DOUGLAS,0,1,0,Oregon
97487,"VENETA, OR",H,1318,H,10036,G,42218,145,VENETA,OR,LANE,0,1,0,Oregon
97488,"VIDA, OR",J,57,H,703,H,3497,16,VIDA,OR,LANE,0,1,0,Oregon
97489,"WALTERVILLE, OR",G,64,H,479,H,1978,19,WALTERVILLE,OR,LANE,0,1,0,Oregon
97490,"WALTON, OR",J,9,J,54,J,199,5,WALTON,OR,LANE,0,1,0,Oregon
97492,"WESTFIR, OR",G,11,G,51,H,373,4,WESTFIR,OR,LANE,0,1,0,Oregon
97493,"WESTLAKE, OR",H,82,H,952,H,4140,4,WESTLAKE,OR,LANE,1,1,0,Oregon
97495,"WINCHESTER, OR",G,75,G,682,G,2857,21,WINCHESTER,OR,DOUGLAS,0,1,0,Oregon
97496,"WINSTON, OR",G,785,G,6249,G,26688,98,WINSTON,OR,DOUGLAS,0,1,0,Oregon
97498,"YACHATS, OR",G,507,G,3593,G,16887,64,YACHATS,OR,LINCOLN,1,1,0,Oregon
97499,"YONCALLA, OR",J,122,H,1051,H,4417,29,YONCALLA,OR,DOUGLAS,0,1,0,Oregon
97731,"CHEMULT, OR",J,108,J,1040,J,3934,18,CHEMULT,OR,KLAMATH,0,1,0,Oregon
98001,"AUBURN, WA",G,29403,G,527403,G,2131324,1328,AUBURN,WA,KING,0,1,0,Washington
98002,"AUBURN, WA",G,15645,G,190947,G,809753,1074,AUBURN,WA,KING,0,1,0,Washington
98003,"FEDERAL WAY, WA",G,21771,G,289884,G,1212130,1768,FEDERAL WAY,WA,KING,1,1,0,Washington
98004,"BELLEVUE, WA",G,74258,G,2793485,G,10453747,2973,BELLEVUE,WA,KING,0,1,0,Washington
98005,"BELLEVUE, WA",G,27375,G,629833,G,2400158,1682,BELLEVUE,WA,KING,0,1,0,Washington
98006,"BELLEVUE, WA",H,15660,J,854756,H,2373286,1109,BELLEVUE,WA,KING,0,1,0,Washington
98007,"BELLEVUE, WA",G,15738,H,346744,H,1360336,954,BELLEVUE,WA,KING,0,1,0,Washington
98008,"BELLEVUE, WA",G,6622,H,179056,H,652409,587,BELLEVUE,WA,KING,0,1,0,Washington
98010,"BLACK DIAMOND, WA",G,1045,G,16042,G,69602,152,BLACK DIAMOND,WA,KING,0,1,0,Washington
98011,"BOTHELL, WA",G,13644,G,323255,G,1251375,814,BOTHELL,WA,KING,0,1,0,Washington
98012,"BOTHELL, WA",G,10771,G,121686,G,525072,1331,BOTHELL,WA,SNOHOMISH,0,1,0,Washington
98014,"CARNATION, WA",H,1148,H,19130,H,86460,156,CARNATION,WA,KING,0,1,0,Washington
98019,"DUVALL, WA",G,1647,G,18780,G,81048,264,DUVALL,WA,KING,0,1,0,Washington
98020,"EDMONDS, WA",G,6420,G,93589,G,403907,840,EDMONDS,WA,SNOHOMISH,1,1,0,Washington
98021,"BOTHELL, WA",G,15316,H,611528,H,2160090,820,BOTHELL,WA,SNOHOMISH,0,1,0,Washington
98022,"ENUMCLAW, WA",G,6856,G,96263,G,391377,718,ENUMCLAW,WA,KING,0,1,0,Washington
98023,"FEDERAL WAY, WA",G,3990,G,39129,G,169388,705,FEDERAL WAY,WA,KING,1,1,0,Washington
98024,"FALL CITY, WA",G,546,G,6507,G,32709,144,FALL CITY,WA,KING,0,1,0,Washington
98025,"HOBART, WA",J,3,J,78,J,447,3,HOBART,WA,KING,0,1,0,Washington
98026,"EDMONDS, WA",G,7767,H,115186,H,493008,865,EDMONDS,WA,SNOHOMISH,1,1,0,Washington
98027,"ISSAQUAH, WA",G,22093,G,449579,G,2222850,1268,ISSAQUAH,WA,KING,0,1,0,Washington
98028,"KENMORE, WA",G,3227,G,41614,G,184069,500,KENMORE,WA,KING,0,1,0,Washington
98029,"ISSAQUAH, WA",G,8592,H,136569,H,575814,498,ISSAQUAH,WA,KING,0,1,0,Washington
98030,"KENT, WA",G,4672,G,49600,G,205286,632,KENT,WA,KING,0,1,0,Washington
98031,"KENT, WA",G,8748,G,126816,G,515679,727,KENT,WA,KING,0,1,0,Washington
98032,"KENT, WA",G,59428,G,1316263,G,5011798,2124,KENT,WA,KING,0,1,0,Washington
98033,"KIRKLAND, WA",G,26821,G,1198643,G,4663281,1809,KIRKLAND,WA,KING,0,1,0,Washington
98034,"KIRKLAND, WA",G,22274,G,399581,G,1679632,1473,KIRKLAND,WA,KING,0,1,0,Washington
98036,"LYNNWOOD, WA",G,18188,G,266740,G,1071543,1533,LYNNWOOD,WA,SNOHOMISH,0,1,0,Washington
98037,"LYNNWOOD, WA",G,12043,G,155241,G,609651,961,LYNNWOOD,WA,SNOHOMISH,0,1,0,Washington
98038,"MAPLE VALLEY, WA",G,6029,G,73478,G,314712,752,MAPLE VALLEY,WA,KING,0,1,0,Washington
98039,"MEDINA, WA",G,408,H,6746,H,31983,89,MEDINA,WA,KING,0,1,0,Washington
98040,"MERCER ISLAND, WA",G,7524,G,105558,G,466919,830,MERCER ISLAND,WA,KING,0,1,0,Washington
98042,"KENT, WA",G,7063,G,69053,G,297654,881,KENT,WA,KING,0,1,0,Washington
98043,"MOUNTLAKE TERRACE, WA",G,9070,H,186223,H,673000,472,MOUNTLAKE TERRACE,WA,SNOHOMISH,0,1,0,Washington
98045,"NORTH BEND, WA",G,3325,G,39136,G,169214,476,NORTH BEND,WA,KING,0,1,0,Washington
98047,"PACIFIC, WA",G,4522,G,80720,G,340882,223,PACIFIC,WA,KING,0,1,0,Washington
98050,"PRESTON, WA",G,1014,H,23995,H,89976,36,PRESTON,WA,KING,0,1,0,Washington
98051,"RAVENSDALE, WA",G,461,H,6786,G,28851,83,RAVENSDALE,WA,KING,0,1,0,Washington
98052,"REDMOND, WA",H,106441,H,4281086,H,23770094,2457,REDMOND,WA,KING,0,1,0,Washington
98053,"REDMOND, WA",G,5764,H,106502,H,556922,431,REDMOND,WA,KING,0,1,0,Washington
98055,"RENTON, WA",H,23311,H,789625,H,2501275,542,RENTON,WA,KING,0,1,0,Washington
98056,"RENTON, WA",G,4257,H,97682,J,559645,632,RENTON,WA,KING,0,1,0,Washington
98057,"RENTON, WA",G,41810,G,879411,H,4207836,1179,RENTON,WA,KING,0,1,0,Washington
98058,"RENTON, WA",G,3663,G,39587,G,168323,595,RENTON,WA,KING,0,1,0,Washington
98059,"RENTON, WA",G,4262,G,47410,G,208428,714,RENTON,WA,KING,0,1,0,Washington
98065,"SNOQUALMIE, WA",G,5392,G,104860,G,385617,373,SNOQUALMIE,WA,KING,0,1,0,Washington
98068,"SNOQUALMIE PASS, WA",J,1424,J,8148,J,20055,35,SNOQUALMIE PASS,WA,KITTITAS,0,1,0,Washington
98070,"VASHON, WA",G,2416,G,25832,G,109405,430,VASHON,WA,KING,1,1,0,Washington
98072,"WOODINVILLE, WA",G,23071,G,403495,G,1585209,1381,WOODINVILLE,WA,KING,0,1,0,Washington
98074,"SAMMAMISH, WA",G,2868,G,43620,G,172700,452,SAMMAMISH,WA,KING,0,1,0,Washington
98075,"SAMMAMISH, WA",G,2019,G,28050,G,119404,393,SAMMAMISH,WA,KING,0,1,0,Washington
98077,"WOODINVILLE, WA",G,1191,G,14223,G,64577,236,WOODINVILLE,WA,KING,0,1,0,Washington
98087,"LYNNWOOD, WA",G,7000,H,122673,H,482328,679,LYNNWOOD,WA,SNOHOMISH,0,1,0,Washington
98092,"AUBURN, WA",G,3898,G,44463,G,197779,669,AUBURN,WA,KING,0,1,0,Washington
98101,"SEATTLE, WA",G,96469,G,3563397,G,13471022,2609,SEATTLE,WA,KING,1,1,0,Washington
98102,"SEATTLE, WA",G,10504,G,334414,G,1296940,784,SEATTLE,WA,KING,0,1,0,Washington
98103,"SEATTLE, WA",G,25838,G,1128332,G,4226493,1982,SEATTLE,WA,KING,0,1,0,Washington
98104,"SEATTLE, WA",G,63710,G,2331080,G,8530314,2154,SEATTLE,WA,KING,1,1,0,Washington
98105,"SEATTLE, WA",H,21275,H,443565,H,1841516,1313,SEATTLE,WA,KING,0,1,0,Washington
98106,"SEATTLE, WA",G,6209,G,108099,G,444091,500,SEATTLE,WA,KING,1,1,0,Washington
98107,"SEATTLE, WA",G,14757,G,244079,G,1028407,1382,SEATTLE,WA,KING,1,1,0,Washington
98108,"SEATTLE, WA",G,29689,H,591509,G,2360546,1251,SEATTLE,WA,KING,0,1,0,Washington
98109,"SEATTLE, WA",H,68378,H,2385390,H,10015808,1663,SEATTLE,WA,KING,0,1,0,Washington
98110,"BAINBRIDGE ISLAND, WA",G,6411,G,96662,G,410981,968,BAINBRIDGE ISLAND,WA,KITSAP,1,1,0,Washington
98112,"SEATTLE, WA",G,6614,G,102827,G,420173,697,SEATTLE,WA,KING,0,1,0,Washington
98115,"SEATTLE, WA",G,11038,G,149828,G,625194,1276,SEATTLE,WA,KING,0,1,0,Washington
98116,"SEATTLE, WA",G,6402,G,84293,G,351423,827,SEATTLE,WA,KING,1,1,0,Washington
98117,"SEATTLE, WA",G,4293,G,51073,G,221663,754,SEATTLE,WA,KING,1,1,0,Washington
98118,"SEATTLE, WA",G,8751,G,105714,G,416301,966,SEATTLE,WA,KING,0,1,0,Washington
98119,"SEATTLE, WA",G,20382,H,585021,H,2383563,881,SEATTLE,WA,KING,1,1,0,Washington
98121,"SEATTLE, WA",G,34570,G,1064830,G,4089018,1199,SEATTLE,WA,KING,1,1,0,Washington
98122,"SEATTLE, WA",H,27645,H,524724,H,2235117,1362,SEATTLE,WA,KING,0,1,0,Washington
98125,"SEATTLE, WA",G,9397,G,161423,G,601495,1009,SEATTLE,WA,KING,0,1,0,Washington
98126,"SEATTLE, WA",G,4021,G,45456,G,192844,448,SEATTLE,WA,KING,1,1,0,Washington
98133,"SEATTLE, WA",G,15774,G,224227,G,912210,1194,SEATTLE,WA,KING,0,1,0,Washington
98134,"SEATTLE, WA",G,39386,H,913938,H,4107558,936,SEATTLE,WA,KING,1,1,0,Washington
98136,"SEATTLE, WA",G,2026,G,29527,G,117200,414,SEATTLE,WA,KING,1,1,0,Washington
98144,"SEATTLE, WA",G,11888,G,188828,G,765049,787,SEATTLE,WA,KING,0,1,0,Washington
98146,"SEATTLE, WA",G,2223,G,25319,G,108754,346,SEATTLE,WA,KING,1,1,0,Washington
98148,"SEATTLE, WA",G,3818,G,54143,G,227119,369,SEATTLE,WA,KING,0,1,0,Washington
98154,"SEATTLE, WA",H,2163,H,89454,H,303319,67,SEATTLE,WA,KING,0,1,0,Washington
98155,"SEATTLE, WA",G,4619,G,52852,G,237237,671,SEATTLE,WA,KING,0,1,0,Washington
98158,"SEATTLE, WA",H,11629,H,213506,H,957663,122,SEATTLE,WA,KING,0,1,0,Washington
98164,"SEATTLE, WA",G,2891,G,150575,G,513322,45,SEATTLE,WA,KING,0,1,0,Washington
98166,"SEATTLE, WA",G,6025,H,77448,H,323112,740,SEATTLE,WA,KING,1,1,0,Washington
98168,"SEATTLE, WA",G,16934,G,334015,G,1287031,884,SEATTLE,WA,KING,0,1,0,Washington
98174,"SEATTLE, WA",J,22,H,260,H,991,8,SEATTLE,WA,KING,0,1,0,Washington
98177,"SEATTLE, WA",G,1698,G,24183,G,107616,415,SEATTLE,WA,KING,1,1,0,Washington
98178,"SEATTLE, WA",G,1850,H,27608,H,122068,311,SEATTLE,WA,KING,0,1,0,Washington
98188,"SEATTLE, WA",G,43850,H,694239,G,2659574,1496,SEATTLE,WA,KING,0,1,0,Washington
98195,"SEATTLE, WA",J,8614,J,166643,J,699275,38,SEATTLE,WA,KING,0,1,0,Washington
98198,"SEATTLE, WA",G,6976,H,80337,H,339552,653,SEATTLE,WA,KING,1,1,0,Washington
98199,"SEATTLE, WA",G,4960,G,80828,G,364311,641,SEATTLE,WA,KING,1,1,0,Washington
98201,"EVERETT, WA",H,22720,H,410529,H,1676864,1309,EVERETT,WA,SNOHOMISH,1,1,0,Washington
98203,"EVERETT, WA",G,17778,H,363479,G,1351842,819,EVERETT,WA,SNOHOMISH,1,1,0,Washington
98204,"EVERETT, WA",H,48469,H,1283731,H,4674809,940,EVERETT,WA,SNOHOMISH,0,1,0,Washington
98207,"EVERETT, WA",J,69,G,822,G,3108,14,EVERETT,WA,SNOHOMISH,1,1,0,Washington
98208,"EVERETT, WA",H,21802,H,208561,H,861552,1228,EVERETT,WA,SNOHOMISH,0,1,0,Washington
98220,"ACME, WA",J,105,H,967,G,4046,17,ACME,WA,WHATCOM,0,1,0,Washington
98221,"ANACORTES, WA",G,8205,H,139511,G,545455,742,ANACORTES,WA,SKAGIT,1,1,0,Washington
98222,"BLAKELY ISLAND, WA",J,16,G,200,G,1145,7,BLAKELY ISLAND,WA,SAN JUAN,1,1,0,Washington
98223,"ARLINGTON, WA",G,14383,G,205546,G,862104,1174,ARLINGTON,WA,SNOHOMISH,0,1,0,Washington
98225,"BELLINGHAM, WA",G,25554,G,376892,G,1518802,2164,BELLINGHAM,WA,WHATCOM,1,1,0,Washington
98226,"BELLINGHAM, WA",G,24112,G,348656,G,1415997,1663,BELLINGHAM,WA,WHATCOM,1,1,0,Washington
98229,"BELLINGHAM, WA",G,4910,G,59457,G,252630,673,BELLINGHAM,WA,WHATCOM,1,1,0,Washington
98230,"BLAINE, WA",G,4243,H,103146,H,339232,450,BLAINE,WA,WHATCOM,1,1,0,Washington
98232,"BOW, WA",G,863,H,10076,H,42327,117,BOW,WA,SKAGIT,1,1,0,Washington
98233,"BURLINGTON, WA",G,11869,G,171539,G,710626,706,BURLINGTON,WA,SKAGIT,0,1,0,Washington
98235,"CLEARLAKE, WA",J,52,G,368,G,1067,7,CLEARLAKE,WA,SKAGIT,0,1,0,Washington
98236,"CLINTON, WA",G,1049,G,10217,G,46276,184,CLINTON,WA,ISLAND,1,1,0,Washington
98237,"CONCRETE, WA",G,426,H,4900,H,21083,72,CONCRETE,WA,SKAGIT,0,1,0,Washington
98238,"CONWAY, WA",G,112,H,1193,H,4976,16,CONWAY,WA,SKAGIT,0,1,0,Washington
98239,"COUPEVILLE, WA",H,1683,H,25640,H,106738,204,COUPEVILLE,WA,ISLAND,1,1,0,Washington
98240,"CUSTER, WA",G,381,G,4064,G,17687,71,CUSTER,WA,WHATCOM,0,1,0,Washington
98241,"DARRINGTON, WA",J,334,J,4435,J,19492,33,DARRINGTON,WA,SNOHOMISH,0,1,0,Washington
98243,"DEER HARBOR, WA",H,100,H,1311,H,6403,18,DEER HARBOR,WA,SAN JUAN,1,1,0,Washington
98244,"DEMING, WA",H,910,H,6881,G,27198,83,DEMING,WA,WHATCOM,0,1,0,Washington
98245,"EASTSOUND, WA",G,1796,G,19310,G,89241,303,EASTSOUND,WA,SAN JUAN,1,1,0,Washington
98247,"EVERSON, WA",H,1553,G,17202,G,80200,223,EVERSON,WA,WHATCOM,0,1,0,Washington
98248,"FERNDALE, WA",G,9545,G,156828,G,614162,765,FERNDALE,WA,WHATCOM,1,1,0,Washington
98249,"FREELAND, WA",G,1305,G,16003,G,66950,205,FREELAND,WA,ISLAND,1,1,0,Washington
98250,"FRIDAY HARBOR, WA",G,2730,G,32406,G,148710,513,FRIDAY HARBOR,WA,SAN JUAN,1,1,0,Washington
98251,"GOLD BAR, WA",G,298,G,2561,G,10471,80,GOLD BAR,WA,SNOHOMISH,0,1,0,Washington
98252,"GRANITE FALLS, WA",H,1301,H,16393,H,71302,179,GRANITE FALLS,WA,SNOHOMISH,0,1,0,Washington
98253,"GREENBANK, WA",H,129,G,1076,G,5266,45,GREENBANK,WA,ISLAND,1,1,0,Washington
98255,"HAMILTON, WA",J,504,H,12390,H,56283,5,HAMILTON,WA,SKAGIT,0,1,0,Washington
98256,"INDEX, WA",J,14,J,123,H,634,7,INDEX,WA,SNOHOMISH,0,1,0,Washington
98257,"LA CONNER, WA",G,980,G,10782,G,45363,151,LA CONNER,WA,SKAGIT,1,1,0,Washington
98258,"LAKE STEVENS, WA",G,6861,G,80518,G,355813,909,LAKE STEVENS,WA,SNOHOMISH,0,1,0,Washington
98260,"LANGLEY, WA",G,1542,G,16196,G,70163,260,LANGLEY,WA,ISLAND,1,1,0,Washington
98261,"LOPEZ ISLAND, WA",G,545,G,4748,G,22356,148,LOPEZ ISLAND,WA,SAN JUAN,1,1,0,Washington
98262,"LUMMI ISLAND, WA",G,72,G,610,G,2643,34,LUMMI ISLAND,WA,WHATCOM,1,1,0,Washington
98263,"LYMAN, WA",J,28,H,335,H,1447,5,LYMAN,WA,SKAGIT,0,1,0,Washington
98264,"LYNDEN, WA",G,7684,G,98044,G,416035,748,LYNDEN,WA,WHATCOM,0,1,0,Washington
98266,"MAPLE FALLS, WA",H,328,H,2640,G,11570,44,MAPLE FALLS,WA,WHATCOM,0,1,0,Washington
98267,"MARBLEMOUNT, WA",J,38,G,288,G,1551,12,MARBLEMOUNT,WA,SKAGIT,0,1,0,Washington
98270,"MARYSVILLE, WA",G,7908,G,90660,G,373933,971,MARYSVILLE,WA,SNOHOMISH,1,1,0,Washington
98271,"MARYSVILLE, WA",G,12835,G,171059,G,678092,748,MARYSVILLE,WA,SNOHOMISH,1,1,0,Washington
98272,"MONROE, WA",G,9137,G,118504,G,499380,908,MONROE,WA,SNOHOMISH,0,1,0,Washington
98273,"MOUNT VERNON, WA",G,12637,G,162223,G,680927,1053,MOUNT VERNON,WA,SKAGIT,1,1,0,Washington
98274,"MOUNT VERNON, WA",H,4616,J,74727,J,330043,325,MOUNT VERNON,WA,SKAGIT,0,1,0,Washington
98275,"MUKILTEO, WA",G,8676,G,159881,G,643014,689,MUKILTEO,WA,SNOHOMISH,1,1,0,Washington
98276,"NOOKSACK, WA",H,122,H,1320,H,5698,24,NOOKSACK,WA,WHATCOM,0,1,0,Washington
98277,"OAK HARBOR, WA",G,6290,G,64353,G,266400,702,OAK HARBOR,WA,ISLAND,1,1,0,Washington
98278,"OAK HARBOR, WA",H,1024,H,15021,H,60910,29,OAK HARBOR,WA,ISLAND,1,1,0,Washington
98279,"OLGA, WA",H,126,G,877,G,4570,29,OLGA,WA,SAN JUAN,1,1,0,Washington
98280,"ORCAS, WA",J,78,H,803,H,4119,13,ORCAS,WA,SAN JUAN,1,1,0,Washington
98281,"POINT ROBERTS, WA",H,149,G,1210,G,6387,59,POINT ROBERTS,WA,WHATCOM,1,1,0,Washington
98282,"CAMANO ISLAND, WA",G,1391,G,15754,G,69685,302,CAMANO ISLAND,WA,ISLAND,1,1,0,Washington
98283,"ROCKPORT, WA",H,22,J,601,J,2794,7,ROCKPORT,WA,SKAGIT,0,1,0,Washington
98284,"SEDRO WOOLLEY, WA",G,4038,H,56981,H,257735,446,SEDRO WOOLLEY,WA,SKAGIT,0,1,0,Washington
98286,"SHAW ISLAND, WA",J,32,J,302,J,1503,8,SHAW ISLAND,WA,SAN JUAN,1,1,0,Washington
98288,"SKYKOMISH, WA",J,477,J,3877,J,12229,12,SKYKOMISH,WA,KING,0,1,0,Washington
98290,"SNOHOMISH, WA",G,8182,G,100254,G,431714,1070,SNOHOMISH,WA,SNOHOMISH,0,1,0,Washington
98292,"STANWOOD, WA",G,4229,G,54557,G,223310,558,STANWOOD,WA,SNOHOMISH,1,1,0,Washington
98294,"SULTAN, WA",H,841,H,8897,H,36286,157,SULTAN,WA,SNOHOMISH,0,1,0,Washington
98295,"SUMAS, WA",G,664,H,10145,H,39389,77,SUMAS,WA,WHATCOM,0,1,0,Washington
98296,"SNOHOMISH, WA",G,4892,G,69520,G,299700,645,SNOHOMISH,WA,SNOHOMISH,0,1,0,Washington
98303,"ANDERSON ISLAND, WA",H,108,H,982,H,4375,17,ANDERSON ISLAND,WA,PIERCE,1,1,0,Washington
98304,"ASHFORD, WA",G,226,G,3193,G,16180,34,ASHFORD,WA,PIERCE,0,NA,NA,Washington
98305,"BEAVER, WA",H,25,H,182,G,695,7,BEAVER,WA,CLALLAM,1,1,0,Washington
98310,"BREMERTON, WA",H,6547,H,88459,H,385089,378,BREMERTON,WA,KITSAP,1,1,0,Washington
98311,"BREMERTON, WA",G,4058,G,35745,G,148377,316,BREMERTON,WA,KITSAP,1,1,0,Washington
98312,"BREMERTON, WA",G,7695,G,111440,G,471270,624,BREMERTON,WA,KITSAP,1,1,0,Washington
98314,"BREMERTON, WA",G,313,G,6783,G,25262,26,BREMERTON,WA,KITSAP,1,1,0,Washington
98315,"SILVERDALE, WA",H,1159,H,24270,H,95549,34,SILVERDALE,WA,KITSAP,1,1,0,Washington
98320,"BRINNON, WA",H,88,H,579,H,2836,24,BRINNON,WA,JEFFERSON,1,1,0,Washington
98321,"BUCKLEY, WA",H,1741,G,23306,G,95859,329,BUCKLEY,WA,PIERCE,0,1,0,Washington
98323,"CARBONADO, WA",J,92,J,1225,H,6262,19,CARBONADO,WA,PIERCE,0,1,0,Washington
98325,"CHIMACUM, WA",J,288,H,2124,H,10796,52,CHIMACUM,WA,JEFFERSON,1,1,0,Washington
98326,"CLALLAM BAY, WA",H,63,G,483,G,2349,14,CLALLAM BAY,WA,CLALLAM,1,1,0,Washington
98327,"DUPONT, WA",H,4101,J,62359,J,239036,143,DUPONT,WA,PIERCE,1,1,0,Washington
98328,"EATONVILLE, WA",G,976,G,11122,G,50816,179,EATONVILLE,WA,PIERCE,0,1,0,Washington
98329,"GIG HARBOR, WA",G,777,G,7188,G,32201,154,GIG HARBOR,WA,PIERCE,1,1,0,Washington
98330,"ELBE, WA",G,84,H,1140,H,5144,12,ELBE,WA,PIERCE,0,1,0,Washington
98331,"FORKS, WA",H,1468,H,15249,H,70868,156,FORKS,WA,CLALLAM,1,1,0,Washington
98332,"GIG HARBOR, WA",G,5423,G,73997,G,326831,527,GIG HARBOR,WA,PIERCE,1,1,0,Washington
98333,"FOX ISLAND, WA",G,217,G,2552,G,12016,76,FOX ISLAND,WA,PIERCE,1,1,0,Washington
98335,"GIG HARBOR, WA",G,8779,G,107876,G,454618,1159,GIG HARBOR,WA,PIERCE,1,1,0,Washington
98337,"BREMERTON, WA",H,2267,G,35946,G,146809,196,BREMERTON,WA,KITSAP,1,1,0,Washington
98338,"GRAHAM, WA",G,2451,G,27386,G,112272,413,GRAHAM,WA,PIERCE,0,1,0,Washington
98339,"PORT HADLOCK, WA",G,764,G,8507,G,36359,123,PORT HADLOCK,WA,JEFFERSON,1,1,0,Washington
98340,"HANSVILLE, WA",H,137,G,1847,G,7528,45,HANSVILLE,WA,KITSAP,1,1,0,Washington
98342,"INDIANOLA, WA",H,78,H,623,H,2990,45,INDIANOLA,WA,KITSAP,1,1,0,Washington
98345,"KEYPORT, WA",G,313,G,6163,G,23715,23,KEYPORT,WA,KITSAP,1,1,0,Washington
98346,"KINGSTON, WA",G,2074,G,21626,G,95393,280,KINGSTON,WA,KITSAP,1,1,0,Washington
98349,"LAKEBAY, WA",G,378,G,3520,G,13460,81,LAKEBAY,WA,PIERCE,1,1,0,Washington
98351,"LONGBRANCH, WA",H,115,G,1190,G,5182,22,LONGBRANCH,WA,PIERCE,1,1,0,Washington
98353,"MANCHESTER, WA",H,28,J,252,J,1188,8,MANCHESTER,WA,KITSAP,1,1,0,Washington
98354,"MILTON, WA",G,1999,G,24847,G,108948,185,MILTON,WA,PIERCE,0,1,0,Washington
98357,"NEAH BAY, WA",G,83,G,633,G,3001,19,NEAH BAY,WA,CLALLAM,1,1,0,Washington
98358,"NORDLAND, WA",J,67,J,789,H,4075,24,NORDLAND,WA,JEFFERSON,1,1,0,Washington
98359,"OLALLA, WA",H,277,H,3169,H,13937,75,OLALLA,WA,KITSAP,1,1,0,Washington
98360,"ORTING, WA",H,1629,H,22413,H,90272,196,ORTING,WA,PIERCE,0,1,0,Washington
98362,"PORT ANGELES, WA",H,8360,H,105222,H,441154,815,PORT ANGELES,WA,CLALLAM,1,1,0,Washington
98363,"PORT ANGELES, WA",G,2004,G,26102,G,112191,218,PORT ANGELES,WA,CLALLAM,1,1,0,Washington
98364,"PORT GAMBLE, WA",G,62,H,837,H,3604,10,PORT GAMBLE,WA,KITSAP,0,1,0,Washington
98365,"PORT LUDLOW, WA",G,359,H,4285,H,18119,90,PORT LUDLOW,WA,JEFFERSON,1,1,0,Washington
98366,"PORT ORCHARD, WA",G,7518,G,79022,G,326418,774,PORT ORCHARD,WA,KITSAP,1,1,0,Washington
98367,"PORT ORCHARD, WA",G,2555,G,35501,G,138855,373,PORT ORCHARD,WA,KITSAP,1,1,0,Washington
98368,"PORT TOWNSEND, WA",G,5298,G,67685,G,292151,619,PORT TOWNSEND,WA,JEFFERSON,1,1,0,Washington
98370,"POULSBO, WA",G,8978,G,110725,G,448579,1023,POULSBO,WA,KITSAP,1,1,0,Washington
98371,"PUYALLUP, WA",G,11458,G,155102,G,659379,736,PUYALLUP,WA,PIERCE,0,1,0,Washington
98372,"PUYALLUP, WA",G,13237,H,261689,H,1127616,748,PUYALLUP,WA,PIERCE,0,1,0,Washington
98373,"PUYALLUP, WA",G,12402,H,143747,H,600306,930,PUYALLUP,WA,PIERCE,0,1,0,Washington
98374,"PUYALLUP, WA",G,6630,G,95130,G,392210,586,PUYALLUP,WA,PIERCE,0,1,0,Washington
98375,"PUYALLUP, WA",G,6057,G,62360,G,264730,472,PUYALLUP,WA,PIERCE,0,1,0,Washington
98376,"QUILCENE, WA",H,209,G,2363,G,10821,42,QUILCENE,WA,JEFFERSON,1,1,0,Washington
98380,"SEABECK, WA",H,283,G,2885,G,13163,78,SEABECK,WA,KITSAP,1,1,0,Washington
98381,"SEKIU, WA",J,30,J,107,J,711,8,SEKIU,WA,CLALLAM,1,1,0,Washington
98382,"SEQUIM, WA",G,6951,H,72742,G,315929,875,SEQUIM,WA,CLALLAM,1,1,0,Washington
98383,"SILVERDALE, WA",G,11311,G,121438,G,506951,915,SILVERDALE,WA,KITSAP,1,1,0,Washington
98385,"SOUTH PRAIRIE, WA",J,166,J,1763,J,7932,16,SOUTH PRAIRIE,WA,PIERCE,0,1,0,Washington
98387,"SPANAWAY, WA",G,4002,G,44144,G,186498,546,SPANAWAY,WA,PIERCE,0,1,0,Washington
98388,"STEILACOOM, WA",G,215,G,1620,G,7294,51,STEILACOOM,WA,PIERCE,1,1,0,Washington
98390,"SUMNER, WA",H,23811,H,338085,H,1454564,669,SUMNER,WA,PIERCE,0,1,0,Washington
98391,"BONNEY LAKE, WA",G,6862,G,71785,G,307301,900,BONNEY LAKE,WA,PIERCE,0,1,0,Washington
98392,"SUQUAMISH, WA",G,1025,G,15221,G,66171,52,SUQUAMISH,WA,KITSAP,1,1,0,Washington
98394,"VAUGHN, WA",J,115,G,687,G,2995,19,VAUGHN,WA,PIERCE,1,1,0,Washington
98396,"WILKESON, WA",G,16,H,149,G,729,9,WILKESON,WA,PIERCE,0,1,0,Washington
98402,"TACOMA, WA",G,24093,G,520207,G,2062583,910,TACOMA,WA,PIERCE,1,1,0,Washington
98403,"TACOMA, WA",G,2037,G,33276,G,142570,239,TACOMA,WA,PIERCE,1,1,0,Washington
98404,"TACOMA, WA",G,5446,H,67223,H,265435,393,TACOMA,WA,PIERCE,1,1,0,Washington
98405,"TACOMA, WA",G,16689,G,299109,G,1216295,643,TACOMA,WA,PIERCE,0,1,0,Washington
98406,"TACOMA, WA",G,5291,G,50695,G,218195,543,TACOMA,WA,PIERCE,1,1,0,Washington
98407,"TACOMA, WA",G,3910,G,44878,G,191267,430,TACOMA,WA,PIERCE,1,1,0,Washington
98408,"TACOMA, WA",G,3379,G,36010,G,150712,321,TACOMA,WA,PIERCE,0,1,0,Washington
98409,"TACOMA, WA",G,21172,G,280136,G,1146447,1152,TACOMA,WA,PIERCE,0,1,0,Washington
98418,"TACOMA, WA",G,1242,H,15239,H,57356,165,TACOMA,WA,PIERCE,0,1,0,Washington
98421,"TACOMA, WA",G,9060,G,178250,G,704936,316,TACOMA,WA,PIERCE,1,1,0,Washington
98422,"TACOMA, WA",G,1990,G,28592,G,125534,293,TACOMA,WA,PIERCE,1,1,0,Washington
98424,"FIFE, WA",G,17527,G,269248,G,1094499,643,FIFE,WA,PIERCE,1,1,0,Washington
98430,"CAMP MURRAY, WA",J,9,G,103,G,411,3,CAMP MURRAY,WA,PIERCE,0,1,0,Washington
98433,"TACOMA, WA",H,1248,H,17586,H,71679,105,TACOMA,WA,PIERCE,1,1,0,Washington
98438,"MCCHORD AFB, WA",G,166,H,3569,H,14889,25,MCCHORD AFB,WA,PIERCE,0,1,0,Washington
98439,"LAKEWOOD, WA",G,568,G,6130,G,28133,28,LAKEWOOD,WA,PIERCE,0,1,0,Washington
98443,"TACOMA, WA",H,788,H,12499,H,66297,84,TACOMA,WA,PIERCE,0,1,0,Washington
98444,"TACOMA, WA",G,7745,G,92961,G,367320,698,TACOMA,WA,PIERCE,0,1,0,Washington
98445,"TACOMA, WA",G,3292,G,40115,G,171639,409,TACOMA,WA,PIERCE,0,1,0,Washington
98446,"TACOMA, WA",G,3428,G,54168,G,248262,240,TACOMA,WA,PIERCE,0,1,0,Washington
98447,"TACOMA, WA",J,1682,J,11035,J,46061,3,TACOMA,WA,PIERCE,0,1,0,Washington
98465,"TACOMA, WA",G,1327,G,12035,G,51771,102,TACOMA,WA,PIERCE,1,1,0,Washington
98466,"TACOMA, WA",G,6735,G,76151,G,332091,794,TACOMA,WA,PIERCE,1,1,0,Washington
98467,"UNIVERSITY PLACE, WA",G,1965,G,24198,G,102636,183,UNIVERSITY PLACE,WA,PIERCE,1,1,0,Washington
98498,"LAKEWOOD, WA",H,4620,H,77625,H,315681,331,LAKEWOOD,WA,PIERCE,0,1,0,Washington
98499,"LAKEWOOD, WA",G,17707,G,233141,G,954920,1272,LAKEWOOD,WA,PIERCE,0,1,0,Washington
98501,"OLYMPIA, WA",G,16532,G,245914,G,981449,1458,OLYMPIA,WA,THURSTON,1,0,0,Washington
98502,"OLYMPIA, WA",G,13319,G,163234,G,680219,1090,OLYMPIA,WA,THURSTON,1,1,0,Washington
98503,"LACEY, WA",H,17356,H,193563,H,816124,841,LACEY,WA,THURSTON,0,0,0,Washington
98506,"OLYMPIA, WA",H,9373,H,140453,H,590062,618,OLYMPIA,WA,THURSTON,1,0,0,Washington
98512,"OLYMPIA, WA",G,7603,G,100629,G,415359,655,OLYMPIA,WA,THURSTON,0,0,0,Washington
98513,"OLYMPIA, WA",H,1910,H,24486,H,103487,260,OLYMPIA,WA,THURSTON,0,0,0,Washington
98516,"OLYMPIA, WA",G,12603,G,161707,G,687051,782,OLYMPIA,WA,THURSTON,1,0,0,Washington
98520,"ABERDEEN, WA",G,6644,G,85360,G,345641,557,ABERDEEN,WA,GRAYS HARBOR,1,1,0,Washington
98524,"ALLYN, WA",G,237,G,1878,G,8373,62,ALLYN,WA,MASON,1,1,0,Washington
98526,"AMANDA PARK, WA",J,163,J,1927,J,8445,13,AMANDA PARK,WA,GRAYS HARBOR,0,1,0,Washington
98527,"BAY CENTER, WA",J,85,J,960,J,3985,4,BAY CENTER,WA,PACIFIC,1,1,0,Washington
98528,"BELFAIR, WA",G,1570,G,15215,G,65204,218,BELFAIR,WA,MASON,1,1,0,Washington
98530,"BUCODA, WA",J,8,J,65,J,303,3,BUCODA,WA,THURSTON,0,0,0,Washington
98531,"CENTRALIA, WA",G,10062,G,124854,G,499308,694,CENTRALIA,WA,LEWIS,0,NA,NA,Washington
98535,"COPALIS BEACH, WA",J,68,J,512,J,2459,12,COPALIS BEACH,WA,GRAYS HARBOR,1,1,0,Washington
98537,"COSMOPOLIS, WA",G,156,G,2171,G,6744,27,COSMOPOLIS,WA,GRAYS HARBOR,0,1,0,Washington
98541,"ELMA, WA",H,1967,G,31260,G,118489,181,ELMA,WA,GRAYS HARBOR,0,1,0,Washington
98546,"GRAPEVIEW, WA",H,80,H,899,G,4247,37,GRAPEVIEW,WA,MASON,1,1,0,Washington
98547,"GRAYLAND, WA",H,94,H,708,G,3445,26,GRAYLAND,WA,GRAYS HARBOR,1,1,0,Washington
98548,"HOODSPORT, WA",H,160,H,1387,H,6181,35,HOODSPORT,WA,MASON,1,1,0,Washington
98550,"HOQUIAM, WA",G,2087,G,24887,G,109246,223,HOQUIAM,WA,GRAYS HARBOR,1,1,0,Washington
98552,"HUMPTULIPS, WA",J,14,J,148,H,642,5,HUMPTULIPS,WA,GRAYS HARBOR,0,1,0,Washington
98555,"LILLIWAUP, WA",H,121,G,1369,H,6062,9,LILLIWAUP,WA,MASON,1,1,0,Washington
98556,"LITTLEROCK, WA",H,48,J,557,J,2292,3,LITTLEROCK,WA,THURSTON,0,0,0,Washington
98557,"MCCLEARY, WA",H,560,H,7417,H,29681,42,MCCLEARY,WA,GRAYS HARBOR,0,1,0,Washington
98558,"MCKENNA, WA",H,97,H,1271,H,5495,12,MCKENNA,WA,PIERCE,0,1,0,Washington
98562,"MOCLIPS, WA",J,33,J,200,J,574,5,MOCLIPS,WA,GRAYS HARBOR,1,1,0,Washington
98563,"MONTESANO, WA",G,1074,H,12066,H,56634,160,MONTESANO,WA,GRAYS HARBOR,0,1,0,Washington
98566,"NEILTON, WA",J,27,J,249,J,1014,4,NEILTON,WA,GRAYS HARBOR,0,1,0,Washington
98568,"OAKVILLE, WA",H,157,G,1689,G,7567,30,OAKVILLE,WA,GRAYS HARBOR,0,1,0,Washington
98569,"OCEAN SHORES, WA",G,1282,G,10433,G,45871,155,OCEAN SHORES,WA,GRAYS HARBOR,1,1,0,Washington
98571,"PACIFIC BEACH, WA",H,351,H,4499,H,18008,33,PACIFIC BEACH,WA,GRAYS HARBOR,1,1,0,Washington
98575,"QUINAULT, WA",H,142,H,910,H,4345,5,QUINAULT,WA,GRAYS HARBOR,0,1,0,Washington
98576,"RAINIER, WA",G,340,G,3418,G,14920,82,RAINIER,WA,THURSTON,0,0,0,Washington
98577,"RAYMOND, WA",G,885,G,11517,G,47591,109,RAYMOND,WA,PACIFIC,1,1,0,Washington
98579,"ROCHESTER, WA",G,1956,H,21071,H,84522,235,ROCHESTER,WA,THURSTON,0,1,0,Washington
98580,"ROY, WA",H,571,H,6865,H,29033,136,ROY,WA,PIERCE,0,1,0,Washington
98584,"SHELTON, WA",G,7421,G,96802,G,394999,633,SHELTON,WA,MASON,1,1,0,Washington
98586,"SOUTH BEND, WA",G,837,H,8372,G,32447,63,SOUTH BEND,WA,PACIFIC,1,1,0,Washington
98588,"TAHUYA, WA",J,36,G,322,G,1499,19,TAHUYA,WA,MASON,1,1,0,Washington
98589,"TENINO, WA",G,823,G,9535,G,39291,147,TENINO,WA,THURSTON,0,0,0,Washington
98590,"TOKELAND, WA",J,225,J,1638,J,6107,17,TOKELAND,WA,PACIFIC,1,1,0,Washington
98592,"UNION, WA",H,432,H,4165,H,20656,38,UNION,WA,MASON,1,1,0,Washington
98595,"WESTPORT, WA",H,1026,H,10054,H,41839,101,WESTPORT,WA,GRAYS HARBOR,1,1,0,Washington
98597,"YELM, WA",G,3654,G,34525,G,149581,394,YELM,WA,THURSTON,0,0,0,Washington
98601,"AMBOY, WA",G,282,G,3206,G,14230,60,AMBOY,WA,CLARK,0,0,0,Washington
98603,"ARIEL, WA",H,169,H,2714,H,13473,20,ARIEL,WA,COWLITZ,0,0,0,Washington
98604,"BATTLE GROUND, WA",G,8880,G,117621,G,519149,947,BATTLE GROUND,WA,CLARK,0,0,0,Washington
98606,"BRUSH PRAIRIE, WA",G,1129,G,13727,G,63629,238,BRUSH PRAIRIE,WA,CLARK,0,0,0,Washington
98607,"CAMAS, WA",H,9460,H,229407,H,1002846,801,CAMAS,WA,CLARK,0,0,0,Washington
98611,"CASTLE ROCK, WA",G,902,G,9103,G,38709,160,CASTLE ROCK,WA,COWLITZ,0,0,0,Washington
98612,"CATHLAMET, WA",H,406,G,3844,G,16239,72,CATHLAMET,WA,WAHKIAKUM,1,1,0,Washington
98614,"CHINOOK, WA",H,58,H,462,H,2085,18,CHINOOK,WA,PACIFIC,1,1,0,Washington
98616,"COUGAR, WA",J,18,G,135,G,911,8,COUGAR,WA,COWLITZ,0,0,0,Washington
98621,"GRAYS RIVER, WA",G,9,H,46,J,186,4,GRAYS RIVER,WA,WAHKIAKUM,0,1,0,Washington
98624,"ILWACO, WA",G,476,H,6189,H,26265,49,ILWACO,WA,PACIFIC,1,1,0,Washington
98625,"KALAMA, WA",G,1329,G,24509,H,103681,135,KALAMA,WA,COWLITZ,0,0,0,Washington
98626,"KELSO, WA",G,5439,G,65869,G,272511,435,KELSO,WA,COWLITZ,0,0,0,Washington
98629,"LA CENTER, WA",H,859,G,10802,H,46914,154,LA CENTER,WA,CLARK,0,0,0,Washington
98631,"LONG BEACH, WA",G,1288,G,11927,G,56258,160,LONG BEACH,WA,PACIFIC,1,1,0,Washington
98632,"LONGVIEW, WA",G,19935,G,305102,G,1208456,1162,LONGVIEW,WA,COWLITZ,0,0,0,Washington
98638,"NASELLE, WA",J,147,H,1072,H,4512,30,NASELLE,WA,PACIFIC,1,1,0,Washington
98640,"OCEAN PARK, WA",H,401,H,3130,H,14911,61,OCEAN PARK,WA,PACIFIC,1,1,0,Washington
98641,"OYSTERVILLE, WA",J,13,J,74,H,402,7,OYSTERVILLE,WA,PACIFIC,1,1,0,Washington
98642,"RIDGEFIELD, WA",G,7564,G,110716,G,434849,593,RIDGEFIELD,WA,CLARK,0,0,0,Washington
98643,"ROSBURG, WA",J,28,J,315,J,1374,7,ROSBURG,WA,WAHKIAKUM,1,1,0,Washington
98644,"SEAVIEW, WA",H,287,H,2039,H,9453,37,SEAVIEW,WA,PACIFIC,1,1,0,Washington
98645,"SILVERLAKE, WA",H,91,H,1184,J,4936,17,SILVERLAKE,WA,COWLITZ,0,0,0,Washington
98647,"SKAMOKAWA, WA",H,22,J,88,H,320,11,SKAMOKAWA,WA,WAHKIAKUM,1,1,0,Washington
98649,"TOUTLE, WA",G,57,G,451,G,2151,18,TOUTLE,WA,COWLITZ,0,0,0,Washington
98660,"VANCOUVER, WA",G,16748,G,291775,G,1166194,1015,VANCOUVER,WA,CLARK,0,0,0,Washington
98661,"VANCOUVER, WA",G,19355,G,308183,G,1199008,1213,VANCOUVER,WA,CLARK,0,0,0,Washington
98662,"VANCOUVER, WA",G,15276,G,202779,G,845800,1171,VANCOUVER,WA,CLARK,0,0,0,Washington
98663,"VANCOUVER, WA",G,3181,G,43380,G,183618,415,VANCOUVER,WA,CLARK,0,0,0,Washington
98664,"VANCOUVER, WA",G,6876,H,148560,H,612743,357,VANCOUVER,WA,CLARK,0,0,0,Washington
98665,"VANCOUVER, WA",G,12282,G,146785,G,624150,928,VANCOUVER,WA,CLARK,0,0,0,Washington
98671,"WASHOUGAL, WA",G,4031,G,58601,G,250852,462,WASHOUGAL,WA,CLARK,0,0,0,Washington
98674,"WOODLAND, WA",G,5794,G,77352,G,333396,386,WOODLAND,WA,COWLITZ,0,0,0,Washington
98675,"YACOLT, WA",G,639,G,7893,G,36200,134,YACOLT,WA,CLARK,0,0,0,Washington
98682,"VANCOUVER, WA",G,12698,G,186081,G,745789,1248,VANCOUVER,WA,CLARK,0,0,0,Washington
98683,"VANCOUVER, WA",G,15226,G,299067,G,1226450,825,VANCOUVER,WA,CLARK,0,0,0,Washington
98684,"VANCOUVER, WA",G,11493,G,174071,G,711087,858,VANCOUVER,WA,CLARK,0,0,0,Washington
98685,"VANCOUVER, WA",G,4592,G,58175,G,243195,555,VANCOUVER,WA,CLARK,0,0,0,Washington
98686,"VANCOUVER, WA",G,8000,H,141393,G,572316,530,VANCOUVER,WA,CLARK,0,0,0,Washington
